,FILER,EIN,styear,ASCD,INCCD,ACTIVCD1,P1TCONT,P1DUES,P1SECURG,P1SECURC,P1INVST,P1FREXP,P1INVNTC,P1INVNTN,P1SALES,GROSSINC,GROSSREC,P1TOTEXP,P1NASEOY,P2TCOMP,P2TFRFEE,P4B_ASST,P4E_ASST,P4B_LIAB,P4E_LIAB,P4E_RETN,P6INIFEE,P6PUBINC,P6MEMINC,P6OTHINC,P6POLEXP,A3LOBBY,A6GLBYB,A6DLBYB,A6TGLBB,A6NLBEB,SUBSECCD,POPCODE,REASON,P6UNRELB,NAME,CITY,STATE,ZIP,ZIP5,FIPS,NTEECC,NTEE1,zipnew,MSA_NECH,PMSA,fipsold,LEVEL1,LEVEL2,LEVEL3,LEVEL4,MAJGRPB,OUTNCCS,OUTREAS,NTEESRC,ntmaj10,ntmaj12,ntmaj5,RandNum,nteeConf,v_errorCd,NteeOldA,Confidence,NteeCC4d,FipsOldA,estTAXPER,TaxPer,FisYr,stateOld1,zip5Old1,cityOld1,Ntee2007a,Confidence2007a,ACCPER,ACTIV1,ACTIV2,ACTIV3,ADDRESS,AFCD,ARED,CLASSCD,CONTACT,DEDUCTCD,DISTRICT,FNDNCD,FRCD,GEN,ORGCD,RULEDATE,SEC_NAME,LEVEL1old20090616,LEVEL2old20090616,LEVEL3old20090616,LEVEL4old20090616,OUTNCCSold20090616,OUTREASold20090616,nteeFinal,nteeFinal1,NAICS
10567,990.0,112022650,1989,4,5,920,0,34775,0,0,2152,0,0,0,115300,115300,150075,101571,50954,0,0,32862,50954,0,0,50954,0,0,0,0,0,0,0,0,0,0,6,1,0,Y,AUTO BODY CRAFTSMENS GUILD,GLENDALE,NY,11385-7067,11385.0,36081.0,A01,A,11385.0,5602.0,5600.0,36081.0,O,O,AR,A,A,IN,,Q,AR,AR,AR,0.36333000000000004,,,Z99,C,,36081.0,198912,198912,1989,NY,11385.0,GLENDALE,A40,A,12,920.0,0.0,0.0,65 60 MYRTLE AVE,3.0,0.0,2000.0,,2.0,11.0,0.0,10.0,0.0,1.0,6506.0,,PC,O,AR,A,IN,,A40,A,710000.0
10878,,112466553,1988,0,0,301,0,0,0,0,0,0,0,0,0,0,0,0,0,0,0,0,0,0,0,0,0,0,0,0,0,0,0,0,0,0,4,0,0,N,FORT GREENE RECREATION,BROOKLYN,NY,11205-2001,11205.0,36047.0,A99,A,11205.0,5602.0,5600.0,36047.0,O,O,AR,A,A,IN,,1,AR,AR,AR,0.69185,N,,A99,C,,36047.0,198812,198812,1988,NY,11205.0,BROOKLYN,N32,C,12,328.0,994.0,317.0,PO BOX 170551,3.0,199612.0,1000.0,,1.0,11.0,15.0,20.0,0.0,1.0,9203.0,,PC,O,AR,A,IN,,A99,A,710000.0
11035,,112557794,1988,0,0,998,0,0,0,0,0,0,0,0,0,0,0,0,0,0,0,0,0,0,0,0,0,0,0,0,0,0,0,0,0,0,4,0,0,N,BROAD CHANNEL VOLUNTEERS,BROAD CHANNEL,NY,11693-1037,11693.0,36081.0,A32,A,11693.0,5602.0,5600.0,36081.0,O,O,AR,A,A,IN,,1,AR,AR,AR,0.25605,C,,A32,C,,36081.0,198812,198812,1988,NY,11693.0,BROAD CHANNEL,A32,A,12,158.0,407.0,0.0,15 NOEL RD,3.0,0.0,1.0,,1.0,1.0,15.0,10.0,0.0,1.0,199801.0,,PC,O,AR,A,IN,,A32,A,513120.0
11068,990.0,112579110,1989,3,4,200,0,29034,0,0,248,4601,0,0,248,248,29282,31579,18801,0,0,21098,18801,0,0,0,0,0,0,0,0,0,0,0,0,0,12,1,0,N,NEW YORK OIL HEAT SERVICE MANAGERS ASSOC,BRONX,NY,10472-3102,10472.0,36005.0,A65,A,10472.0,5602.0,5600.0,36005.0,O,O,AR,A,A,IN,,1,AR,AR,AR,0.06954,C,,A65,C,,36005.0,198912,198912,1989,NY,10472.0,BRONX,A65,C,12,200.0,0.0,0.0,1110 BRONX RIVER AVE,3.0,0.0,1000.0,% CHARLES WEINER,2.0,13.0,0.0,20.0,0.0,1.0,8311.0,,PC,O,AR,A,IN,,A65,A,711110.0
11208,990.0,112662416,1988,1,5,0,21847,0,0,0,0,0,0,0,216809,216809,238656,241262,799,0,0,4812,2206,1407,1407,0,0,0,0,0,0,0,0,0,0,0,0,1,7,N,JUBILATION DANCE,NEW YORK,NY,10001-4810,10001.0,36061.0,A62,A,10001.0,5602.0,5600.0,36061.0,U,O,AR,A,A,IN,,1,AR,AR,AR,0.7845,N,,A62,B,,36061.0,198812,198812,1988,NY,10001.0,NEW YORK,A62,B,12,,,,,,,,,,,,,,,,,PC,O,AR,A,IN,,A62,A,711120.0
11311,,112713273,1988,0,0,319,0,0,0,0,0,0,0,0,0,0,0,0,0,0,0,0,0,0,0,0,0,0,0,0,0,0,0,0,0,0,7,0,0,N,CRAFTSMEN ASSOC,CAMBRIA HEIGHTS,NY,11411-1230,11411.0,36081.0,A40,A,11411.0,5602.0,5600.0,36081.0,O,O,AR,A,A,IN,,Q,AR,AR,AR,0.9263899999999999,,,Z99,C,,36081.0,198812,198812,1988,NY,11411.0,CAMBRIA HEIGHTS,A40,A,12,319.0,30.0,40.0,115 75 222ND ST,3.0,0.0,1000.0,,2.0,11.0,0.0,20.0,0.0,1.0,8503.0,,PC,O,AR,A,IN,,A40,A,710000.0
11445,990.0,112803536,1988,5,5,119,2910,552,0,0,4040,3419,0,0,98904,98904,102366,13833,152502,0,0,132030,153037,535,535,152502,0,0,0,0,0,0,0,0,0,0,4,1,0,Y,BORGETTO CULTURAL ASSOC M S S ADDOLORATA DEL ROMITELLO,ASTORIA,NY,11103-1264,11103.0,36081.0,A99,A,11103.0,5602.0,5600.0,36081.0,O,O,AR,A,A,IN,,Q,AR,AR,AR,0.69472,,,Z99,B,,36081.0,198907,198907,1989,NY,11103.0,ASTORIA,A23,B,7,119.0,0.0,0.0,46 02 30TH AVE,3.0,0.0,1000.0,,2.0,11.0,0.0,10.0,0.0,1.0,8707.0,ELLO INC,PC,O,AR,A,IN,,A23,A,710000.0
11582,,112892196,1988,0,0,0,0,0,0,0,0,0,0,0,0,0,0,0,0,0,0,0,0,0,0,0,0,0,0,0,0,0,0,0,0,0,3,0,0,N,BALLET FOLKLORICO MEXICANO DE NUEVA YORK,SUNNYSIDE,NY,11104-0000,11104.0,36081.0,A19,A,11104.0,5602.0,5600.0,36081.0,PC,O,AR,A,A,IN,,1,AR,AR,AR,0.24045999999999998,N,,A19,C,,36081.0,198812,198812,1988,NY,11104.0,SUNNYSIDE,A63,A,12,995.0,90.0,119.0,93 41 207TH ST,3.0,199812.0,2000.0,,1.0,11.0,16.0,10.0,0.0,1.0,9509.0,,PC,O,AR,A,IN,,A63,A,711120.0
11687,,112942081,1989,0,0,0,0,0,0,0,0,0,0,0,0,0,0,0,0,0,0,0,0,0,0,0,0,0,0,0,0,0,0,0,0,0,3,0,0,N,NEW YORK DANCE ENSEMBLE CULTURAL & CIVIC ENRICHMENT,BROOKLYN,NY,11232-1111,11232.0,36047.0,A62,A,11232.0,5602.0,5600.0,36047.0,PC,O,AR,A,A,IN,,1,AR,AR,AR,0.24574000000000001,N,,A62,A,,36047.0,198912,198912,1989,NY,11232.0,BROOKLYN,A62,A,12,90.0,0.0,0.0,156 23RD ST,3.0,0.0,1000.0,,1.0,11.0,15.0,20.0,0.0,1.0,9310.0,ICHMENT INC,PC,O,AR,A,IN,,A62,A,711120.0
11968,,116035572,1988,0,0,200,0,0,0,0,0,0,0,0,0,0,0,0,0,0,0,0,0,0,0,0,0,0,0,0,0,0,0,0,0,0,6,0,0,N,ASSOC ARCHITECTURAL & STORE FRONT CONTRACTORS,HOWARD BEACH,NY,11414-2415,11414.0,36081.0,A40,A,11414.0,5602.0,5600.0,36081.0,O,O,AR,A,A,IN,,Q,AR,AR,AR,0.09869,,,Z99,C,,36081.0,198906,198906,1989,NY,11414.0,HOWARD BEACH,A40,A,6,200.0,0.0,0.0,90 53 SHORE PARKWAY,3.0,0.0,2000.0,,2.0,11.0,0.0,20.0,0.0,1.0,6312.0,TORS INC,PC,O,AR,A,IN,,A40,A,710000.0
12310,,116201446,1988,0,0,88,0,0,0,0,0,0,0,0,0,0,0,0,0,0,0,0,0,0,0,0,0,0,0,0,0,0,0,0,0,0,4,0,0,N,LIONS INTERNATION BROOKLYN HGWY,BROOKLYN,NY,11234-6721,11234.0,36047.0,A65,A,11234.0,5602.0,5600.0,36047.0,O,O,AR,A,A,IN,,Q,AR,AR,AR,0.7459,,,Z99,C,,36047.0,198812,198812,1988,NY,11234.0,BROOKLYN,S80,A,12,88.0,0.0,0.0,145 BARLOW DR S,9.0,0.0,3000.0,% THOMAS SETARO,2.0,11.0,0.0,20.0,239.0,5.0,4012.0,8460,PC,O,AR,A,IN,,S80,S,813410.0
12346,990.0,130417765,1989,7,7,919,0,1022176,0,0,230419,0,0,0,2075514,2075514,3097690,2767057,1615307,574373,0,2524246,3059463,1244464,1444168,330621,0,0,0,0,0,0,0,0,0,0,6,1,0,Y,ADVERTISING RES FND,NEW YORK,NY,10022-4503,10022.0,36061.0,A30,A,10022.0,5602.0,5600.0,36061.0,O,O,AR,A,A,IN,,Q,AR,AR,AR,0.20092000000000002,,,Z99,C,,36061.0,198912,198912,1989,NY,10022.0,NEW YORK,A03,A,12,919.0,0.0,0.0,641 LEXINGTON AVE 11TH FLR,3.0,0.0,1000.0,,2.0,13.0,0.0,10.0,0.0,1.0,4303.0,,PC,O,AR,A,IN,,A03,A,813920.0
12366,990.0,130448930,1988,7,7,65,0,120316,0,0,8544,0,0,0,964326,964326,1084642,974272,1092189,49220,0,1599646,1485144,535781,392955,0,0,0,0,0,0,0,0,0,0,0,6,1,0,Y,ART DIRECTORS CLUB,NEW YORK,NY,10003-1402,10003.0,36061.0,A25,A,10003.0,5602.0,5600.0,36061.0,O,O,AR,A,A,IN,,1,AR,AR,AR,0.42783999999999994,N,,A99,A,,36061.0,198908,198908,1989,NY,10003.0,NEW YORK,A25,A,8,65.0,207.0,119.0,250 PARK AVE S,3.0,0.0,2000.0,,2.0,13.0,0.0,10.0,0.0,1.0,3807.0,,PC,O,AR,A,IN,,A25,A,611610.0
12370,990.0,130452445,1989,6,7,59,0,2523890,0,0,41094,0,0,0,62694,62694,2586584,2394122,235839,306250,0,679140,762821,635763,526982,0,0,0,0,0,0,0,0,0,0,0,6,1,0,N,AMER BUSINESS PRESS,NEW YORK,NY,10017-5704,10017.0,36061.0,A01,A,10017.0,5602.0,5600.0,36061.0,O,O,AR,A,A,IN,,Q,AR,AR,AR,0.19722,,,Z99,C,,36061.0,199006,199006,1990,NY,10017.0,NEW YORK,A0330,A,6,59.0,200.0,0.0,675 3RD AVE RM 415,3.0,0.0,2000.0,,2.0,13.0,0.0,10.0,0.0,1.0,3504.0,,PC,O,AR,A,IN,,S41,S,813910.0
12378,990.0,130453230,1988,7,7,919,0,3240272,0,0,70279,0,0,0,1375844,1375844,4616116,4391373,-92968,625520,0,1585335,1868976,1872993,1961944,-92968,0,0,0,0,0,0,0,0,0,0,6,1,0,N,ASSOC NAT ADVERTISERS,NEW YORK,NY,10017-4201,10017.0,36061.0,A30,A,10017.0,5602.0,5600.0,36061.0,O,O,AR,A,A,IN,,Q,AR,AR,AR,0.58343,,,Z99,C,,36061.0,198911,198911,1989,NY,10017.0,NEW YORK,S41,A,11,919.0,205.0,0.0,155 E 44TH ST,3.0,0.0,2000.0,,2.0,13.0,0.0,10.0,0.0,5.0,4208.0,,PC,O,AR,A,IN,,S41,S,813910.0
12389,,130508050,1988,0,0,298,0,0,0,0,0,0,0,0,0,0,0,0,0,0,0,0,0,0,0,0,0,0,0,0,0,0,0,0,0,0,4,0,0,N,BOHEMIAN BENEVOLENT & LITERARY ASSOC NEW YORK CITY,NEW YORK,NY,10021-3705,10021.0,36061.0,A70,A,10021.0,5602.0,5600.0,36061.0,O,O,AR,A,A,IN,,1,AR,AR,AR,0.14196,C,,A76,C,,36061.0,198906,198906,1989,NY,10021.0,NEW YORK,A23,B,6,298.0,318.0,319.0,321 E 73RD ST,3.0,0.0,3000.0,JAN HIRD POKORNY PRESIDENT,2.0,13.0,0.0,10.0,0.0,5.0,6501.0,TY,PC,O,AR,A,IN,,A23,A,710000.0
12464,990.0,130872850,1989,5,6,279,0,605625,0,0,13395,0,0,0,105684,105684,711309,706013,321782,61477,0,317879,322640,1393,858,0,0,0,0,0,0,0,0,0,0,0,5,1,0,N,INTL PHOTO LOCAL 644 IATSE,NEW YORK,NY,10018-6505,10018.0,36061.0,A65,A,,5602.0,5600.0,,O,O,AR,A,A,IN,,Q,AR,AR,AR,0.27335,,,Z99,C,,,199005,199005,1990,NY,,NEW YORK,A65,A,5,279.0,268.0,0.0,505 EIGHTH AVE,9.0,0.0,3000.0,,2.0,13.0,0.0,10.0,386.0,5.0,4104.0,PIC MACH OP-US&CAN,PC,O,AR,A,IN,,J40,J,813930.0
12476,990.0,130951470,1988,7,7,119,10000,1134173,0,0,91141,0,0,0,576299,576299,1720472,1306886,1185194,252452,0,1024793,1473024,252021,287830,0,0,0,0,0,3525,0,0,0,0,0,6,1,0,N,LEAGUE AMER THEATRES & PRODUCERS,NEW YORK,NY,10036-1413,10036.0,36061.0,A99,A,10036.0,5602.0,5600.0,36061.0,O,O,AR,A,A,IN,,Q,AR,AR,AR,0.9029299999999999,,,Z99,C,,36061.0,198908,198908,1989,NY,10036.0,NEW YORK,A0365,A,8,119.0,205.0,279.0,226 W 47TH ST,3.0,0.0,2000.0,,2.0,13.0,0.0,10.0,0.0,1.0,4210.0,,PC,O,AR,A,IN,,A0365,A,813920.0
12479,990.0,130971750,1989,4,5,119,7051,3753,0,0,77,0,0,0,252183,252183,262987,252761,33939,0,0,42614,43235,13245,9296,0,0,0,0,0,0,0,0,0,0,0,7,1,8,N,LIEDERKRANZ CITY NEW YORK,NEW YORK,NY,10128-0505,10128.0,36061.0,A6A,A,10128.0,5602.0,5600.0,36061.0,O,O,AR,A,A,IN,,1,AR,AR,AR,0.87287,N,,A6A,A,,36061.0,199006,199006,1990,NY,10128.0,NEW YORK,A6A,A,6,119.0,916.0,318.0,6 E 87TH ST,3.0,0.0,1000.0,,2.0,13.0,0.0,10.0,0.0,1.0,3907.0,,PC,O,AR,A,IN,,A6A,A,711130.0
12521,990.0,131087160,1989,7,7,200,521756,4860517,779578,621313,295756,0,0,0,2627875,2006562,8010148,6583773,3864077,1153431,0,3059015,3864077,0,0,3864077,0,0,0,0,0,0,0,0,0,0,6,1,0,N,MAGAZINE PUBLISHERS AMERICA,NEW YORK,NY,10022-3801,10022.0,36061.0,A01,A,10022.0,5602.0,5600.0,36061.0,O,O,AR,A,A,IN,,Q,AR,AR,AR,0.78722,,,Z99,C,,36061.0,198912,198912,1989,NY,10022.0,NEW YORK,A33,A,12,200.0,0.0,0.0,919 THIRD AVE 22ND FL,3.0,0.0,2000.0,,2.0,13.0,0.0,10.0,0.0,1.0,4209.0,,PC,O,AR,A,IN,,A0333,A,813920.0
12534,990.0,131101367,1988,4,5,200,0,56812,0,0,4233,0,37935,-332,111236,73301,168048,120955,55841,0,0,56104,65231,9421,9390,55841,0,0,0,0,0,0,0,0,0,0,6,1,0,Y,NEW YORK SOC ARCHITECTS,NEW YORK,NY,10001-6708,10001.0,36061.0,A01,A,10001.0,5602.0,5600.0,36061.0,O,O,AR,A,A,IN,,Q,AR,AR,AR,0.9274399999999999,,,Z99,C,,36061.0,198911,198911,1989,NY,10001.0,NEW YORK,A03,B,11,200.0,205.0,0.0,275 SEVENTH AVE 15TH FLR,3.0,0.0,2000.0,,2.0,13.0,0.0,10.0,0.0,1.0,4208.0,,PC,O,AR,A,IN,,A03,A,813920.0
12590,990.0,131374145,1989,6,6,200,0,299962,0,0,33082,0,0,0,278413,278413,578375,410431,530268,60000,0,490083,530267,1866,0,0,0,0,0,0,0,0,0,0,0,0,6,1,0,Y,TEXTILE DISTRIBUTORS ASSOC,NEW YORK,NY,10018-7904,10018.0,36061.0,A01,A,10018.0,5602.0,5600.0,36061.0,O,O,AR,A,A,IN,,Q,AR,AR,AR,0.9864299999999999,,,Z99,C,,36061.0,198912,198912,1989,NY,10018.0,NEW YORK,A40,A,12,200.0,279.0,0.0,45 W 36TH ST,3.0,0.0,2000.0,,2.0,13.0,0.0,10.0,0.0,1.0,4409.0,,PC,O,AR,A,IN,,A40,A,710000.0
12600,990.0,131394480,1989,6,6,205,0,512604,0,0,27056,0,7636,7855,351181,343545,863785,916249,120330,99660,0,370162,609777,189732,489447,0,0,0,0,0,0,0,0,0,0,0,6,1,0,N,TRAFFIC AUDIT BUREAU MEDIA MEASUREMENT,NEW YORK,NY,10170-2599,10170.0,36061.0,A01,A,10170.0,5602.0,5600.0,36061.0,O,O,AR,A,A,IN,,Q,AR,AR,AR,0.80919,,,Z99,C,,36061.0,198912,198912,1989,NY,10170.0,NEW YORK,A30,B,12,205.0,0.0,0.0,420 LEXINGTON AVE 2520,3.0,0.0,2000.0,,2.0,13.0,0.0,10.0,0.0,1.0,5501.0,,PC,O,AR,A,IN,,A30,A,510000.0
12610,990.0,131406872,1989,3,4,263,0,75445,0,0,0,0,0,0,0,0,75445,39749,-10940,0,0,6357,16200,58122,27140,0,0,0,0,0,0,0,0,0,0,0,5,1,0,N,INTL ALLIANCE THEATRICAL STAGE EMP & MVG PIC MACH OP US&CAN,BRONX,NY,10036-5701,10036.0,36061.0,A65,A,,5602.0,5600.0,,O,O,AR,A,A,IN,,Q,AR,AR,AR,0.71433,,,Z99,C,,,198912,198912,1989,NY,,BRONX,A65,A,12,263.0,0.0,0.0,1515 BROADWAY 601,9.0,0.0,3000.0,,2.0,13.0,0.0,10.0,386.0,5.0,4407.0,PIC MACH OP-US&CAN,PC,O,AR,A,IN,,A65,A,711110.0
12642,990.0,131505524,1988,6,7,205,0,433033,521269,497784,57592,0,51881,14234,671124,121459,1104157,710064,595628,76534,0,890303,805663,153687,210035,0,0,0,0,0,0,0,0,0,0,0,6,1,0,N,AMER INST ARCHITECTS N Y CHAPTER,NEW YORK,NY,10016-6186,10016.0,36061.0,A40,A,10016.0,5602.0,5600.0,36061.0,O,O,AR,A,A,IN,,1,AR,AR,AR,0.95301,N,,A40,B,,36061.0,198812,198812,1988,NY,10016.0,NEW YORK,A40,B,12,205.0,40.0,279.0,200 LEXINGTON AVE RM 602,0.0,0.0,1000.0,,2.0,13.0,11.0,10.0,0.0,1.0,4208.0,N Y CHAPTER,PC,O,AR,A,IN,,A40,A,710000.0
12656,990.0,131520977,1989,4,4,119,0,41938,0,0,0,0,0,0,0,0,41938,28155,65876,0,0,52093,65876,0,0,0,0,0,0,0,0,0,0,0,0,0,6,1,0,N,ART & ANTIQUE DEALERS LEAGUE AMERICA,NEW YORK,NY,10021-1313,10021.0,36061.0,A01,A,10021.0,5602.0,5600.0,36061.0,O,O,AR,A,A,IN,,Q,AR,AR,AR,0.9041899999999999,,,Z99,B,,36061.0,199009,199009,1990,NY,10021.0,NEW YORK,A0380,A,9,119.0,0.0,0.0,353 E 78TH ST,3.0,0.0,1000.0,,2.0,13.0,0.0,10.0,0.0,1.0,7601.0,,PC,O,AR,A,IN,,A0380,A,813920.0
12665,,131530748,1988,0,0,59,0,0,0,0,0,0,0,0,0,0,0,0,0,0,0,0,0,0,0,0,0,0,0,0,0,0,0,0,0,0,8,0,0,N,CINEMA RADIO TV UNIT 6000,NEW YORK,NY,10036-7209,10036.0,36061.0,A32,A,10036.0,5602.0,5600.0,36061.0,O,O,AR,A,A,IN,,Q,AR,AR,AR,0.121,,,Z99,C,,36061.0,198812,198812,1988,NY,10036.0,NEW YORK,A32,A,12,59.0,29.0,349.0,229 W 42ND ST,9.0,0.0,1000.0,,1.0,13.0,0.0,20.0,947.0,5.0,4606.0,,PC,O,AR,A,IN,,A32,A,513120.0
12693,990.0,131572247,1988,5,6,119,0,167697,0,0,6962,0,208509,286309,501780,293271,669477,410532,189748,0,0,357510,353655,218198,163907,0,13225,14379,0,0,0,0,0,0,0,0,7,1,0,Y,METRO OPERA CLUB,NEW YORK,NY,10023-0000,10023.0,36061.0,A11,A,10023.0,5602.0,5600.0,36061.0,O,S,ZA,A,A,IN,,1,AR,AR,AR,0.21941999999999998,N,,A11,A,,36061.0,198907,198907,1989,NY,10023.0,NEW YORK,A11,A,7,119.0,319.0,0.0,LINCOLN CENTER,3.0,0.0,1000.0,,2.0,13.0,0.0,10.0,0.0,1.0,4608.0,,PC,S,ZA,A,IN,,A11,A,813219.0
12704,990.0,131583260,1989,6,5,919,0,398313,0,0,43455,0,0,0,43455,43455,441768,419976,146613,161081,0,512472,635119,387651,488506,0,0,0,0,0,0,0,0,0,0,0,6,1,0,N,STATION REPRESENTATIVES ASSOC,NEW YORK,NY,10169-0005,10169.0,36061.0,A30,A,10169.0,5602.0,5600.0,36061.0,O,O,AR,A,A,IN,,Q,AR,AR,AR,0.20525,,,Z99,C,,36061.0,199006,199006,1990,NY,10169.0,NEW YORK,A01,C,6,919.0,200.0,0.0,230 PARK AVE,3.0,0.0,2000.0,KATZ MEDIA J BELOYIANIS,2.0,13.0,0.0,10.0,0.0,1.0,6910.0,,PC,O,AR,A,IN,,A01,A,813319.0
12773,990.0,131673348,1989,6,4,908,0,1186,15087,6105,21138,0,0,0,36225,30120,37411,37245,796533,0,0,712504,797258,535,725,6534,0,0,0,0,0,0,0,0,0,0,4,1,0,N,OLD GUARD CITY NEW YORK,NEW YORK,NY,10024-1001,10024.0,36061.0,A82,A,10024.0,5602.0,5600.0,36061.0,O,O,AR,A,A,IN,,Q,AR,AR,AR,0.12979000000000002,,,Z99,A,,36061.0,199002,199002,1990,NY,10024.0,NEW YORK,W20,C,2,908.0,0.0,0.0,307 W 91ST ST,3.0,0.0,3000.0,,2.0,13.0,0.0,10.0,0.0,1.0,5203.0,,PC,O,AR,A,IN,,W20,W,813410.0
12986,990.0,131769475,1989,5,4,319,0,5600,0,0,20053,0,0,0,68629,68629,74229,29109,229850,0,0,244292,258702,24792,28852,0,0,0,0,0,0,0,0,0,0,0,4,1,0,N,THEATRICAL MUTUAL ASSOC NEW YORK LODGE 1,NYC,NY,10019-0000,10019.0,36061.0,A65,A,10019.0,5602.0,5600.0,36061.0,O,O,AR,A,A,IN,,Q,AR,AR,AR,0.08631,,,Z99,C,,36061.0,198912,198912,1989,NY,10019.0,NYC,A65,B,12,319.0,0.0,0.0,211 W 53RD ST,3.0,0.0,3000.0,,2.0,13.0,0.0,20.0,0.0,1.0,5504.0,,PC,O,AR,A,IN,,A65,A,711110.0
13000,990.0,131783842,1989,5,5,200,0,289673,0,0,13674,0,0,0,13674,13674,303347,251074,141503,0,0,77398,130077,-11832,-11426,141503,0,0,0,0,0,0,0,0,0,0,6,1,0,N,ANTIQUARIAN BOOKSELLERS ASSOC AMERICA SHOP 2 CONCOURSE,NEW YORK,NY,10020-1605,10020.0,36061.0,A03,A,10020.0,5602.0,5600.0,36061.0,O,O,AR,A,A,IN,,1,AR,AR,AR,0.53283,N,,A03,A,,36061.0,198912,198912,1989,NY,10020.0,NEW YORK,A0333,A,12,200.0,0.0,0.0,50 ROCKERFELLER PLAZA,3.0,0.0,2000.0,,2.0,13.0,0.0,10.0,0.0,1.0,5109.0,2 CONCOURSE,PC,O,AR,A,IN,,A0333,A,813920.0
13018,990.0,131813049,1989,3,5,123,125662,0,0,0,1041,16848,0,0,35652,35652,161314,165136,-5924,24005,0,16324,23003,18426,28927,0,0,0,0,0,0,0,0,0,0,0,4,1,0,N,AMER COMM AFRICA,NEW YORK,NY,10038-4010,10038.0,36061.0,A70,A,10038.0,5602.0,5600.0,36061.0,O,O,AR,A,A,IN,,Q,AR,AR,AR,0.050089999999999996,,,Z99,C,,36061.0,198912,198912,1989,NY,10038.0,NEW YORK,A70,C,12,123.0,124.0,480.0,17 JOHN STREET 12TH FLOOR,3.0,0.0,3000.0,AFRICA ACTION,2.0,13.0,0.0,10.0,0.0,1.0,7911.0,,PC,O,AR,A,IN,,A70,A,710000.0
13033,990.0,131830960,1988,5,7,205,0,75340,0,0,3749,0,0,0,1028021,1028021,1103361,1087101,-8815,0,0,218571,123478,243646,132293,0,0,0,0,0,0,0,0,0,0,0,6,1,0,Y,INTL RADIO & TELEVISION SOC,NEW YORK,NY,10170-0002,10170.0,36061.0,A32,A,,5602.0,5600.0,,O,O,AR,A,A,IN,,Q,AR,AR,AR,0.72501,,,Z99,C,,,198812,198812,1988,NY,,NEW YORK,A32,A,12,205.0,120.0,0.0,420 LEXINGTON AVE,3.0,,2000.0,,,,0.0,,,,5406.0,,PC,O,AR,A,IN,,A32,A,513120.0
13048,990.0,131841248,1988,7,6,265,0,0,0,0,69029,0,0,0,908770,908770,908770,966673,708363,0,0,1023775,1095732,257509,387369,0,0,0,0,0,0,0,0,0,0,0,9,1,0,N,INTL PHOTOGRAPHERS 644 WELFARE FND,NEW YORK,NY,10011-5126,10011.0,36061.0,A40,A,10011.0,5602.0,5600.0,36061.0,O,O,AR,A,A,IN,,Q,AR,AR,AR,0.88079,,,Z99,C,,36061.0,198908,198908,1989,NY,10011.0,NEW YORK,A40,A,8,265.0,0.0,0.0,505 EIGHTH AVE,3.0,0.0,1000.0,,2.0,13.0,0.0,10.0,0.0,5.0,5811.0,,PC,O,AR,A,IN,,A40,A,710000.0
13085,990.0,131866133,1989,4,5,263,0,129904,0,0,241,0,0,0,6241,6241,136145,140996,20307,0,0,32853,26733,7695,6426,20307,0,0,0,0,0,0,0,0,0,0,5,1,0,N,INTL ALLIANCE THEATRICAL STAGE EMP & MVG PIC MACH OP US&CAN,NEW YORK,NY,10018-6505,10018.0,36061.0,A65,A,,5602.0,5600.0,,O,O,AR,A,A,IN,,Q,AR,AR,AR,0.70782,,,Z99,C,,,198912,198912,1989,NY,,NEW YORK,A65,A,12,263.0,0.0,0.0,505 EIGHTH AVE 16TH FLR,9.0,,3000.0,,,,0.0,,,,6205.0,PIC MACH OP-US&CAN,PC,O,AR,A,IN,,A65,A,711110.0
13197,990.0,131951979,1988,6,7,205,2524,453529,21595,24637,34625,0,0,0,1184825,1160188,1640878,1736234,415735,0,0,669060,622518,128278,206783,0,0,0,0,0,0,0,0,0,0,0,6,1,0,N,NAT ACAD TELEVISION ARTS & SCIENCES,NEW YORK,NY,10019-2211,10019.0,36061.0,A03,A,10019.0,5602.0,5600.0,36061.0,O,O,AR,A,A,IN,,1,AR,AR,AR,0.7841,N,,A03,A,,36061.0,198908,198908,1989,NY,10019.0,NEW YORK,A0332,A,8,205.0,0.0,0.0,111 W 57TH ST,6.0,0.0,2000.0,,2.0,13.0,0.0,10.0,3005.0,5.0,7610.0,,PC,O,AR,A,IN,,A0332,A,813920.0
13255,990.0,131996451,1989,5,5,920,0,190000,0,0,41576,0,0,0,41589,41589,231589,228603,262789,103373,0,437225,367046,177422,104256,0,0,0,0,0,0,0,0,0,0,0,6,1,0,N,MEDIA RATING CNCL,NEW YORK,NY,10019-3211,10019.0,36061.0,A01,A,10019.0,5602.0,5600.0,36061.0,O,O,AR,A,A,IN,,Q,AR,AR,AR,0.19003,,,Z99,C,,36061.0,198912,198912,1989,NY,10019.0,NEW YORK,A30,B,12,920.0,905.0,0.0,200 W 57TH ST STE 204,3.0,0.0,2000.0,,2.0,13.0,0.0,10.0,0.0,1.0,6512.0,,PC,O,AR,A,IN,,A30,A,510000.0
13257,990.0,131997672,1989,5,6,0,0,0,0,0,0,0,0,0,883273,883273,883273,681071,295788,0,0,93586,295788,0,0,0,0,0,0,0,0,0,0,0,0,0,3,1,0,N,BILL COMMUNICATIONS,NEW YORK,NY,10017-6706,10017.0,36061.0,A30,A,10017.0,5602.0,5600.0,36061.0,PC,O,AR,A,A,IN,,1,AR,AR,AR,0.47868,N,,A30,B,,36061.0,198912,198912,1989,NY,10017.0,NEW YORK,A30,B,12,,,,,,,,,,,,,,,,,PC,O,AR,A,IN,,A30,A,510000.0
13315,990.0,132562532,1989,4,5,205,0,0,0,0,4377,0,0,0,244468,244468,244468,259306,48363,0,0,67286,52972,4085,4609,0,0,0,0,0,0,0,0,0,0,0,6,1,0,N,AMER SOC JOURNALISTS & AUTHORS,NEW YORK,NY,10036-5503,10036.0,36061.0,A01,A,10036.0,5602.0,5600.0,36061.0,O,O,AR,A,A,IN,,Q,AR,AR,AR,0.6132,,,Z99,C,,36061.0,199006,199006,1990,NY,10036.0,NEW YORK,A70,A,6,205.0,120.0,279.0,1501 BROADWAY,3.0,0.0,2000.0,,2.0,13.0,0.0,10.0,0.0,1.0,6801.0,,PC,O,AR,A,IN,,A70,A,710000.0
13332,990.0,132576830,1988,8,7,267,0,0,215073,0,1404532,0,0,0,1625326,1625326,1625326,678504,17891732,0,0,17092913,18246370,148003,354638,17891732,0,0,0,0,0,0,0,0,0,0,17,1,0,N,GRAPHIC ARTS INTL UNION LOC 119B NY PRNTRS LEAG SPCL DSPLCMT BNFT FND,NEW YORK,NY,10003-3305,10003.0,36061.0,A99,A,10003.0,5602.0,5600.0,36061.0,O,O,AR,A,A,IN,,Q,AR,AR,AR,0.57397,,,Z99,C,,36061.0,198906,198906,1989,NY,10003.0,NEW YORK,A40,C,6,267.0,0.0,0.0,27 UNION SQ RM 204,3.0,0.0,1000.0,,2.0,13.0,0.0,10.0,0.0,2.0,6803.0,PCL DSPLCMT BNFT FND,PC,O,AR,A,IN,,A1240,A,813219.0
13413,990.0,132643358,1988,5,6,205,0,37478,0,0,20796,0,0,0,845446,845446,882924,753029,467014,47000,0,344183,481673,7064,14659,0,0,0,0,0,0,0,0,0,0,0,6,1,0,N,ONE CLUB ART & COPY,NEW YORK,NY,10010-7201,10010.0,36061.0,A40,A,10010.0,5602.0,5600.0,36061.0,O,O,AR,A,A,IN,,1,AR,AR,AR,0.28635,N,,A99,C,,36061.0,198812,198812,1988,NY,10010.0,NEW YORK,A20,B,12,123.0,995.0,0.0,32 E 21ST ST,3.0,199607.0,1000.0,,1.0,13.0,16.0,10.0,0.0,1.0,9207.0,,PC,O,AR,A,IN,,A20,A,710000.0
13448,990.0,132666239,1989,4,6,200,0,376977,0,0,4404,0,0,0,266510,266510,643487,540122,89430,0,0,151801,97126,12626,7695,0,0,0,0,0,0,0,0,0,0,0,6,1,0,N,NEW YORK MARKET RADIO BROADCASTERS ASSOC,NEW YORK,NY,10017-5404,10017.0,36061.0,A01,A,10017.0,5602.0,5600.0,36061.0,O,O,AR,A,A,IN,,Q,AR,AR,AR,0.31194,,,Z99,C,,36061.0,198912,198912,1989,NY,10017.0,NEW YORK,A34,A,12,200.0,120.0,0.0,51 E 42ND ST 416,3.0,0.0,2000.0,,2.0,13.0,0.0,10.0,0.0,1.0,7101.0,,PC,O,AR,A,IN,,A34,A,513110.0
13523,990.0,132760431,1989,2,5,200,0,386480,0,0,2837,0,0,0,2837,2837,389317,394434,7359,0,0,13977,7374,1500,15,7359,0,0,0,0,0,0,0,0,0,0,6,1,0,N,MEDIA COALITION,NEW YORK,NY,10038-2594,10038.0,36061.0,A01,A,10038.0,5602.0,5600.0,36061.0,O,O,AR,A,A,IN,,Q,AR,AR,AR,0.09817999999999999,,,Z99,C,,36061.0,198912,198912,1989,NY,10038.0,NEW YORK,A30,B,12,200.0,0.0,0.0,1221 AVE OF AMERICAS 24TH FLOOR,3.0,0.0,2000.0,,2.0,13.0,0.0,10.0,0.0,1.0,7407.0,,PC,O,AR,A,IN,,A30,A,510000.0
13552,990.0,132806164,1988,3,5,200,6000,189278,0,0,0,0,0,0,34775,34775,230053,228106,-7109,0,0,7945,12006,17001,19115,0,0,0,0,0,0,0,0,0,0,0,6,1,0,N,ASSOC INDEPENDENT VIDEO & FILMMAKERS,NEW YORK,NY,10013-1015,10013.0,36061.0,A03,A,10013.0,5602.0,5600.0,36061.0,O,O,AR,A,A,IN,,1,AR,AR,AR,0.9009299999999999,N,,A03,A,,36061.0,198906,198906,1989,NY,10013.0,NEW YORK,A0331,A,6,200.0,123.0,119.0,625 BROADWA,3.0,0.0,2000.0,,2.0,13.0,0.0,10.0,0.0,1.0,7505.0,C,PC,O,AR,A,IN,,A0331,A,813920.0
13592,990.0,132856736,1989,8,9,263,0,19388188,31997260,31989094,4662756,0,0,0,37514131,5525037,56902319,25371971,12685148,957186,0,15265921,14968739,2122027,2283591,0,0,0,0,0,0,0,0,0,0,0,5,1,0,N,AMALGAMATED CLOTHING & TEXTILE WORKERS UNION,NEW YORK,NY,10019-5254,10019.0,36061.0,A40,A,10019.0,5602.0,5600.0,36061.0,O,O,AR,A,A,IN,,Q,AR,AR,AR,0.40995,,,Z99,C,,36061.0,198912,198912,1989,NY,10019.0,NEW YORK,A40,A,12,263.0,261.0,279.0,15 UNION SQUARE,6.0,0.0,3000.0,,2.0,13.0,0.0,10.0,3084.0,2.0,7802.0,ACTWU,PC,O,AR,A,IN,,A40,A,710000.0
13593,990.0,132857251,1989,4,4,200,0,60220,0,0,1730,0,0,0,1730,1730,61950,68012,34750,0,0,40812,34750,0,0,0,0,0,0,0,0,0,0,0,0,0,6,1,0,N,DECORATIVE FABRICS ASSOC,NEW YORK,NY,10013-1522,10013.0,36061.0,A01,A,10013.0,5602.0,5600.0,36061.0,O,O,AR,A,A,IN,,Q,AR,AR,AR,0.8427100000000001,,,Z99,C,,36061.0,198912,198912,1989,NY,10013.0,NEW YORK,A40,A,12,200.0,0.0,0.0,31 11 THOMSON AVE,3.0,0.0,2000.0,% LEE JOFA INC,2.0,11.0,0.0,10.0,0.0,1.0,7708.0,,PC,O,AR,A,IN,,A40,A,710000.0
13594,990.0,132857274,1989,5,5,200,0,129744,0,0,3533,0,8620,10587,59037,50417,188781,223064,-23559,0,0,158354,122566,139010,146125,0,0,0,0,0,0,0,0,0,0,0,6,1,0,N,BOOK INDUSTRY STUDY GROUP,NEW YORK,NY,10010-7003,10010.0,36061.0,A05,A,10010.0,5602.0,5600.0,36061.0,O,O,AR,A,A,IN,,1,AR,AR,AR,0.9837,N,,A05,A,,36061.0,199006,199006,1990,NY,10010.0,NEW YORK,A0533,A,6,200.0,209.0,0.0,160 FIFTH AVE 640,3.0,0.0,2000.0,% PASKUS GORDON & HYMAN,2.0,13.0,0.0,10.0,0.0,1.0,7609.0,,PC,O,AR,A,IN,,A0533,A,541720.0
13595,990.0,132857308,1988,4,5,123,0,93250,0,0,6144,0,0,0,7641,7641,100891,93921,65968,0,0,64128,84036,5130,18068,0,0,0,0,0,0,0,0,0,0,0,4,1,0,N,WOMENS FORUM,NEW YORK,NY,10017-6224,10017.0,36061.0,A70,A,10017.0,5602.0,5600.0,36061.0,O,O,AR,A,A,IN,,Q,AR,AR,AR,0.39039,,,Z99,C,,36061.0,198910,198910,1989,NY,10017.0,NEW YORK,R24,C,10,123.0,559.0,0.0,9 E 41ST ST,3.0,0.0,3000.0,,2.0,13.0,0.0,10.0,0.0,1.0,7602.0,,PC,O,AR,A,IN,,R24,R,813311.0
13597,990.0,132861474,1989,7,7,264,0,0,125744,126678,72441,0,0,0,3581228,3454550,3581228,3608283,756192,0,0,2623436,2577872,1733529,1821680,756192,0,0,0,0,0,0,0,0,0,0,9,1,0,N,LOCAL 15 ASSOC FILM CRAFTSMEN WELFARE FND,NEW YORK,NY,10019-3202,10019.0,36061.0,A31,A,10019.0,5602.0,5600.0,36061.0,O,O,AR,A,A,IN,,Q,AR,AR,AR,0.83309,,,Z99,C,,36061.0,198912,198912,1989,NY,10019.0,NEW YORK,A31,A,12,264.0,265.0,279.0,250 W 57TH ST,3.0,0.0,1000.0,% KING ADMINISTRATORS,2.0,13.0,0.0,20.0,0.0,2.0,7702.0,,PC,O,AR,A,IN,,A31,A,512110.0
13609,990.0,132873008,1988,7,8,267,0,1323,19184720,19187064,169709,0,0,0,19354429,167365,19355752,64097,2223842,0,0,2175602,2232220,8346,8378,0,0,0,0,0,0,0,0,0,0,0,17,1,0,N,PRINTERS LEAGUE GRAPHIC ARTS INTNTL UNION LOC 43B SPEC DISPL BNFT FND,NEW YORK,NY,10003-3388,10003.0,36061.0,A99,A,10003.0,5602.0,5600.0,36061.0,O,O,AR,A,A,IN,,Q,AR,AR,AR,0.6684899999999999,,,Z99,C,,36061.0,198901,198901,1989,NY,10003.0,NEW YORK,A0333,A,1,267.0,0.0,0.0,27 UNION SQ RM 407,3.0,0.0,1000.0,,2.0,13.0,0.0,10.0,0.0,2.0,7608.0,SPEC DISPL BNFT FUND,PC,O,AR,A,IN,,A0333,A,813920.0
13613,,132875809,1987,0,0,200,0,0,0,0,0,0,0,0,0,0,0,0,0,0,0,0,0,0,0,0,0,0,0,0,0,0,0,0,0,0,6,0,0,N,ASSOC ARTIST RUN GALLERIES WESTBRO,NEW YORK,NY,10012-3277,10012.0,36061.0,A99,A,,5602.0,5600.0,,O,O,AR,A,A,IN,,Q,AR,AR,AR,0.20731999999999998,,,Z99,C,,,198712,198712,1987,NY,,NEW YORK,A40,C,12,200.0,0.0,0.0,164 MERCER STREET,3.0,,2000.0,,,,0.0,,,,7901.0,ADWAY GALLERY,PC,O,AR,A,IN,,A1140,A,813219.0
13710,990.0,132918640,1989,3,4,0,0,46126,0,0,1294,0,0,0,1294,1294,47420,56070,18664,0,0,27314,18664,0,0,0,0,0,0,0,0,0,0,0,0,0,6,1,8,N,WOMENS MEDIA GROUP,NEW YORK,NY,10017-6102,10017.0,36061.0,A01,A,10017.0,5602.0,5600.0,36061.0,O,O,AR,A,A,IN,,Q,AR,AR,AR,0.97906,,,Z99,C,,36061.0,198912,198912,1989,NY,10017.0,NEW YORK,A30,B,12,205.0,0.0,0.0,501 5TH AVE 901,3.0,0.0,2000.0,% SHUBERT SILVER & ROSEN,2.0,13.0,0.0,10.0,0.0,1.0,9308.0,,PC,O,AR,A,IN,,A30,A,510000.0
13711,,132919399,1989,0,0,0,0,0,0,0,0,0,0,0,0,0,0,0,0,0,0,0,0,0,0,0,0,0,0,0,0,0,0,0,0,0,3,0,0,N,LEE STRASBERG CREATIVE CTR,NEW YORK,NY,10003-2149,10003.0,36061.0,A90,A,10003.0,5602.0,5600.0,36061.0,PC,O,AR,A,A,IN,,1,AR,AR,AR,0.57418,N,,A61,B,,36061.0,198912,198912,1989,NY,10003.0,NEW YORK,A90,B,12,0.0,0.0,0.0,115 E 15TH ST,0.0,0.0,1000.0,,1.0,13.0,9.0,20.0,0.0,5.0,0.0,,PC,O,AR,A,IN,,A90,A,813219.0
13739,990.0,132932563,1989,4,4,319,1574,815,0,0,11441,0,0,0,41754,41754,44143,17584,70311,0,0,60838,70311,0,0,0,815,0,0,0,0,0,0,0,0,0,7,1,0,N,METRO SOC KARDAMYLIANS,BROOKLYN,NY,11209-3601,11209.0,36047.0,A99,A,11209.0,5602.0,5600.0,36047.0,O,O,AR,A,A,IN,,Q,AR,AR,AR,0.54843,,,Z99,C,,36047.0,198912,198912,1989,NY,11209.0,BROOKLYN,A99,C,12,119.0,123.0,0.0,7919 THIRD AVE,3.0,0.0,1000.0,,2.0,11.0,0.0,10.0,0.0,1.0,7805.0,LIVANOS,PC,O,AR,A,IN,,A99,A,710000.0
13820,990.0,132971627,1989,4,6,91,0,0,0,0,1677,0,0,0,568489,568489,568489,587471,90776,0,0,109758,95413,0,4637,90776,0,0,0,0,0,0,0,0,0,0,4,1,0,N,AMER ARTS & CRAFTS ALLIANCE,NEW YORK,NY,10168-1999,10168.0,36061.0,A20,A,10168.0,5602.0,5600.0,36061.0,O,O,AR,A,A,IN,,Q,AR,AR,AR,0.70204,,,Z99,A,,36061.0,198912,198912,1989,NY,10168.0,NEW YORK,A0140,A,12,91.0,0.0,0.0,PO BOX 241,3.0,0.0,3000.0,% ALAN FELL,2.0,13.0,0.0,10.0,0.0,1.0,7907.0,,PC,O,AR,A,IN,,A0140,A,813319.0
13845,990.0,132983705,1988,5,5,0,82902,75261,0,0,4866,41357,0,0,80041,80041,238204,134205,76839,0,0,98974,183746,84121,106907,0,0,0,0,0,0,0,0,0,0,0,3,1,8,Y,NEW YORK WOMEN IN FILM,NEW YORK,NY,10036-6613,10036.0,36061.0,A03,A,10036.0,5602.0,5600.0,36061.0,PC,O,AR,A,A,IN,,1,AR,AR,AR,0.16158,N,,A03,A,,36061.0,198812,198812,1988,NY,10036.0,NEW YORK,A0332,A,12,119.0,0.0,0.0,35 W 44TH ST,3.0,0.0,1000.0,,1.0,13.0,15.0,10.0,0.0,1.0,8512.0,,PC,O,AR,A,IN,,A0332,A,813920.0
13865,,132990527,1988,0,0,205,0,0,0,0,0,0,0,0,0,0,0,0,0,0,0,0,0,0,0,0,0,0,0,0,0,0,0,0,0,0,6,0,0,N,MUSIC PUBLISHERS ASSOC UNITED STATES,NEW YORK,NY,10017-4014,10017.0,36061.0,A01,A,10017.0,5602.0,5600.0,36061.0,O,O,AR,A,A,IN,,Q,AR,AR,AR,0.026039999999999997,,,Z99,C,,36061.0,198905,198905,1989,NY,10017.0,NEW YORK,A68,A,5,205.0,0.0,0.0,205 E 42ND ST,3.0,0.0,2000.0,,2.0,13.0,0.0,10.0,0.0,1.0,7910.0,INC,PC,O,AR,A,IN,,A68,A,711130.0
13925,990.0,133019799,1988,3,4,0,16981,0,0,0,0,25,0,0,36195,36195,53176,49236,7761,0,0,3894,10514,74,2753,0,0,0,0,0,0,0,0,0,0,0,3,1,8,N,NEW LIFE DANCE,NEW YORK,NY,10009-0834,10009.0,36061.0,A62,A,10009.0,5602.0,5600.0,36061.0,PC,O,AR,A,A,IN,,1,AR,AR,AR,0.34891,N,,A62,A,,36061.0,198812,198812,1988,NY,10009.0,NEW YORK,A62,A,12,995.0,90.0,0.0,PO BOX 834,3.0,0.0,1000.0,,1.0,13.0,16.0,10.0,0.0,1.0,8008.0,,PC,O,AR,A,IN,,A62,A,711120.0
13930,990.0,133021168,1989,4,5,64,61500,0,0,0,0,0,0,0,48129,48129,109629,57866,42886,0,0,30725,42886,545,0,0,0,0,0,0,0,0,0,0,0,0,4,1,0,Y,COMITE DEL DESFILE DE LA HISPANIDAD,NEW YORK,NY,10010-0000,10010.0,36061.0,A84,A,10010.0,5602.0,5600.0,36061.0,O,O,AR,A,A,IN,,Q,AR,AR,AR,0.38679,,,Z99,C,,36061.0,199002,199002,1990,NY,10010.0,NEW YORK,A84,C,2,64.0,90.0,92.0,174 176 5TH AVE SUITE 401,3.0,0.0,3000.0,,2.0,13.0,0.0,10.0,0.0,1.0,8005.0,,PC,O,AR,A,IN,,A84,A,712120.0
13940,990.0,133025933,1988,2,5,0,0,0,0,0,0,0,0,0,243729,243729,243729,250,-4576969,0,0,11261,9011,4831709,4585980,-4576969,0,0,0,0,0,0,0,0,0,0,3,1,9,Y,PUBLIC BROADCASTING COMMUNICATIONS,NEW YORK,NY,10019-1804,10019.0,36061.0,A30,A,10019.0,5602.0,5600.0,36061.0,PC,O,AR,A,A,IN,,1,AR,AR,AR,0.19277,N,,A30,B,,36061.0,198812,198812,1988,NY,10019.0,NEW YORK,A30,B,12,121.0,0.0,0.0,356 W 58TH ST,3.0,0.0,1000.0,,1.0,13.0,17.0,10.0,0.0,1.0,8012.0,,PC,O,AR,A,IN,,A30,A,510000.0
13969,990.0,133036753,1988,3,4,0,25799,0,0,0,0,29,0,0,34752,34752,60551,59115,4190,0,0,10946,15298,8192,11108,0,0,0,0,0,0,0,0,0,0,0,4,1,7,N,BOND STREET THEATRE COALITION,NEW YORK,NY,10012-2308,10012.0,36061.0,A65,A,10012.0,5602.0,5600.0,36061.0,O,O,AR,A,A,IN,,1,AR,AR,AR,0.9371700000000001,C,,A65,A,,36061.0,198812,198812,1988,NY,10012.0,NEW YORK,A65,A,12,0.0,0.0,0.0,2 BOND ST,3.0,0.0,3000.0,,0.0,13.0,0.0,10.0,0.0,5.0,0.0,,PC,O,AR,A,IN,,A65,A,711110.0
13995,,133047540,1987,0,0,90,0,0,0,0,0,0,0,0,0,0,0,0,0,0,0,0,0,0,0,0,0,0,0,0,0,0,0,0,0,0,0,0,0,N,DANCE FOUNTAIN INC,NEW YORK,NY,10036-6327,10036.0,36061.0,A62,A,10036.0,5602.0,5600.0,36061.0,U,O,AR,A,A,IN,,1,AR,AR,AR,0.41913999999999996,C,,A62,C,,36061.0,198712,198712,1987,NY,10036.0,NEW YORK,A62,A,12,,,,,,,,,,,,,,,,,PC,O,AR,A,IN,,A62,A,711120.0
14033,990.0,133058765,1989,7,7,0,0,2063176,0,0,85080,0,0,0,1551855,1551855,3615031,3521458,876537,536630,0,1568402,1688285,785438,811747,0,0,0,0,0,0,0,0,0,0,0,6,1,0,N,CABLE TELEVISION ADVERTISING BUREAU,NEW YORK,NY,10022-0000,10022.0,36061.0,A01,A,10022.0,5602.0,5600.0,36061.0,O,O,AR,A,A,IN,,Q,AR,AR,AR,0.84229,,,Z99,C,,36061.0,198912,198912,1989,NY,10022.0,NEW YORK,A0332,A,12,200.0,0.0,0.0,757 THIRD AVE 5TH FLR,3.0,0.0,1000.0,,2.0,13.0,0.0,10.0,0.0,1.0,8202.0,,PC,O,AR,A,IN,,A0332,A,813920.0
14114,990.0,133093349,1989,4,5,91,37970,61249,0,0,105,0,0,0,15715,15715,114934,107849,20372,0,0,16137,25523,5600,5151,0,0,0,0,0,0,0,0,0,0,0,4,1,0,N,SOHO 20 ARTISTS,NEW YORK,NY,10012-3921,10012.0,36061.0,A40,A,10012.0,5602.0,5600.0,36061.0,O,O,AR,A,A,IN,,1,AR,AR,AR,0.6688,N,,A99,C,,36061.0,198912,198912,1989,NY,10012.0,NEW YORK,A40,B,12,91.0,0.0,0.0,469 BROOME ST,3.0,0.0,3000.0,,1.0,13.0,15.0,10.0,0.0,1.0,8905.0,,PC,O,AR,A,IN,,A99,A,710000.0
14118,990.0,133094056,1989,4,4,123,0,7400,0,0,1824,0,0,0,87504,87504,94904,95678,33119,0,0,33893,33119,0,0,0,0,0,0,0,0,0,0,0,0,0,6,1,0,N,PACIFIC INTELLECTUAL PROPERTY ASSOC,NEW YORK,NY,10163-3477,10163.0,36061.0,A70,A,10163.0,5602.0,5600.0,36061.0,O,O,AR,A,A,IN,,Q,AR,AR,AR,0.75757,,,Z99,C,,36061.0,199003,199003,1990,NY,10163.0,NEW YORK,S03,C,3,123.0,0.0,0.0,PO BOX 3477 GRAND CENTRAL STA,3.0,0.0,2000.0,,2.0,13.0,0.0,20.0,0.0,5.0,8201.0,,PC,O,AR,A,IN,,S03,S,813920.0
14163,990.0,133109557,1989,5,6,123,152055,123998,0,0,10295,25719,0,0,314717,314717,590770,223011,312344,26975,0,38014,339556,93429,27212,0,0,0,0,0,0,0,0,0,0,0,4,1,0,N,DEMOCRATIC SOCIALISTS AMERICA,NEW YORK,NY,10014-4606,10014.0,36061.0,A70,A,10014.0,5602.0,5600.0,36061.0,O,O,AR,A,A,IN,,Q,AR,AR,AR,0.38242,,,Z99,C,,36061.0,198912,198912,1989,NY,10014.0,NEW YORK,A70,C,12,123.0,521.0,0.0,180 VARICK ST,3.0,0.0,3000.0,,2.0,13.0,0.0,10.0,0.0,1.0,8807.0,,PC,O,AR,A,IN,,V24,V,541720.0
14170,990.0,133112767,1989,4,4,119,1843,39084,0,0,4532,0,0,0,5475,5475,46402,43111,52421,0,0,66529,56145,17399,3723,52421,0,0,0,0,0,0,0,0,0,0,4,1,8,N,INTL CNCL TRADITIONAL MUSIC,NEW YORK,NY,10027-0000,10027.0,36061.0,A68,A,10027.0,5602.0,5600.0,36061.0,O,O,AR,A,A,IN,,1,AR,AR,AR,0.00245,C,,A68,C,,36061.0,198912,198912,1989,NY,10027.0,NEW YORK,A68,A,12,119.0,93.0,0.0,DEPT OF MUSIC COLUMBIA UNIVERSITY,3.0,0.0,1000.0,% DEPT OF MUSIC COLUMBIA UNIVERSITY,2.0,13.0,0.0,10.0,0.0,5.0,8602.0,,PC,O,AR,A,IN,,A68,A,711130.0
14199,990.0,133119551,1989,4,5,200,0,406680,0,0,8812,0,0,0,17115,17115,423795,433924,67046,161000,0,134095,70793,43345,3747,0,0,0,0,0,0,0,0,0,0,0,6,1,0,N,RADIO NETWORK ASSOC,NEW YORK,NY,10017-5613,10017.0,36061.0,A34,A,10017.0,5602.0,5600.0,36061.0,O,O,AR,A,A,IN,,Q,AR,AR,AR,0.25306,,,Z99,C,,36061.0,198912,198912,1989,NY,10017.0,NEW YORK,A34,A,12,200.0,121.0,0.0,100 E 42ND ST,3.0,0.0,1000.0,,2.0,13.0,0.0,10.0,0.0,1.0,8309.0,,PC,O,AR,A,IN,,A34,A,513110.0
14214,990.0,133124063,1989,6,7,120,8100,648637,0,0,1870,0,0,0,758695,758695,1415432,1415432,0,38103,0,0,672014,0,672014,0,0,0,0,0,0,0,0,0,0,0,6,1,0,N,AMER PAYROLL INST,NEW YORK,NY,10016-5337,10016.0,36061.0,A33,A,10016.0,5602.0,5600.0,36061.0,O,O,AR,A,A,IN,,Q,AR,AR,AR,0.45416000000000006,,,Z99,C,,36061.0,198912,198912,1989,NY,10016.0,NEW YORK,S41,A,12,120.0,205.0,209.0,30 E 33RD ST,3.0,0.0,1000.0,,1.0,13.0,0.0,10.0,0.0,1.0,8407.0,STITUTE INC,PC,O,AR,A,IN,,S41,S,813910.0
14238,990.0,133131629,1988,4,5,229,0,72500,0,0,179,0,0,0,129592,129592,202092,156775,48100,39231,0,26269,53342,23486,5242,0,0,0,0,0,0,0,0,0,0,0,6,1,8,N,ADVERTISING PHOTOGRAPHER AMERICA,NEW YORK,NY,10011-3707,10011.0,36061.0,A01,A,10011.0,5602.0,5600.0,36061.0,O,O,AR,A,A,IN,,Q,AR,AR,AR,0.82945,,,Z99,C,,36061.0,198905,198905,1989,NY,10011.0,NEW YORK,A40,A,5,229.0,0.0,0.0,27 W 20TH ST RM 601,3.0,0.0,1000.0,,2.0,13.0,0.0,10.0,0.0,1.0,8410.0,,PC,O,AR,A,IN,,A40,A,710000.0
14260,990.0,133137480,1989,5,5,200,0,150900,0,0,19099,0,0,0,273425,273425,424325,418676,224591,52000,0,322508,316217,103566,91626,0,0,0,0,0,0,0,0,0,0,0,6,1,0,N,KNITTED TEXTILE ASSOC,NEW YORK,NY,10016-8804,10016.0,36061.0,A01,A,10016.0,5602.0,5600.0,36061.0,O,O,AR,A,A,IN,,Q,AR,AR,AR,0.71753,,,Z99,C,,36061.0,198912,198912,1989,NY,10016.0,NEW YORK,A40,A,12,200.0,229.0,0.0,386 PARK AVE S,3.0,0.0,2000.0,,2.0,13.0,0.0,10.0,0.0,5.0,8301.0,,PC,O,AR,A,IN,,A40,A,710000.0
14309,990.0,133160506,1988,4,5,279,0,0,0,0,2554,0,0,0,235635,235635,235635,235635,0,0,0,74451,58403,74451,58403,0,0,0,0,0,0,0,0,0,0,0,9,1,0,N,SHER WOVEN COMPANY EMPLOYEES BENEFIT TRUST,NEW YORK,NY,10018-6203,10018.0,36061.0,A40,A,,5602.0,5600.0,,O,O,AR,A,A,IN,,Q,AR,AR,AR,0.49346999999999996,,,Z99,C,,,198812,198812,1988,NY,,NEW YORK,A40,A,12,279.0,0.0,0.0,62 W 38TH ST,3.0,,1000.0,,,,0.0,,,,8308.0,,PC,O,AR,A,IN,,A40,A,710000.0
14445,990.0,133206226,1988,4,4,0,66872,0,0,0,3058,15430,0,0,3058,3058,69930,69226,38364,0,0,37704,38448,44,84,0,0,0,0,0,0,0,0,0,0,0,3,1,7,N,UKRAINIAN AMER COORDINATING CNCL,NEW YORK,NY,10003,10003.0,36061.0,A23,A,10003.0,5602.0,5600.0,36061.0,PC,O,AR,A,A,IN,,1,AR,AR,AR,0.58368,N,,A23,C,,36061.0,198910,198910,1989,NY,10003.0,NEW YORK,A23,A,10,0.0,0.0,0.0,142 2ND AVE STE 304,3.0,0.0,2.0,,1.0,1.0,15.0,20.0,0.0,1.0,200103.0,,PC,O,AR,A,IN,,A23,A,710000.0
14446,990.0,133206933,1989,3,4,200,2500,13700,0,0,0,0,0,0,21331,21331,37531,23032,17672,0,0,3173,17672,0,0,0,0,0,0,0,2,0,0,0,0,0,6,1,0,N,AMER FEDERATION VIOLIN & BOW MAKERS,STATEN ISLAND,NY,10301-1512,10301.0,36085.0,A01,A,10301.0,5602.0,5600.0,36085.0,O,O,AR,A,A,IN,,Q,AR,AR,AR,0.96055,C,,Z99,C,,36085.0,198912,198912,1989,NY,10301.0,STATEN ISLAND,A68,A,12,200.0,205.0,229.0,288 RICHMOND TER,3.0,0.0,1000.0,% JACQUES FRANCAIS,2.0,13.0,0.0,10.0,0.0,1.0,8712.0,,PC,O,AR,A,IN,,A68,A,711130.0
14458,990.0,133212090,1989,5,7,200,1485509,0,0,0,22496,0,0,0,22496,22496,1508005,1819685,-493865,150000,0,579717,380824,761902,874689,0,0,0,0,0,0,0,0,0,0,0,6,1,0,N,TELEVISON MUSIC LICENSE COMM,NEW YORK,NY,10022-5403,10022.0,36061.0,A01,A,10022.0,5602.0,5600.0,36061.0,O,O,AR,A,A,IN,,Q,AR,AR,AR,0.64205,,,Z99,C,,36061.0,198912,198912,1989,NY,10022.0,NEW YORK,A0368,A,12,200.0,0.0,0.0,515 MADISON AVE STE 912,3.0,0.0,1000.0,,2.0,13.0,0.0,10.0,0.0,5.0,8408.0,ITTEE,PC,O,AR,A,IN,,A0368,A,813920.0
14469,,133214820,1989,0,0,263,0,0,0,0,0,0,0,0,0,0,0,0,0,0,0,0,0,0,0,0,0,0,0,0,0,0,0,0,0,0,5,0,0,N,AMALGAMATED CLOTHING & TEXTILE WORKERS UNION,NEW YORK,NY,10011-6849,10011.0,36061.0,A40,A,,5602.0,5600.0,,O,O,AR,A,A,IN,,Q,AR,AR,AR,0.43218999999999996,,,Z99,C,,,198912,198912,1989,NY,,NEW YORK,A40,A,12,263.0,261.0,279.0,31 W 15TH ST,9.0,,3000.0,,,,0.0,,,,7802.0,,PC,O,AR,A,IN,,A40,A,710000.0
14494,,133222570,1987,0,0,200,0,0,0,0,0,0,0,0,0,0,0,0,0,0,0,0,0,0,0,0,0,0,0,0,0,0,0,0,0,0,6,0,0,N,NEW YORK SINGING TEACHERS ASSOC,NEW YORK,NY,10025-5213,10025.0,36061.0,A99,A,10025.0,5602.0,5600.0,36061.0,O,O,AR,A,A,IN,,1,AR,AR,AR,0.34792,N,,A99,C,,36061.0,198712,198712,1987,NY,10025.0,NEW YORK,B03,A,12,200.0,0.0,0.0,250 E 63RD ST 305,3.0,0.0,1000.0,% CECILIE A VERDON,2.0,13.0,0.0,20.0,0.0,1.0,7003.0,,PC,O,AR,A,IN,,B03,B,813920.0
14621,990.0,133300462,1988,4,4,205,0,55044,0,0,4756,0,0,0,5746,5746,60790,74915,36953,0,0,98631,84395,47342,47443,-34983,0,0,0,0,0,0,0,0,0,0,6,1,0,N,NEW YORK ARTISTS EQUITY ASSOC,NEW YORK,NY,10013-2213,10013.0,36061.0,A03,A,10013.0,5602.0,5600.0,36061.0,O,O,AR,A,A,IN,,1,AR,AR,AR,0.88155,N,,A03,A,,36061.0,198812,198812,1988,NY,10013.0,NEW YORK,A0340,A,12,200.0,0.0,0.0,498 BROOME ST,3.0,0.0,2000.0,,1.0,13.0,15.0,10.0,0.0,1.0,9201.0,,PC,O,AR,A,IN,,A0340,A,813920.0
14639,990.0,133321549,1989,9,9,0,1976677,0,71196565,64988780,3550231,0,0,0,74746796,9758016,76723473,2149346,92479466,0,0,79034718,94915960,1217587,2436494,92479466,0,0,0,0,0,0,0,0,0,0,3,1,9,N,AMER FRIENDS NAT GALLERY LONDON,NEW YORK,NY,10021-4335,10021.0,36061.0,A11,A,10021.0,5602.0,5600.0,36061.0,PC,S,ZA,A,A,IN,,1,AR,AR,AR,0.76423,N,,A11,A,5.0,36061.0,198912,198912,1989,NY,10021.0,NEW YORK,A1150,A,12,123.0,0.0,0.0,165 E 72ND ST 1B,3.0,0.0,1000.0,% SLOANE & HINSHAW,1.0,13.0,17.0,10.0,0.0,1.0,8602.0,C,PC,S,ZA,A,IN,,A1150,A,813219.0
14672,990.0,133346540,1988,4,4,0,1294,0,0,0,0,0,0,0,23708,23708,25002,25003,0,0,0,25867,38258,25867,38258,0,0,0,0,0,0,0,0,0,0,0,3,1,0,N,JEZEBEL PRODUCTIONS,NEW YORK,NY,10011-0001,10011.0,36061.0,A31,A,10011.0,5602.0,5600.0,36061.0,PC,O,AR,A,A,IN,,1,AR,AR,AR,0.8545,N,,A31,A,,36061.0,198812,198812,1988,NY,10011.0,NEW YORK,A31,A,12,122.0,995.0,0.0,PO BOX 1348,3.0,0.0,1000.0,,1.0,13.0,16.0,10.0,0.0,1.0,9112.0,,PC,O,AR,A,IN,,A31,A,512110.0
14675,,133347752,1989,0,0,328,0,0,0,0,0,0,0,0,0,0,0,0,0,0,0,0,0,0,0,0,0,0,0,0,0,0,0,0,0,0,4,0,0,N,STATUS LIBERTY SKATING INST AT GATEWAY,STATEN ISLAND,NY,10304-2921,10304.0,36085.0,A20,A,10304.0,5602.0,5600.0,36085.0,O,O,AR,A,A,IN,,Q,AR,AR,AR,0.60607,,,Z99,C,,36085.0,198912,198912,1989,NY,10304.0,STATEN ISLAND,A03,A,12,328.0,0.0,0.0,53 ROCHELLE ST,3.0,0.0,3000.0,,2.0,13.0,0.0,20.0,0.0,1.0,8812.0,,PC,O,AR,A,IN,,A03,A,813920.0
14745,990.0,133387786,1988,4,4,0,35655,0,0,0,1008,19357,0,0,7184,7184,42839,66423,10748,17000,0,39440,32927,3618,22179,0,0,0,0,0,0,0,0,0,0,0,3,1,8,N,NON TRADITIONAL CASTING PROJECT,NEW YORK,NY,10036-1525,10036.0,36061.0,A19,A,10036.0,5602.0,5600.0,36061.0,PC,O,AR,A,A,IN,,1,AR,AR,AR,0.71397,N,,A19,A,,36061.0,198812,198812,1988,NY,10036.0,NEW YORK,A1965,A,12,123.0,0.0,0.0,1560 BROADWAY 1600,3.0,199104.0,1000.0,% ROSENBERG NEUWIRTH & KUCHNER CPAS,1.0,13.0,16.0,10.0,0.0,1.0,8706.0,,PC,O,AR,A,IN,,A1965,A,813219.0
14802,990.0,133414554,1989,6,6,200,0,694750,0,0,50742,0,10024,9147,69913,59889,764663,571063,728167,97550,0,554826,740435,10235,12268,728167,0,0,0,0,0,0,0,0,0,0,6,1,0,N,THOROUGHBRED RACING COMMUNICATIONS,NEW YORK,NY,10022-5911,10022.0,36061.0,A30,A,10022.0,5602.0,5600.0,36061.0,O,O,AR,A,A,IN,,Q,AR,AR,AR,0.9646899999999999,,,Z99,C,,36061.0,198912,198912,1989,NY,10022.0,NEW YORK,A30,A,12,200.0,0.0,0.0,40 E 52ND ST,3.0,0.0,1000.0,,2.0,13.0,0.0,10.0,0.0,1.0,8809.0,,PC,O,AR,A,IN,,A30,A,510000.0
14824,,133420701,1989,0,0,0,0,0,0,0,0,0,0,0,0,0,0,0,0,0,0,0,0,0,0,0,0,0,0,0,0,0,0,0,0,0,3,0,0,N,RESOURCES ARTISTS WITH DISABILITIES,NEW YORK,NY,10011-0000,10011.0,36061.0,A99,A,10011.0,5602.0,5600.0,36061.0,PC,O,AR,A,A,IN,,Q,AR,AR,AR,0.8719600000000001,,,Z99,B,,36061.0,198912,198912,1989,NY,10011.0,NEW YORK,A0240,A,12,91.0,431.0,0.0,77 SEVENTH AVE PHG,3.0,0.0,1000.0,,1.0,13.0,15.0,20.0,0.0,1.0,9307.0,,PC,O,AR,A,IN,,A0240,A,541618.0
14827,,133422981,1988,0,0,0,0,0,0,0,0,0,0,0,0,0,0,0,0,0,0,0,0,0,0,0,0,0,0,0,0,0,0,0,0,0,3,0,0,N,ROCKAWAY IRISH CULTURAL COMM,ROCKAWAY PARK,NY,11694-2515,11694.0,36081.0,A84,A,11694.0,5602.0,5600.0,36081.0,PC,O,AR,A,A,IN,,1,AR,AR,AR,0.8112199999999999,N,,A84,C,,36081.0,198812,198812,1988,NY,11694.0,ROCKAWAY PARK,A23,A,12,602.0,64.0,90.0,108 03 ROCKAWAY BEACH DR,3.0,0.0,1200.0,,1.0,11.0,16.0,10.0,0.0,1.0,9405.0,,PC,O,AR,A,IN,,A23,A,710000.0
14842,990.0,133434093,1988,3,4,0,2000,5470,0,0,443,0,0,0,21924,21924,29394,30580,9676,0,0,21279,18887,10417,9211,0,0,0,0,0,0,0,0,0,0,0,3,1,8,N,DRAMA DESK,NEW YORK,NY,10023-7129,10023.0,36061.0,A65,A,10023.0,5602.0,5600.0,36061.0,PC,O,AR,A,A,IN,,1,AR,AR,AR,0.6630699999999999,N,,A65,B,,36061.0,198812,198812,1988,NY,10023.0,NEW YORK,A65,B,12,42.0,0.0,0.0,1 LINCOLN PLZ,3.0,,2000.0,% DAVID C ROSENZWEIG,,,16.0,,,,8804.0,,PC,O,AR,A,IN,,A65,A,711110.0
14911,,133451846,1988,0,0,0,0,0,0,0,0,0,0,0,0,0,0,0,0,0,0,0,0,0,0,0,0,0,0,0,0,0,0,0,0,0,0,0,0,N,TIMES SQUARE PERFORMING ARTS FND ATION,BROOKLYN,NY,11238-1505,11238.0,36047.0,A99,A,11238.0,5602.0,5600.0,36047.0,U,O,AR,A,A,IN,,Q,AR,AR,AR,0.34159,,,Z99,C,,36047.0,198812,198812,1988,NY,11238.0,BROOKLYN,A60,A,12,,,,,,,,,,,,,,,,,PC,O,AR,A,IN,,A60,A,711100.0
14923,990.0,133455677,1989,6,7,0,1066400,0,0,0,11521,0,0,0,11521,11521,1077921,619075,523150,0,0,65079,525075,775,1925,0,0,0,0,0,0,0,0,0,0,0,3,1,7,N,INDEPENDENT PRODUCTION FND,NEW YORK,NY,10036-4602,10036.0,36061.0,A31,A,10036.0,5602.0,5600.0,36061.0,PC,O,AR,A,A,IN,,1,AR,AR,AR,0.32935,N,,A31,A,,36061.0,198912,198912,1989,NY,10036.0,NEW YORK,A31,A,12,122.0,0.0,0.0,45 W 45TH ST,3.0,0.0,1000.0,ALVIN H PERLMUTTER,1.0,11.0,15.0,10.0,0.0,1.0,8805.0,,PC,O,AR,A,IN,,A31,A,512110.0
14938,,133459934,1987,0,0,0,0,0,0,0,0,0,0,0,0,0,0,0,0,0,0,0,0,0,0,0,0,0,0,0,0,0,0,0,0,0,3,0,0,N,LE STUDIO THEATRE C,NEW YORK,NY,10019-5227,10019.0,36061.0,A6E,A,10019.0,5602.0,5600.0,36061.0,PC,O,AR,A,A,IN,,Q,AR,AR,AR,0.7588199999999999,,,Z99,B,,36061.0,198712,198712,1987,NY,10019.0,NEW YORK,A6E,A,12,994.0,119.0,59.0,853 7TH AVE PH28,3.0,199604.0,1000.0,,1.0,13.0,15.0,20.0,0.0,1.0,9209.0,,PC,O,AR,A,IN,,A6E,A,611610.0
14974,990.0,133471757,1989,4,4,0,650,0,0,0,0,0,0,0,80502,80502,81152,59293,32910,0,0,11050,32910,0,0,0,0,0,0,0,0,0,0,0,0,0,3,1,9,N,HIPS ROAD,NEW YORK,NY,10003-6450,10003.0,36061.0,A12,A,10003.0,5602.0,5600.0,36061.0,PC,S,ZB,A,A,IN,,1,AR,AR,AR,0.48322,N,,A60,C,,36061.0,198912,198912,1989,NY,10003.0,NEW YORK,A60,A,12,995.0,90.0,119.0,61 E 8TH ST STE 126,3.0,199612.0,2000.0,S NOLE CPA,1.0,13.0,16.0,10.0,0.0,1.0,9303.0,,PC,S,ZB,A,IN,,A60,A,711100.0
15025,990.0,133485772,1988,1,4,0,16332,0,0,0,0,0,0,0,47741,47741,64073,61924,2149,0,0,0,3349,0,1200,0,0,0,0,0,0,0,0,0,0,0,3,1,7,N,RANDY WARSHAW DANCE,NEW YORK,NY,10012-3808,10012.0,36061.0,A62,A,10012.0,5602.0,5600.0,36061.0,PC,O,AR,A,A,IN,,1,AR,AR,AR,0.31640999999999997,N,,A62,A,,36061.0,198812,198812,1988,NY,10012.0,NEW YORK,A62,A,12,90.0,0.0,0.0,115 WOOSTER ST,3.0,0.0,1000.0,,1.0,13.0,15.0,20.0,0.0,1.0,8904.0,,PC,O,AR,A,IN,,A62,A,711120.0
15026,,133486001,1988,0,0,0,0,0,0,0,0,0,0,0,0,0,0,0,0,0,0,0,0,0,0,0,0,0,0,0,0,0,0,0,0,0,3,0,0,N,VILLAGE THEATRE COMPANY,NEW YORK,NY,10011-0000,10011.0,36061.0,A19,A,10011.0,5602.0,5600.0,36061.0,PC,O,AR,A,A,IN,,1,AR,AR,AR,0.7116399999999999,N,,A19,A,,36061.0,198812,198812,1988,NY,10011.0,NEW YORK,A1965,A,12,408.0,0.0,0.0,PO BOX 1301,3.0,,2000.0,,,,16.0,,,,9007.0,,PC,O,AR,A,IN,,A1965,A,813219.0
15037,990.0,133490112,1989,7,5,263,0,2180,0,0,113491,0,0,0,113492,113492,115672,114890,1177178,0,0,0,1177178,0,0,0,0,0,0,0,0,0,0,0,0,0,5,1,0,N,AMALGAMATED CLOTHING & TEXTILE WORKERS UNION,NYC,NY,10011-6849,10011.0,36061.0,A40,A,10011.0,5602.0,5600.0,36061.0,O,O,AR,A,A,IN,,Q,AR,AR,AR,0.43727,,,Z99,C,,36061.0,198912,198912,1989,NY,10011.0,NYC,A40,A,12,263.0,261.0,279.0,31 W 15TH ST,9.0,0.0,3000.0,,2.0,13.0,0.0,10.0,3084.0,5.0,7802.0,NY JT BD COMBINED LOC TR,PC,O,AR,A,IN,,A40,A,710000.0
15065,990.0,133497179,1989,4,5,0,302137,0,0,0,870,0,0,0,870,870,303007,263222,-25165,0,0,1739,31635,3100,56800,0,0,0,0,0,0,0,0,0,0,0,3,1,7,N,AMER STUDIES FILM CTR,NEW YORK,NY,10011-3001,10011.0,36061.0,A31,A,10011.0,5602.0,5600.0,36061.0,PC,O,AR,A,A,IN,,1,AR,AR,AR,0.8273799999999999,N,,A31,B,,36061.0,198912,198912,1989,NY,10011.0,NEW YORK,A31,B,12,122.0,0.0,0.0,305 W 21ST ST,3.0,0.0,1000.0,,1.0,13.0,15.0,20.0,0.0,1.0,9005.0,,PC,O,AR,A,IN,,A31,A,512110.0
15079,,133503177,1987,0,0,0,0,0,0,0,0,0,0,0,0,0,0,0,0,0,0,0,0,0,0,0,0,0,0,0,0,0,0,0,0,0,3,0,0,N,PLAM DANCERS,NEW YORK,NY,10272-0856,10272.0,36061.0,A62,A,10272.0,5602.0,5600.0,36061.0,PC,O,AR,A,A,IN,,1,AR,AR,AR,0.48302,N,,A62,A,,36061.0,198712,198712,1987,NY,10272.0,NEW YORK,A62,A,12,90.0,0.0,0.0,PO BOX 951,3.0,0.0,1000.0,,1.0,13.0,15.0,10.0,0.0,1.0,9101.0,,PC,O,AR,A,IN,,A62,A,711120.0
15080,,133503252,1987,0,0,0,0,0,0,0,0,0,0,0,0,0,0,0,0,0,0,0,0,0,0,0,0,0,0,0,0,0,0,0,0,0,6,0,0,N,CONSTRUCTION FINANCIAL MGT ASSOC,NEW YORK,NY,10017-6009,10017.0,36061.0,A70,A,10017.0,5602.0,5600.0,36061.0,O,O,AR,A,A,IN,,Q,AR,AR,AR,0.20271,,,Z99,C,,36061.0,198712,198712,1987,NY,10017.0,NEW YORK,U42,A,12,123.0,0.0,0.0,599 LEXINGTON AVE,9.0,0.0,2000.0,% STEPHEN J GEORGIAN,2.0,13.0,0.0,20.0,9139.0,5.0,8609.0,NEW YORK CITY CHAPTER,PC,O,AR,A,IN,,U42,U,541710.0
15113,,133514721,1989,0,0,0,0,0,0,0,0,0,0,0,0,0,0,0,0,0,0,0,0,0,0,0,0,0,0,0,0,0,0,0,0,0,3,0,0,N,BEFORE YOUR EYES,BROOKLYN,NY,11215-4101,11215.0,36047.0,A60,A,11215.0,5602.0,5600.0,36047.0,PC,O,AR,A,A,IN,,1,AR,AR,AR,0.772,N,,A60,B,,36047.0,198912,198912,1989,NY,11215.0,BROOKLYN,A60,B,12,90.0,0.0,0.0,409 9TH ST,3.0,0.0,1000.0,% JO ANDRES,1.0,11.0,15.0,20.0,0.0,1.0,8907.0,,PC,O,AR,A,IN,,A60,A,711100.0
15158,,133526068,1989,0,0,0,0,0,0,0,0,0,0,0,0,0,0,0,0,0,0,0,0,0,0,0,0,0,0,0,0,0,0,0,0,0,0,0,0,N,HUMAN HEALING ARTS,NEW YORK,NY,10025-2948,10025.0,36061.0,A99,A,10025.0,5602.0,5600.0,36061.0,U,O,AR,A,A,IN,,Q,AR,AR,AR,0.99605,,,Z99,C,,36061.0,198912,198912,1989,NY,10025.0,NEW YORK,A61,C,12,,,,,,,,,,,,,,,,,PC,O,AR,A,IN,,A99,A,710000.0
15168,990.0,133529111,1989,3,4,0,5064,7160,0,0,832,0,0,0,27488,27488,39712,23048,21077,0,0,19069,24501,1961,3424,0,0,0,0,0,0,0,0,0,0,0,3,1,0,N,SWEDISH WOMENS EDUCATIONAL ASSOC,NEW YORK,NY,10016-3243,10016.0,36061.0,A23,A,10016.0,5602.0,5600.0,36061.0,PC,O,AR,A,A,IN,,1,AR,AR,AR,0.7781,N,,A23,B,,36061.0,198912,198912,1989,NY,10016.0,NEW YORK,A23,B,12,119.0,123.0,0.0,PO BOX 2289,9.0,0.0,1200.0,% KERSTIN JOHANSSON-PALMA,1.0,13.0,16.0,10.0,4055.0,5.0,7912.0,NEW YORK,PC,O,AR,A,IN,,A23,A,710000.0
15190,,133537698,1989,0,0,0,0,0,0,0,0,0,0,0,0,0,0,0,0,0,0,0,0,0,0,0,0,0,0,0,0,0,0,0,0,0,3,0,0,N,ISADORA DUNCAN INTL INST,NEW YORK,NY,10021-8527,10021.0,36061.0,A60,A,10021.0,5602.0,5600.0,36061.0,PC,O,AR,A,A,IN,,1,AR,AR,AR,0.44711000000000006,N,,A60,C,,36061.0,198912,198912,1989,NY,10021.0,NEW YORK,A60,B,12,90.0,0.0,0.0,150 E 61ST ST STE 11C,3.0,0.0,1000.0,% STEVEN A ORENSTEIN,1.0,13.0,15.0,20.0,0.0,1.0,9104.0,I D I I,PC,O,AR,A,IN,,A60,A,711100.0
15215,990.0,133547386,1989,4,4,0,50458,0,0,0,0,0,0,0,0,0,50458,56583,-6125,0,0,0,44579,0,50704,0,0,0,0,0,0,0,0,0,0,0,3,1,7,N,TROLLOPE SOC,NEW YORK,NY,10017-1920,10017.0,36061.0,A70,A,10017.0,5602.0,5600.0,36061.0,PC,O,AR,A,A,IN,,1,AR,AR,AR,0.98214,N,,A70,A,,36061.0,198912,198912,1989,NY,10017.0,NEW YORK,A70,A,12,92.0,0.0,0.0,17 E 47TH ST,3.0,0.0,2000.0,,1.0,13.0,15.0,10.0,0.0,1.0,9404.0,,PC,O,AR,A,IN,,A70,A,710000.0
15244,,133563427,1989,0,0,0,0,0,0,0,0,0,0,0,0,0,0,0,0,0,0,0,0,0,0,0,0,0,0,0,0,0,0,0,0,0,3,0,0,N,THEATRE EDGE,NEW YORK,NY,10031-1121,10031.0,36061.0,A65,A,10031.0,5602.0,5600.0,36061.0,PC,O,AR,A,A,IN,,Q,AR,AR,AR,0.978,,,Z99,C,,36061.0,198912,198912,1989,NY,10031.0,NEW YORK,A65,B,12,88.0,994.0,0.0,449 W 153RD ST 33,3.0,0.0,2000.0,% ARLENE KING ROBINSON,1.0,13.0,15.0,20.0,0.0,1.0,9102.0,,PC,O,AR,A,IN,,A65,A,711110.0
15263,990.0,133579998,1989,4,5,0,135000,0,0,0,4145,0,0,0,5841,5841,140841,83263,69887,0,0,12308,69887,0,0,0,0,0,0,0,0,0,0,0,0,0,3,1,0,N,VIDEO INFORMATION NETWORK,NEW YORK,NY,10024-3406,10024.0,36061.0,A31,A,10024.0,5602.0,5600.0,36061.0,PC,O,AR,A,A,IN,,1,AR,AR,AR,0.36159,N,,A31,B,,36061.0,198912,198912,1989,NY,10024.0,NEW YORK,A31,B,12,,,,,,,,,,,,,,,,,PC,O,AR,A,IN,,A31,A,512110.0
15506,990.0,135546742,1989,5,5,92,14500,117980,0,0,7066,0,0,0,118344,118344,250824,146241,111322,0,0,87916,111908,800,586,0,0,0,0,0,0,0,0,0,0,0,6,1,0,N,MYSTERY WRITERS AMERICA,NEW YORK,NY,10017-1920,10017.0,36061.0,A70,A,10017.0,5602.0,5600.0,36061.0,O,O,AR,A,A,IN,,Q,AR,AR,AR,0.73085,,,Z99,C,,36061.0,198912,198912,1989,NY,10017.0,NEW YORK,A0370,A,12,92.0,120.0,123.0,17 E 47TH ST 6TH FLR,3.0,0.0,3000.0,,2.0,13.0,0.0,10.0,0.0,1.0,0.0,,PC,O,AR,A,IN,,A0370,A,813920.0
15598,990.0,135582856,1989,6,7,920,815722,37818,0,0,0,0,0,0,666467,666467,1520007,1639949,306832,0,0,643584,535497,216810,228665,0,0,0,0,0,0,0,0,0,0,0,6,1,0,Y,AGA ASSOC GRAPHIC ARTS,NEW YORK,NY,10001-0000,10001.0,36061.0,A01,A,10001.0,5602.0,5600.0,36061.0,O,O,AR,A,A,IN,,Q,AR,AR,AR,0.8825700000000001,,,Z99,C,,36061.0,199006,199006,1990,NY,10001.0,NEW YORK,A0330,A,6,920.0,59.0,566.0,330 SEVENTH AVE 9TH FLR,3.0,0.0,2000.0,,2.0,13.0,0.0,10.0,0.0,1.0,3903.0,,PC,O,AR,A,IN,,A0330,A,813920.0
15658,990.0,135614237,1989,4,4,65,595,18007,0,0,3130,0,0,0,18570,18570,37172,26302,26632,0,0,29432,26632,0,0,0,0,0,0,0,0,0,0,0,0,0,6,1,0,N,AMER ARTIST PROFESSIONAL LEAGUE,NEW YORK,NY,10003-4322,10003.0,36061.0,A01,A,10003.0,5602.0,5600.0,36061.0,O,O,AR,A,A,IN,,Q,AR,AR,AR,0.9432200000000001,,,Z99,C,,36061.0,198912,198912,1989,NY,10003.0,NEW YORK,N80,A,12,65.0,207.0,119.0,47 FIFTH AVE,1.0,0.0,2000.0,% SALMAGUNDI CLUB,2.0,13.0,0.0,20.0,0.0,1.0,5503.0,,PC,O,AR,A,IN,,N80,N,711211.0
15690,990.0,135626389,1989,3,5,900,26519,0,0,0,1925,0,0,0,142773,142773,169292,195398,21852,5000,0,50767,21877,2809,25,0,0,0,0,0,0,0,0,0,0,0,8,1,7,N,FOLKSBIENE WORKMENS CIRCLE,NEW YORK,NY,10022-3502,10022.0,36061.0,A23,A,10022.0,5602.0,5600.0,36061.0,O,O,AR,A,A,IN,,1,AR,AR,AR,0.3465,N,,A23,A,,36061.0,199005,199005,1990,NY,10022.0,NEW YORK,A23,A,5,900.0,30.0,211.0,123 E 55TH ST,9.0,0.0,1000.0,,1.0,13.0,0.0,10.0,804.0,5.0,4504.0,,PC,O,AR,A,IN,,A23,A,710000.0
15707,990.0,135636174,1988,7,7,265,0,0,855674,848388,228405,0,0,0,2278124,1429736,2278124,1011315,3748303,0,0,3380151,3859192,50269,110889,0,0,0,0,0,0,0,0,0,0,0,9,1,0,N,GREATER NEW YORK JOINT BOARD TEXTILE WORKERS WELFARE FND,NEW YORK,NY,10003-9511,10003.0,36061.0,A40,A,10003.0,5602.0,5600.0,36061.0,O,O,AR,A,A,IN,,Q,AR,AR,AR,0.41183000000000003,,,Z99,C,,36061.0,198909,198909,1989,NY,10003.0,NEW YORK,A40,A,9,265.0,0.0,0.0,99 UNIVERSITY PLACE,3.0,0.0,1000.0,,2.0,13.0,0.0,10.0,0.0,2.0,5611.0,FARE FUND,PC,O,AR,A,IN,,A40,A,710000.0
15733,990.0,135651681,1989,4,4,120,0,37725,0,0,0,0,0,0,1390,1390,39115,40961,48301,0,0,51347,49501,1200,1200,0,0,0,0,0,0,0,0,0,0,0,6,1,0,N,COMICS MAGAZINE ASSOC AMERICA,NEW YORK,NY,10017-6672,10017.0,36061.0,A33,A,10017.0,5602.0,5600.0,36061.0,O,O,AR,A,A,IN,,Q,AR,AR,AR,0.9970600000000001,,,Z99,C,,36061.0,198912,198912,1989,NY,10017.0,NEW YORK,A01,C,12,120.0,328.0,279.0,355 LEXINGTON AVE 17TH FLOOR,1.0,0.0,2000.0,,2.0,13.0,0.0,10.0,0.0,1.0,5909.0,,PC,O,AR,A,IN,,A01,A,813319.0
15757,990.0,135658426,1989,6,7,200,0,710569,0,0,63426,0,0,0,846931,846931,1557500,1447653,548997,85000,0,834470,943381,425320,394384,548997,0,0,0,0,0,0,0,0,0,0,6,1,0,Y,AMER HOME SEWING & CRAFT ASSOC,NEW YORK,NY,10018-7001,10018.0,36061.0,A20,A,10018.0,5602.0,5600.0,36061.0,O,O,AR,A,A,IN,,1,AR,AR,AR,0.03988,N,,A20,A,,36061.0,198912,198912,1989,NY,10018.0,NEW YORK,A20,A,12,200.0,0.0,0.0,1375 BROADWAY,3.0,0.0,2000.0,,2.0,13.0,0.0,10.0,0.0,1.0,7811.0,,PC,O,AR,A,IN,,A20,A,710000.0
15948,,136096368,1989,0,0,59,0,0,0,0,0,0,0,0,0,0,0,0,0,0,0,0,0,0,0,0,0,0,0,0,0,0,0,0,0,0,6,0,0,N,AMER WOMEN IN RADIO & TELEVISION NEW YORK CITY CHAPT,NEW YORK,NY,10016-8776,10016.0,36061.0,A32,A,10016.0,5602.0,5600.0,36061.0,O,O,AR,A,A,IN,,Q,AR,AR,AR,0.49726000000000004,,,Z99,C,,36061.0,198912,198912,1989,NY,10016.0,NEW YORK,A32,A,12,59.0,120.0,0.0,245 FIFTH AVE 2103,3.0,0.0,2000.0,,2.0,13.0,0.0,10.0,0.0,5.0,6309.0,CITY CHAPT,PC,O,AR,A,IN,,A32,A,513120.0
15962,,136103902,1987,0,0,920,0,0,0,0,0,0,0,0,0,0,0,0,0,0,0,0,0,0,0,0,0,0,0,0,0,0,0,0,0,0,6,0,0,N,PAINTING & DECORATING CONTRACTORS AMERICA IN NEW YORK CITY,NEW YORK,NY,10017-5405,10017.0,36061.0,A01,A,10017.0,5602.0,5600.0,36061.0,O,O,AR,A,A,IN,,Q,AR,AR,AR,0.9376399999999999,,,Z99,C,,36061.0,198712,198712,1987,NY,10017.0,NEW YORK,A40,A,12,920.0,59.0,566.0,50 E 42ND ST,3.0,0.0,2000.0,,2.0,13.0,0.0,20.0,0.0,1.0,5410.0,W YORK CITY INC,PC,O,AR,A,IN,,A40,A,710000.0
16012,,136115898,1987,0,0,36,0,0,0,0,0,0,0,0,0,0,0,0,0,0,0,0,0,0,0,0,0,0,0,0,0,0,0,0,0,0,4,0,0,N,YIDDISH THEATRICAL ALLIANCE,NEW YORK,NY,10003-8001,10003.0,36061.0,A65,A,10003.0,5602.0,5600.0,36061.0,O,O,AR,A,A,IN,,Q,AR,AR,AR,0.9027,,,Z99,C,,36061.0,198712,198712,1987,NY,10003.0,NEW YORK,A65,A,12,36.0,602.0,319.0,31 E 7TH ST,3.0,0.0,3000.0,,2.0,13.0,0.0,20.0,0.0,1.0,3811.0,,PC,O,AR,A,IN,,A65,A,711110.0
16023,,136117091,1989,0,0,920,0,0,0,0,0,0,0,0,0,0,0,0,0,0,0,0,0,0,0,0,0,0,0,0,0,0,0,0,0,0,6,0,0,N,TEXTILE CONVERTERS ASSOC,NEW YORK,NY,10022-6102,10022.0,36061.0,A01,A,10022.0,5602.0,5600.0,36061.0,O,O,AR,A,A,IN,,Q,AR,AR,AR,0.35705,,,Z99,C,,36061.0,198912,198912,1989,NY,10022.0,NEW YORK,A40,A,12,920.0,0.0,0.0,575 LEX AVE,3.0,0.0,2000.0,% SOLOMON ROSENBAUM,2.0,13.0,0.0,20.0,0.0,1.0,6008.0,,PC,O,AR,A,IN,,A40,A,710000.0
16070,990.0,136122376,1989,5,5,200,380,8260,0,0,15349,0,0,0,265889,265889,274529,49638,312830,0,0,298862,328923,14883,16093,0,0,0,0,0,0,0,0,0,0,0,6,1,0,N,NEW YORK FINANCIAL WRITERS ASSOC,NEW YORK,NY,10001-0003,10001.0,36061.0,A01,A,10001.0,5602.0,5600.0,36061.0,O,O,AR,A,A,IN,,Q,AR,AR,AR,0.66578,,,Z99,C,,36061.0,199001,199001,1990,NY,10001.0,NEW YORK,A70,A,1,200.0,205.0,0.0,PO BOX 21,1.0,0.0,2000.0,,2.0,11.0,0.0,10.0,0.0,1.0,7901.0,,PC,O,AR,A,IN,,A70,A,710000.0
16150,,136135725,1987,0,0,119,0,0,0,0,0,0,0,0,0,0,0,0,0,0,0,0,0,0,0,0,0,0,0,0,0,0,0,0,0,0,6,0,0,N,FEDERATION MODERN PAINTERS & SCULPTORS,NEW YORK,NY,10032-1103,10032.0,36061.0,A99,A,10032.0,5602.0,5600.0,36061.0,O,O,AR,A,A,IN,,Q,AR,AR,AR,0.6471,,,Z99,C,,36061.0,198712,198712,1987,NY,10032.0,NEW YORK,A40,C,12,119.0,59.0,205.0,710 W 173RD ST,3.0,0.0,2000.0,% J & R SERVETAS,2.0,13.0,0.0,20.0,0.0,1.0,4303.0,,PC,O,AR,A,IN,,A40,A,710000.0
16195,990.0,136142804,1989,6,7,264,0,0,0,0,0,0,0,0,1168434,1168434,1168434,1577013,549705,0,0,956859,553141,1481,3436,549705,0,0,0,0,0,0,0,0,0,0,9,1,0,N,PUBLISHERS PAPER HANDLERS WELFARE FND,NEW YORK,NY,10003-1503,10003.0,36061.0,A33,A,10003.0,5602.0,5600.0,36061.0,O,O,AR,A,A,IN,,Q,AR,AR,AR,0.33416999999999997,,,Z99,C,,36061.0,199003,199003,1990,NY,10003.0,NEW YORK,A33,A,3,264.0,0.0,0.0,200 PARK AVE S,3.0,0.0,1000.0,,2.0,13.0,0.0,20.0,0.0,2.0,5503.0,,PC,O,AR,A,IN,,A33,A,511100.0
16218,990.0,136149730,1988,6,5,119,0,105800,0,0,39302,0,0,0,211701,211701,317501,345328,568458,0,0,596285,568458,0,0,568458,0,0,0,0,0,0,0,0,0,0,6,1,0,N,ART DEALERS ASSOC AMERICA,NEW YORK,NY,10022-2511,10022.0,36061.0,A01,A,10022.0,5602.0,5600.0,36061.0,O,O,AR,A,A,IN,,Q,AR,AR,AR,0.24798,,,Z99,B,,36061.0,198910,198910,1989,NY,10022.0,NEW YORK,A03,A,10,119.0,0.0,0.0,575 MADISON AVE 16TH FL,3.0,0.0,2000.0,,2.0,13.0,0.0,10.0,0.0,1.0,6307.0,,PC,O,AR,A,IN,,A03,A,813920.0
16241,,136154205,1987,0,0,205,0,0,0,0,0,0,0,0,0,0,0,0,0,0,0,0,0,0,0,0,0,0,0,0,0,0,0,0,0,0,6,0,0,N,AMER SOC LANDSCAPE ARCHITECTS NEW YORK CHAPTER,NEW YORK,NY,10022-6830,10022.0,36061.0,A01,A,10022.0,5602.0,5600.0,36061.0,O,O,AR,A,A,IN,,Q,AR,AR,AR,0.43208,,,Z99,C,,36061.0,198712,198712,1987,NY,10022.0,NEW YORK,C40,A,12,205.0,0.0,0.0,457 MADISON AVE,3.0,0.0,2000.0,J COOKE,2.0,13.0,0.0,20.0,0.0,5.0,6107.0,CHAPTER,PC,O,AR,A,IN,,C40,C,712130.0
16286,,136162016,1989,0,0,61,0,0,0,0,0,0,0,0,0,0,0,0,0,0,0,0,0,0,0,0,0,0,0,0,0,0,0,0,0,0,4,0,0,N,AUSTRIAN AMER FEDERATION,NEW YORK,NY,10021-4906,10021.0,36061.0,A23,A,10021.0,5602.0,5600.0,36061.0,O,O,AR,A,A,IN,,Q,AR,AR,AR,0.33705,,,Z99,C,,36061.0,198912,198912,1989,NY,10021.0,NEW YORK,A23,A,12,61.0,279.0,319.0,6 E 69TH ST,3.0,0.0,1000.0,% AUSTRIAN GASOLATE GENERAL,2.0,13.0,0.0,20.0,0.0,1.0,5908.0,,PC,O,AR,A,IN,,A23,A,710000.0
16332,,136162600,1987,0,0,120,0,0,0,0,0,0,0,0,0,0,0,0,0,0,0,0,0,0,0,0,0,0,0,0,0,0,0,0,0,0,6,0,0,N,UNITED NATIONS CORRESPONDENTS ASSOC,NEW YORK,NY,10017-0000,10017.0,36061.0,A30,A,10017.0,5602.0,5600.0,36061.0,O,O,AR,A,A,IN,,1,AR,AR,AR,0.09663,C,,Q42,B,,36061.0,198712,198712,1987,NY,10017.0,NEW YORK,A30,B,12,120.0,0.0,0.0,UNITED NATIONS BLDG RM C 315,3.0,0.0,2000.0,,2.0,13.0,0.0,10.0,0.0,5.0,5107.0,,PC,O,AR,A,IN,,A30,A,510000.0
16613,990.0,136227399,1988,7,8,264,0,181913,20605054,20620690,397242,0,0,0,21002296,381606,21184209,876335,4785035,0,0,5344336,4956850,133992,171815,4785035,0,0,0,0,0,0,0,0,0,0,9,1,0,N,PRINTERS LEAGUE LOCAL 43 WELFARE FND,NEW YORK,NY,10003-0000,10003,36061.0,A33,A,10003,5602.0,5600.0,36061.0,O,O,AR,A,A,IN,,Q,AR,AR,AR,0.8376399999999999,,,Z99,C,,36061.0,198903,198903,1989,NY,10003,NEW YORK,A33,A,3,264.0,279.0,0.0,27 UNION SQ,3.0,0.0,1000.0,% BASIL CASTROVINCI ASSOCIATES,2.0,13.0,0.0,10.0,0.0,2.0,6811.0,,PC,O,AR,A,IN,,A33,A,511100.0
16744,,136621161,1987,0,0,149,0,0,0,0,0,0,0,0,0,0,0,0,0,0,0,0,0,0,0,0,0,0,0,0,0,0,0,0,0,0,4,0,0,N,INST SOC DANCE STUDIES,NEW YORK,NY,10019-3911,10019,36061.0,A6E,A,,5602.0,5600.0,,O,O,AR,A,A,IN,,Q,AR,AR,AR,0.01065,,,Z99,C,,,198712,198712,1987,NY,,NEW YORK,A6E,A,12,149.0,0.0,0.0,60 W 57TH ST,3.0,,3000.0,,,,0.0,,,,7408.0,,PC,O,AR,A,IN,,A6E,A,611610.0
16755,990.0,136686323,1989,7,5,267,0,0,0,0,168017,0,0,0,316174,316174,316174,172080,2078460,0,0,1949151,2086910,14785,8450,2078460,0,0,0,0,0,0,0,0,0,0,17,1,0,N,PRINTERS LEAGUE LOCAL 23 RELOCATION DISPLACEMENT &,NEW YORK,NY,10011-6501,10011,36061.0,A33,A,,5602.0,5600.0,,O,O,AR,A,A,IN,,Q,AR,AR,AR,0.22300999999999999,,,Z99,C,,,198912,198912,1989,NY,,NEW YORK,A33,A,12,267.0,279.0,0.0,212 W 15TH ST,3.0,,1000.0,,,,0.0,,,,7509.0,SUPPL UNEMP BEN FD,PC,O,AR,A,IN,,A33,A,511100.0
23740,,222402189,1989,0,0,0,0,0,0,0,0,0,0,0,0,0,0,0,0,0,0,0,0,0,0,0,0,0,0,0,0,0,0,0,0,0,3,0,0,N,LUMEN PRODUCTIONS,NEW YORK,NY,10034-1284,10034,36061.0,A99,A,10034,5602.0,5600.0,36061.0,PC,O,AR,A,A,IN,,1,AR,AR,AR,0.17314000000000002,N,,A99,B,,36061.0,198912,198912,1989,NY,10034,NEW YORK,A60,C,12,0.0,0.0,0.0,712 VALLEY FORGE AVE,3.0,0.0,1000.0,,1.0,13.0,15.0,20.0,0.0,5.0,8207.0,,PC,O,AR,A,IN,,A99,A,710000.0
25974,990.0,222753820,1988,1,4,0,20391,0,0,0,0,0,0,0,10658,10658,31049,35417,-5369,1340,0,994,4559,1995,9928,-5369,0,0,0,0,0,0,0,0,0,0,3,1,7,N,LOAVES & FISH THEATRE,NEW YORK,NY,10044-0203,10044.0,36061,A65,A,10044.0,5602.0,5600.0,36061.0,PC,O,AR,A,A,IN,,Q,AR,AR,AR,0.16457,,,Z99,C,,36061.0,198812,198812,1988,NY,10044.0,NEW YORK,A65,B,12,88.0,0.0,0.0,41 WASHINGTON PL,3.0,199206.0,1200.0,% CHARLES DUMAS,1.0,13.0,15.0,20.0,0.0,1.0,8803.0,,PC,O,AR,A,IN,,A65,A,711110.0
26240,,222805952,1989,0,0,119,0,0,0,0,0,0,0,0,0,0,0,0,0,0,0,0,0,0,0,0,0,0,0,0,0,0,0,0,0,0,4,0,0,N,JAPANESE HERITAGE FND,NEW YORK,NY,10016-3317,10016.0,36061,A23,A,10016.0,5602.0,5600.0,36061.0,O,O,AR,A,A,IN,,Q,AR,AR,AR,0.45761999999999997,,,Z99,B,,36061.0,198912,198912,1989,NY,10016.0,NEW YORK,A23,A,12,119.0,0.0,0.0,RT 42,3.0,0.0,3000.0,,2.0,13.0,0.0,10.0,0.0,1.0,9001.0,,PC,O,AR,A,IN,,A23,A,710000.0
26983,,222924432,1989,0,0,0,0,0,0,0,0,0,0,0,0,0,0,0,0,0,0,0,0,0,0,0,0,0,0,0,0,0,0,0,0,0,3,0,0,N,NYC EXPERIMENTAL VIDEO & FILM,NEW YORK,NY,10012-3147,10012.0,36061,A31,A,10012.0,5602.0,5600.0,36061.0,PC,O,AR,A,A,IN,,Q,AR,AR,AR,0.018340000000000002,,,Z99,C,,36061.0,198912,198912,1989,NY,10012.0,NEW YORK,A31,A,12,89.0,0.0,0.0,465 W BWAY,9.0,0.0,1000.0,,1.0,13.0,15.0,20.0,9249.0,5.0,8904.0,SOHO BAROQUE OPERA CO INC,PC,O,AR,A,IN,,A6A,A,711130.0
26986,990.0,222924636,1987,1,4,0,17030,27835,0,0,0,0,0,0,0,0,44865,41388,3476,0,0,0,3476,0,0,3476,0,0,0,0,0,0,0,0,0,0,4,1,0,N,LINKS INC,NEW YORK,NY,10008-2243,10008.0,36061,A99,A,10008.0,5602.0,5600.0,36061.0,O,O,AR,A,A,IN,,Q,AR,AR,AR,0.34539000000000003,,,Z99,C,,36061.0,198712,198712,1987,NY,10008.0,NEW YORK,A99,C,12,119.0,40.0,279.0,185 WEST END AVE,9.0,0.0,3.0,ANNA MARIA BISHOP-HARRIS,2.0,1.0,0.0,10.0,1520.0,1.0,196112.0,METRO MANHATTAN LINKS INC,PC,O,AR,A,IN,,A99,A,710000.0
27945,990.0,223047700,1989,3,4,0,0,27060,0,0,0,0,0,0,26936,26936,53996,39684,24682,0,0,10370,24682,0,0,0,0,0,0,0,2750,0,0,0,0,0,3,1,0,N,NEW YORK FND ARCHITECTURE,NEW YORK,NY,10016-6101,10016.0,36061,A40,A,10016.0,5602.0,5600.0,36061.0,PF,O,AR,A,A,IN,,1,AR,AR,AR,0.04082,N,,A40,B,,36061.0,198912,198912,1989,NY,10016.0,NEW YORK,A40,B,12,59.0,0.0,0.0,200 LEXINGTON AVE,3.0,0.0,1000.0,,1.0,13.0,4.0,1.0,0.0,1.0,6703.0,,PC,O,AR,A,IN,,A40,A,710000.0
27999,,223055332,1989,0,0,120,0,0,0,0,0,0,0,0,0,0,0,0,0,0,0,0,0,0,0,0,0,0,0,0,0,0,0,0,0,0,4,0,0,N,UKRAINIAN NAT WOMENS LEAGUE AMERICA,NEW YORK,NY,10003-8410,10003.0,36061,A33,A,10003.0,5602.0,5600.0,36061.0,O,O,AR,A,A,IN,,Q,AR,AR,AR,0.39555,,,Z99,C,,36061.0,198912,198912,1989,NY,10003.0,NEW YORK,S81,C,12,120.0,0.0,0.0,108 SECOND AVE,9.0,0.0,3000.0,% LIDIA BILOUS,2.0,6.0,0.0,20.0,1874.0,5.0,6706.0,BRANCH 113,PC,O,AR,A,IN,,S81,S,813410.0
28683,990.0,226067322,1989,4,4,119,0,12185,0,0,689,0,0,0,34251,34251,46436,30160,55507,300,0,39831,57978,600,2471,0,0,0,0,0,0,0,0,0,0,0,6,1,0,N,DANCE MASTERS AMERICA NEW YORK CITY CHAPTER,BAYSIDE,NY,11361-0533,11361.0,36081,A62,A,11361.0,5602.0,5600.0,36081.0,O,O,AR,A,A,IN,,1,AR,AR,AR,0.02595,N,,A62,A,,36081.0,199008,199008,1990,NY,11361.0,BAYSIDE,A62,A,8,119.0,59.0,205.0,PO BOX 610533,3.0,0.0,2000.0,% ROBERT MANN,2.0,11.0,0.0,10.0,0.0,1.0,6406.0,,PC,O,AR,A,IN,,A62,A,711120.0
36390,990.0,237029109,1989,3,4,205,0,26225,0,0,158,0,0,0,27462,27462,53687,53745,11819,0,0,12843,12748,966,929,0,0,0,0,0,0,0,0,0,0,0,6,1,0,N,SOC PHOTOGRAPHERS & ARTISTS REPRESENTATIVES,NEW YORK,NY,10165-0005,10165.0,36061.0,A01,A,10165.0,5602.0,5600.0,36061.0,O,O,AR,A,A,IN,,Q,AR,AR,AR,0.78242,,,Z99,C,,36061.0,198912,198912,1989,NY,10165.0,NEW YORK,A0340,A,12,205.0,0.0,0.0,60 E 42ND STREET SUITE 1166,3.0,0.0,2000.0,,2.0,13.0,0.0,10.0,0.0,1.0,6906.0,ES INC,PC,O,AR,A,IN,,A0340,A,813920.0
39560,,237096387,1989,0,0,200,0,0,0,0,0,0,0,0,0,0,0,0,0,0,0,0,0,0,0,0,0,0,0,0,0,0,0,0,0,0,6,0,0,N,LAWYERS ASSOC TEXTILE INDUSTRY,NEW YORK,NY,10018-7606,10018.0,36061.0,A40,A,10018.0,5602.0,5600.0,36061.0,O,O,AR,A,A,IN,,Q,AR,AR,AR,0.54168,,,Z99,C,,36061.0,198912,198912,1989,NY,10018.0,NEW YORK,I03,A,12,200.0,0.0,0.0,462 SEVENTH AVE 23RD FLR,3.0,0.0,2000.0,% ERNST & WHINNEY,2.0,13.0,0.0,20.0,0.0,1.0,7201.0,,PC,O,AR,A,IN,,I03,I,813920.0
39860,,237101741,1988,0,0,200,0,0,0,0,0,0,0,0,0,0,0,0,0,0,0,0,0,0,0,0,0,0,0,0,0,0,0,0,0,0,6,0,0,N,NEW YORK BUSINESS PRESS EDITORS,NEW YORK,NY,10017-0000,10017.0,36061.0,A01,A,10017.0,5602.0,5600.0,36061.0,O,O,AR,A,A,IN,,Q,AR,AR,AR,0.35433000000000003,,,Z99,C,,36061.0,198906,198906,1989,NY,10017.0,NEW YORK,A33,A,6,200.0,59.0,0.0,P O BOX 5771 GRAND CENTRAL STATION,3.0,0.0,2000.0,,2.0,13.0,0.0,20.0,0.0,1.0,7109.0,,PC,O,AR,A,IN,,A33,A,511100.0
41073,,237117133,1987,0,0,908,0,0,0,0,0,0,0,0,0,0,0,0,0,0,0,0,0,0,0,0,0,0,0,0,0,0,0,0,0,0,4,0,0,N,SOC OLD BROOKLYNITES,BROOKLYN,NY,11218-1265,11218.0,36047.0,A80,A,11218.0,5602.0,5600.0,36047.0,O,O,AR,A,A,IN,,Q,AR,AR,AR,0.008329999999999999,,,Z99,C,,36047.0,198712,198712,1987,NY,11218.0,BROOKLYN,A80,B,12,908.0,0.0,0.0,651 VANDERBILT ST,3.0,0.0,1000.0,% DONALD L NOWLAN,2.0,11.0,0.0,20.0,0.0,1.0,7202.0,,PC,O,AR,A,IN,,A80,A,712120.0
44881,990.0,237164969,1989,5,5,920,4250,125600,0,0,8611,0,0,5221,69232,69232,199082,228514,66965,0,0,109513,110938,13116,43973,66965,0,0,0,0,0,0,0,0,0,0,6,1,0,N,ASSOC ART MUS DIRECTORS,NEW YORK,NY,10017-6705,10017.0,36061.0,A01,A,10017.0,5602.0,5600.0,36061.0,O,O,AR,A,A,IN,,Q,AR,AR,AR,0.28135,,,Z99,C,,36061.0,199006,199006,1990,NY,10017.0,NEW YORK,A50,A,6,920.0,59.0,119.0,1290 AVE OF THE AMERICAS,3.0,0.0,2000.0,% CORNICK GARBER & SANDLER,2.0,13.0,0.0,10.0,0.0,1.0,7203.0,INC,PC,O,AR,A,IN,,A0351,A,813920.0
45764,990.0,237179226,1989,5,5,920,0,362645,0,0,3843,10352,0,0,3843,3843,366488,234317,192499,0,8041,60328,192499,0,0,0,0,0,0,0,0,0,0,0,0,0,6,1,0,N,RADIO MUSIC LICENSE,NEW YORK,NY,10153-0001,10153.0,36061.0,A01,A,10153.0,5602.0,5600.0,36061.0,O,O,AR,A,A,IN,,Q,AR,AR,AR,0.67015,,,Z99,C,,36061.0,198912,198912,1989,NY,10153.0,NEW YORK,A34,A,12,920.0,0.0,0.0,767 FIFTH AVE,3.0,0.0,2000.0,% WEIL GOTSHAL & MANGES,2.0,13.0,0.0,10.0,0.0,5.0,7209.0,,PC,O,AR,A,IN,,A34,A,513110.0
51263,990.0,237328225,1989,4,5,59,0,574,0,0,4447,0,0,0,135993,135993,136567,112338,43617,0,0,69184,43617,0,0,0,0,0,0,0,0,0,0,0,0,0,8,1,0,N,BNAI BRITH 5258 MUSIC & PERFORMING ARTS LODGE,NEW YORK,NY,10023-5882,10023.0,36061,A99,A,10023.0,5602.0,5600.0,36061.0,O,O,AR,A,A,IN,,Q,AR,AR,AR,0.27923000000000003,,,Z99,C,,36061.0,198912,198912,1989,NY,10023.0,NEW YORK,A60,A,12,59.0,29.0,349.0,1995 BROADWAY 603,9.0,0.0,1000.0,% MURRAY FROIKIN,1.0,13.0,0.0,10.0,947.0,5.0,4606.0,,PC,O,AR,A,IN,,A60,A,711100.0
54659,990.0,237411166,1989,6,6,200,0,447584,0,0,77758,0,0,0,77758,77758,525342,463936,98039,0,0,749812,778764,713179,680725,98039,0,0,0,0,0,0,0,0,0,0,6,1,0,N,LIBERIAN SHIPOWNERS COUNCIL LTD,NEW YORK,NY,10170-2656,10170.0,36061,A01,A,10170.0,5602.0,5600.0,36061.0,O,O,AR,A,A,IN,,Q,AR,AR,AR,0.30835,,,Z99,C,,36061.0,198912,198912,1989,NY,10170.0,NEW YORK,A23,A,12,200.0,914.0,480.0,99 PARK AVE RM 1700,3.0,0.0,2.0,,2.0,1.0,0.0,10.0,0.0,1.0,197612.0,,PC,O,AR,A,IN,,A23,A,710000.0
56021,990.0,237449111,1989,5,5,0,370767,0,0,0,6075,0,0,0,20880,20880,391647,196512,321705,0,0,139694,333459,13123,11753,0,0,0,0,0,0,0,0,0,0,0,3,1,7,Y,INTL ONE WORLD CRUSADE,NEW YORK,NY,10116-7594,10116.0,36061,A34,A,10116.0,5602.0,5600.0,36061.0,PC,O,AR,A,A,IN,,1,AR,AR,AR,0.7851899999999999,N,,A34,A,,36061.0,198912,198912,1989,NY,10116.0,NEW YORK,A34,A,12,4.0,8.0,29.0,G P O BOX 7594,3.0,0.0,7000.0,,1.0,23.0,15.0,10.0,0.0,1.0,9407.0,,PC,O,AR,A,IN,,A34,A,513110.0
56277,990.0,237456182,1989,0,4,0,20019,0,0,0,0,0,0,0,14130,14130,34149,27595,-25218,0,0,-4177,-25218,0,0,0,0,0,0,0,0,0,0,0,0,0,3,1,7,N,ALPHA OMEGA 1 7 THEATRICAL DANCE,NEW YORK,NY,10025-6912,10025.0,36061,A62,A,10025.0,5602.0,5600.0,36061.0,PC,O,AR,A,A,IN,,1,AR,AR,AR,0.6332899999999999,N,,A65,A,,36061.0,198912,198912,1989,NY,10025.0,NEW YORK,A62,A,12,0.0,0.0,0.0,200 W 54TH ST 9A,3.0,0.0,1000.0,DOLORES VANSION-BLAKELY,1.0,13.0,13.0,20.0,0.0,5.0,0.0,,PC,O,AR,A,IN,,A62,A,711120.0
72660,,330274349,1989,0,0,200,0,0,0,0,0,0,0,0,0,0,0,0,0,0,0,0,0,0,0,0,0,0,0,0,0,0,0,0,0,0,6,0,0,N,THEATRICAL DEALERS ASSOC,NEW YORK,NY,10025-0000,10025.0,36061.0,A01,A,10025.0,5602.0,5600.0,36061.0,O,O,AR,A,A,IN,,Q,AR,AR,AR,0.54382,,,Z99,C,,36061.0,198912,198912,1989,NY,10025.0,NEW YORK,A65,B,12,200.0,0.0,0.0,755 W END AVE 9B,3.0,0.0,1000.0,,2.0,13.0,0.0,10.0,0.0,1.0,8809.0,,PC,O,AR,A,IN,,A65,A,711110.0
83539,990.0,356048417,1989,3,4,65,0,23000,0,0,2411,0,0,0,2411,2411,25411,48824,15394,0,0,38807,15935,4550,541,0,0,0,0,0,0,0,0,0,0,0,6,1,0,N,NAT ASSOC BAND INSTRUMENT MANUFACTURERS INCORPORA,NEW YORK,NY,10010-6906,10010.0,36061.0,A01,A,10010.0,5602.0,5600.0,36061.0,O,O,AR,A,A,IN,,Q,AR,AR,AR,0.5061,,,Z99,C,,36061.0,198912,198912,1989,NY,10010.0,NEW YORK,A6C,A,12,65.0,207.0,200.0,38 W 21ST ST 5TH FLR,1.0,0.0,2000.0,,2.0,13.0,0.0,10.0,0.0,1.0,3505.0,ERS INCORPORA,PC,O,AR,A,IN,,A6C,A,711130.0
91316,990.0,366126873,1989,4,5,200,0,57647,0,0,829,0,0,0,52802,52802,110449,93321,28196,0,0,21654,29096,10586,900,28196,0,0,0,0,0,0,0,0,0,0,6,1,0,N,MUSIC DISTRIBUTORS ASSOC,NEW YORK,NY,10010-6906,10010.0,36061.0,A01,A,10010.0,5602.0,5600.0,36061.0,O,O,AR,A,A,IN,,Q,AR,AR,AR,0.34742,,,Z99,C,,36061.0,198912,198912,1989,NY,10010.0,NEW YORK,A68,A,12,200.0,205.0,279.0,38 44 W 21ST ST,3.0,0.0,2000.0,,2.0,13.0,0.0,10.0,0.0,1.0,6512.0,,PC,O,AR,A,IN,,A68,A,711130.0
93250,990.0,370789523,1988,5,5,59,653,87370,0,0,10810,0,0,0,75335,75335,163358,126443,162780,10000,0,127280,163167,1414,387,0,0,0,0,0,0,0,0,0,0,0,6,1,0,Y,ASSOC BUSINESS COMMUNICATION,NEW YORK,NY,10010-5518,10010.0,36061.0,A01,A,10010.0,5602.0,5600.0,36061.0,O,O,AR,A,A,IN,,Q,AR,AR,AR,0.2747,,,Z99,C,,36061.0,198812,198812,1988,NY,10010.0,NEW YORK,A30,A,12,59.0,0.0,0.0,17 LEXINGTON AVE PO BOX 343,3.0,0.0,2000.0,% ROBERT J MYERS DEPT SPEECH RM1403,2.0,13.0,0.0,10.0,0.0,5.0,5811.0,BARUCH COLLEGE CUNY,PC,O,AR,A,IN,,A30,A,510000.0
129998,990.0,510152693,1989,4,5,0,10855,0,0,0,5005,0,0,0,166445,166445,177300,171463,57668,0,0,51831,57668,0,0,0,0,0,0,0,0,0,0,0,0,0,3,1,7,N,CHAMBER MUSIC CONFERENCE &,NEW YORK,NY,10014-2786,10014.0,36061.0,A6C,A,10014.0,5602.0,5600.0,36061.0,PC,O,AR,A,A,IN,,1,AR,AR,AR,0.69623,N,,A68,A,,36061.0,198912,198912,1989,NY,10014.0,NEW YORK,A68,A,12,119.0,0.0,0.0,33 GREENWICH AVE 7A,3.0,0.0,1000.0,% H EDELSTEIN,1.0,13.0,16.0,10.0,0.0,1.0,7512.0,,PC,O,AR,A,IN,,A68,A,711130.0
130415,990.0,510163940,1989,1,4,64,40500,0,0,0,0,0,0,0,0,0,40500,42337,1133,0,0,2970,1133,0,0,0,0,0,0,0,0,0,0,0,0,0,4,1,0,N,AFRICAN AMER DAY PARADE,NEW YORK,NY,10030-0501,10030.0,36061.0,A23,A,10030.0,5602.0,5600.0,36061.0,O,O,AR,A,A,IN,,Q,AR,AR,AR,0.98082,,,Z99,C,,36061.0,198912,198912,1989,NY,10030.0,NEW YORK,A23,A,12,,,,,,,,,,,,,,,,,PC,O,AR,A,IN,,A23,A,710000.0
131005,990.0,510180605,1989,4,4,200,0,40615,0,0,2221,0,0,0,2221,2221,42836,47946,48602,0,0,55212,49902,1500,1300,48602,0,0,0,0,0,0,0,0,0,0,6,1,0,N,NAT ANTIQUE & ART DEALERS ASSOC AMERICA,NEW YORK,NY,10022-3105,10022.0,36061.0,A01,A,10022.0,5602.0,5600.0,36061.0,O,O,AR,A,A,IN,,Q,AR,AR,AR,0.9567899999999999,,,Z99,C,,36061.0,199004,199004,1990,NY,10022.0,NEW YORK,A0326,A,4,200.0,0.0,0.0,15 E 57TH ST,3.0,0.0,2000.0,,2.0,13.0,0.0,10.0,0.0,1.0,7602.0,ERICA INC,PC,O,AR,A,IN,,A0326,A,813920.0
131495,990.0,510192888,1989,3,4,205,0,58360,0,0,533,0,0,0,533,533,58893,52530,14295,0,0,7932,14295,0,0,0,0,0,0,0,0,0,0,0,0,0,6,1,0,N,NEW YORK OBSTETRICAL SOC,BRONX,NY,10461-1924,10461.0,36005,A69,A,10461.0,5602.0,5600.0,36005.0,O,O,AR,A,A,IN,,1,AR,AR,AR,0.36808,N,,A69,A,,36005.0,199004,199004,1990,NY,10461.0,BRONX,A69,A,4,205.0,199.0,0.0,1300 MORRIS PARK AVE BELFER 502,3.0,0.0,2000.0,% ROBERT C POST MD,2.0,13.0,0.0,10.0,0.0,1.0,8407.0,,PC,O,AR,A,IN,,A69,A,711130.0
138143,990.0,521513915,1989,5,5,205,0,124400,0,0,4713,0,0,0,30756,30756,155156,103613,161507,0,0,109964,162586,0,1079,0,0,0,0,0,0,0,0,0,0,0,6,1,0,N,PRINTING INDUSTRY CREDIT EXECUTIVES,NEW YORK,NY,10038-4302,10038.0,36061,A03,A,10038.0,5602.0,5600.0,36061.0,O,O,AR,A,A,IN,,1,AR,AR,AR,0.21324,N,,A03,A,,36061.0,198912,198912,1989,NY,10038.0,NEW YORK,A0333,A,12,205.0,0.0,0.0,1518 K ST NW STE 503,3.0,0.0,2000.0,,2.0,52.0,0.0,10.0,0.0,1.0,8707.0,,PC,O,AR,A,IN,,A0333,A,813920.0
213175,,942661960,1989,0,0,200,0,0,0,0,0,0,0,0,0,0,0,0,0,0,0,0,0,0,0,0,0,0,0,0,0,0,0,0,0,0,6,0,0,N,BROADCAST DESIGNERS ASSOC,NEW YORK,NY,10036-4008,10036.0,36061,A30,A,10036.0,5602.0,5600.0,36061.0,O,O,AR,A,A,IN,,Q,AR,AR,AR,0.45128,,,Z99,C,,36061.0,198912,198912,1989,NY,10036.0,NEW YORK,A30,A,12,200.0,0.0,0.0,470 PARK AVE SO 9TH FL,3.0,0.0,1000.0,,2.0,13.0,0.0,10.0,0.0,5.0,8202.0,,PC,O,AR,A,IN,,A30,A,510000.0
220319,990.0,952786905,1988,4,5,919,0,14600,0,0,4179,0,0,0,140590,140590,155190,71139,82132,0,0,70845,82132,0,0,82132,0,0,0,0,0,0,0,0,0,0,6,1,0,N,THEATRE EQUIPMENT ASSOC,NEW YORK,NY,10019-7411,10019.0,36061,A30,A,10019.0,5602.0,5600.0,36061.0,O,O,AR,A,A,IN,,Q,AR,AR,AR,0.34765999999999997,,,Z99,C,,36061.0,198812,198812,1988,NY,10019.0,NEW YORK,A65,B,12,919.0,205.0,0.0,244 W 49TH ST 200,3.0,0.0,2000.0,,2.0,13.0,0.0,10.0,0.0,1.0,7306.0,,PC,O,AR,A,IN,,A65,A,711110.0
220790,990.0,953147789,1987,6,7,205,7000,448144,0,0,27764,0,0,0,1418129,1414580,1873273,1731820,540782,0,0,529982,669060,123132,128278,0,0,0,0,0,0,0,0,0,0,0,6,1,0,N,NAT ACAD TELEVISION ARTS & SCIENCES GROUP RETURN,NEW YORK,NY,10019-2211,10019.0,36061,A01,A,10019.0,5602.0,5600.0,36061.0,O,O,AR,A,A,IN,,Q,AR,AR,AR,0.77382,,,Z99,C,,36061.0,198808,198808,1988,NY,10019.0,NEW YORK,A32,A,8,205.0,0.0,0.0,111 W 57TH ST,9.0,0.0,2000.0,,2.0,13.0,0.0,30.0,3005.0,1.0,7610.0,UP RETURN,PC,O,AR,A,IN,,A32,A,513120.0
