,CODE990,P6EXMPF,P6DOMORG,P7POLIT,P7LIQUID,P7POFCLM,P7DISSAL,P7DISBOR,P7DISSER,P7DISPAY,P7DISTRA,P7PAYGVT,P7UNDINC,P7BUSINT,P7JEOINV,P7PROPAG,P7ELECT,P7INDGRT,P7ORGGRT,P7OTHPUR,EIN,FisYr,STYEAR,ASCD,INCCD,ACTIV1,p1tcont,P1INTREV,P1DIVID,P1NGASTS,P1NLASTS,P1GINVPF,P1OTHINC,P1OFCOMP,P1CONTPD,P1TOTREV,P1TOTEXP,P1EXCREV,P1TEXMEX,P1NETINV,P1TEXCTX,P1NADINC,P2TOTAST,P2GVTINV,P2CRPSTK,P2CRPBND,P2TINVSC,P2TLIABL,NAME,CITY,STATE,ZIP,ntee1,nteecc,RandNum,FIPS,zipnew,ZIP5,MSA_NECH,PMSA,fipsold,fndncd,v_errorCd,RuleDate,estTAXPER,TAXPER,stateOld1,zip5Old1,cityOld1,LEVEL1,LEVEL2,LEVEL3,LEVEL4,OUTNCCS,OUTREAS,ACCPER,ACTIV2,ACTIV3,ADDRESS,AFCD,ARED,CLASSCD,CONTACT,DEDUCTCD,DISTRICT,FRCD,GEN,ORGCD,SEC_NAME,MAJGRPB,ntmaj12,ntmaj10,ntmaj5,SUBSECCD,LEVEL1old20090616,LEVEL2old20090616,LEVEL3old20090616,LEVEL4old20090616,OUTNCCSold20090616,OUTREASold20090616,nteeFinal,nteeFinal1,P2TASFMV,P2CASHBV,P2MORTG
1020,2,N,N,N,N,Y,N,N,N,N,N,N,N,N,N,N,N,N,N,N,42840186,1988,1988,6,5,60,311817,0,0,0,0,0,12895,0,0,324712,350449,-25737,307162,0,0,0,574922,0,0,574922,0,856,NANTUCKET LIGHTSHIP PRESERVATION,NEW YORK,NY,10022-6022,Z,Z99,0.824917,36061.0,10022.0,10022.0,5602.0,5600.0,36061.0,,,,198812,198812,NY,10022.0,NEW YORK,U,O,UN,Z,IN,,12,,,,,,,,,,,,,,Z,UN,UN,OT,,,,,,,,A80,A,,,
1875,3,N,Y,N,N,N,N,N,N,N,N,N,N,N,N,N,N,N,N,N,46124122,1989,1989,6,5,602,300,0,50635,44081,0,0,0,0,56000,95016,63135,31881,56190,88658,887,51210,649480,628538,0,727563,32355,33242,NATHANIEL SALTONSTALL ARTS FND,NEW YORK,NY,10017-2415,Z,Z99,0.358756,36061.0,10017.0,10017.0,5602.0,5600.0,36061.0,4.0,,196101.0,198912,198912,NY,10017.0,NEW YORK,PF,O,UN,Z,IN,,12,0.0,0.0,17 E 45TH ST,3.0,0.0,1000.0,% BETHAN LING & RUTA,1.0,13.0,1.0,0.0,2.0,,Z,UN,UN,OT,3.0,,,,,,,A12,A,,,
1889,3,N,N,N,N,N,N,N,N,N,N,N,N,N,N,N,N,N,N,N,46128361,1990,1989,7,6,119,0,9877,70986,0,0,0,35,0,22000,80898,55846,25052,42237,131038,2621,0,1332044,1332044,0,1593074,47301,73105,KOUSSEVITZKY MUSIC FND,NEW YORK,NY,10048-0203,Z,Z99,0.698499,36061.0,10048.0,10048.0,5602.0,5600.0,36061.0,4.0,,194206.0,199003,199003,NY,10048.0,NEW YORK,PF,O,UN,Z,IN,,3,40.0,0.0,200 PARK AVE,3.0,0.0,1200.0,% E J FRIEDMAN,1.0,14.0,1.0,0.0,1.0,,Z,UN,UN,OT,3.0,,,,,,,A68,A,,,
2471,3,N,N,N,N,Y,N,N,N,N,N,N,N,N,N,N,N,N,N,N,60742976,1990,1989,5,5,59,85750,632,0,0,0,14565,0,0,0,100947,88165,12782,72968,632,13,0,182278,0,432,182278,0,8767,WHITE BARN THEATRE FND,NEW YORK,NY,10022-1012,Z,Z99,0.687135,36061.0,10022.0,10022.0,5602.0,5600.0,36061.0,3.0,,195207.0,199006,199006,NY,10022.0,NEW YORK,PF,O,UN,Z,IN,,6,0.0,0.0,111 W 40TH ST 20TH FL,3.0,0.0,2000.0,HECHT AND COMPANY P C,1.0,13.0,1.0,0.0,1.0,,Z,UN,UN,OT,3.0,,,,,,,A65,A,,,
2497,3,N,N,N,N,N,N,N,N,N,N,N,N,N,N,N,N,N,N,N,60952239,1989,1989,2,1,0,0,346,0,0,0,0,0,0,200,346,236,110,0,346,7,346,5325,0,0,5325,251,258,JAMES SINGER MEM FND,BROOKLYN,NY,11210-0000,Z,Z99,0.740725,36047.0,11210.0,11210.0,5602.0,5600.0,36047.0,,,,198912,198912,NY,11210.0,BROOKLYN,U,O,UN,Z,IN,,12,,,,,,,,,,,,,,Z,UN,UN,OT,,,,,,,,A68,A,,,
3198,3,N,N,N,N,N,N,N,N,N,N,N,N,N,N,N,N,N,N,N,112405463,1989,1989,1,1,328,0,42,0,0,0,0,0,0,0,42,0,42,0,0,0,0,775,0,0,775,0,0,KHANDIT ARTS,E ELMHURST,NY,11369-2044,Z,Z99,0.39777199999999996,36081.0,11369.0,11369.0,5602.0,5600.0,36081.0,,,,198912,198912,NY,11369.0,E ELMHURST,U,O,UN,Z,IN,,12,,,,,,,,,,,,,,Z,UN,UN,OT,,,,,,,,A99,A,,,
3251,3,N,N,N,N,N,N,N,N,N,N,N,N,N,N,N,N,N,N,N,112538932,1989,1989,4,2,40,0,8909,278,0,0,0,0,0,79345,9187,79481,-70294,79345,9051,181,9051,35645,0,0,35645,0,3487,RICHARD H GOLDMAN MEM FOUNDA TION,NEW YORK,NY,10021-5704,Z,Z99,0.469154,36061.0,10021.0,10021.0,5602.0,5600.0,36061.0,4.0,,198107.0,198912,198912,NY,10021.0,NEW YORK,PF,O,UN,Z,IN,,12,0.0,0.0,40 TIFFANY CIR,3.0,0.0,1000.0,,1.0,11.0,1.0,0.0,2.0,,Z,UN,UN,OT,3.0,,,,,,,A80,A,,,
3255,3,N,N,N,N,N,N,N,N,N,N,N,N,N,N,N,N,N,N,N,112545501,1990,1989,2,2,40,8700,80,0,0,0,0,0,0,8666,8780,9190,-410,9190,80,2,80,7100,0,0,7100,0,370,EDDIE BARNES MEM MUSIC SCHOLAR SHIP FND,QUEENS VILLAGE,NY,11427-1824,Z,Z99,0.916731,36081.0,11427.0,11427.0,5602.0,5600.0,36081.0,4.0,,8110.0,199005,199005,NY,11427.0,QUEENS VILLAGE,PF,O,UN,Z,IN,,5,0.0,0.0,212 75 WHITEHALL TER,3.0,0.0,1000.0,,1.0,11.0,1.0,0.0,1.0,N,Z,UN,UN,OT,3.0,,,,,,,A68,A,,,
3317,3,N,N,N,N,N,N,N,N,N,N,N,N,N,N,N,N,N,N,N,112634917,1990,1989,3,4,349,400,536,0,0,0,0,46650,15951,0,47586,40033,7553,40033,0,0,0,10774,0,3745,10774,0,0,INST THEATRE LEARNING,FRESH MEADOWS,NY,11365-1634,Z,Z99,0.837209,36081.0,11365.0,11365.0,5602.0,5600.0,36081.0,4.0,,198305.0,199006,199006,NY,11365.0,FRESH MEADOWS,PF,O,UN,Z,IN,,6,0.0,0.0,56 15A UTOPIA PKY,3.0,0.0,1000.0,,1.0,11.0,1.0,0.0,1.0,,Z,UN,UN,OT,3.0,,,,,,,A6E,A,,,
3343,3,N,N,N,N,N,N,N,N,N,N,N,N,N,N,N,N,N,N,N,112668888,1987,1987,1,2,90,50,0,0,0,0,0,6483,0,0,6533,7205,-672,7205,0,0,0,157,0,0,157,0,24,ARGENTINE & IBEROAMERICAN FOLK ART FND,NEW YORK,NY,10024-2941,Z,Z99,0.9485979999999999,36061.0,10024.0,10024.0,5602.0,5600.0,36061.0,,,,198712,198712,NY,10024.0,NEW YORK,U,O,UN,Z,IN,,12,,,,,,,,,,,,,,Z,UN,UN,OT,,,,,,,,A1224,A,,,
3386,3,N,N,N,N,N,N,N,N,N,N,N,N,N,N,N,N,N,N,N,112720287,1987,1987,0,0,122,0,0,0,0,0,0,0,0,0,0,0,0,0,0,0,0,0,0,0,0,0,0,CHILDRENS GROUP THEATRE WORKSHOP,BROOKLYN,NY,11217-0001,Z,Z99,0.810613,36047.0,11217.0,11217.0,5602.0,5600.0,36047.0,,,,198712,198712,NY,11217.0,BROOKLYN,U,O,UN,Z,IN,,12,,,,,,,,,,,,,,Z,UN,UN,OT,,,,,,,,A65,A,,,
3412,3,N,N,N,N,N,N,N,N,N,N,N,N,N,N,N,N,N,N,N,112743930,1988,1988,1,4,398,44574,0,0,0,0,0,0,0,0,44574,48519,-3945,48519,0,0,0,4368,0,4139,4368,0,0,ANNIROC RESTORATION,BROOKLYN,NY,11207-7301,Z,Z99,0.920702,36047.0,11207.0,11207.0,5602.0,5600.0,36047.0,4.0,,8510.0,198812,198812,NY,11207.0,BROOKLYN,PF,O,UN,Z,IN,,12,400.0,0.0,685 JEROME ST,3.0,,1000.0,,,,,,,,Z,UN,UN,OT,3.0,,,,,,,A80,A,,,
3418,3,N,Y,N,N,N,N,N,N,N,N,N,N,N,N,N,N,N,N,N,112764785,1988,1988,4,1,602,1460,2003,0,0,0,0,0,0,1500,3463,1500,1963,1500,2003,20,0,31640,0,0,31640,26,1494,ARLENE TOPAL CREATIVE ARTS FIND,BROOKLYN,NY,11201-0000,Z,Z99,0.08784539999999999,36047.0,11201.0,11201.0,5602.0,5600.0,36047.0,,,,198812,198812,NY,11201.0,BROOKLYN,U,O,UN,Z,IN,,12,,,,,,,,,,,,,,Z,UN,UN,OT,,,,,,,,A99,A,,,
3431,3,N,Y,N,N,N,N,N,N,N,N,N,N,N,N,N,N,N,N,N,112780069,1989,1989,5,5,91,201431,2889,0,0,0,666,5604,46237,0,210590,208007,2583,127317,2383,24,0,268412,0,259399,268412,0,3652,EAST HAMPTON CTR CONTEMPORARY ART,NEW YORK,NY,10007-3001,Z,Z99,0.737974,36061.0,10007.0,10007.0,5602.0,5600.0,36061.0,,,,198912,198912,NY,10007.0,NEW YORK,U,O,UN,Z,IN,,12,,,,,,,,,,,,,,Z,UN,UN,OT,,,,,,,,A20,A,,,
3537,3,N,N,N,N,N,N,N,N,N,N,N,N,N,N,N,N,N,N,N,112942428,1989,1989,2,3,90,10000,0,0,0,0,0,0,0,0,10000,10667,-667,9767,0,0,0,5950,0,217,5950,6300,0,PODVAL ARTS & POETRY GALLERIES,BROOKLYN,NY,11235-5841,Z,Z99,0.292821,36047.0,11235.0,11235.0,5602.0,5600.0,36047.0,4.0,,198903.0,198912,198912,NY,11235.0,BROOKLYN,PF,O,UN,Z,IN,,12,0.0,0.0,150 BRIGHTON 15TH ST,3.0,0.0,1000.0,V MOLOT ESQ,1.0,11.0,1.0,0.0,1.0,,Z,UN,UN,OT,3.0,,,,,,,A70,A,,,
3543,3,N,N,N,N,N,N,N,N,N,N,N,N,N,N,N,N,N,N,N,112948645,1989,1988,4,5,602,100000,0,0,0,0,0,0,0,67500,100000,69886,30114,69886,0,0,0,30114,0,0,30114,0,2432,WORLD JOURNAL CULTURE FND,FLUSHING,NY,11354-0000,Z,Z99,0.00200574,36081.0,11354.0,11354.0,5602.0,5600.0,36081.0,4.0,,198909.0,198906,198906,NY,11354.0,FLUSHING,PF,O,UN,Z,IN,,6,0.0,0.0,141 07 20TH AVE,3.0,0.0,1000.0,,1.0,11.0,1.0,0.0,1.0,,Z,UN,UN,OT,3.0,,,,,,,A33,A,,,
3563,3,N,N,N,N,N,N,N,N,N,N,N,N,N,N,N,N,N,N,N,112994852,1989,1989,0,0,998,0,0,0,0,0,0,0,0,0,0,0,0,0,0,0,0,0,0,0,0,0,0,JUDAICA FND RES & PUBLICATION,NEW YORK,NY,10038-2400,Z,Z99,0.0639674,36061.0,10038.0,10038.0,5602.0,5600.0,36061.0,4.0,,9106.0,198912,198912,NY,10038.0,NEW YORK,PF,O,UN,Z,IN,,12,0.0,0.0,245 PARK AVE 1600,3.0,0.0,1000.0,% HAVAZELET,1.0,13.0,1.0,0.0,1.0,,Z,UN,UN,OT,3.0,,,,,,,A33,A,,,
3758,3,N,N,N,N,Y,N,N,N,N,N,N,N,N,N,N,N,N,N,N,116036776,1990,1989,5,4,119,64457,351,0,0,0,0,0,0,0,64808,32649,32159,23532,351,7,0,457449,0,6558,457449,0,1892,ANONYMOUS ARTS RECOVERY SOC,NEW YORK,NY,10012-5115,Z,Z99,0.23047800000000002,36061.0,10012.0,10012.0,5602.0,5600.0,36061.0,3.0,,196311.0,199003,199003,NY,10012.0,NEW YORK,PF,O,UN,Z,IN,,3,91.0,0.0,380 W BROADWAY,3.0,0.0,1000.0,,1.0,13.0,1.0,0.0,1.0,,Z,UN,UN,OT,3.0,,,,,,,A03,A,,,
3878,3,N,N,N,N,Y,N,N,N,N,N,N,N,N,N,N,N,N,N,N,116101563,1989,1988,1,3,119,15695,0,0,0,0,1978,0,0,0,17673,18353,-680,14653,0,0,0,165,0,0,165,0,68,FND CLASSIC THEATRE & ACAD,NEW YORK,NY,10036-7211,Z,Z99,0.6119939999999999,36061.0,10036.0,10036.0,5602.0,5600.0,36061.0,4.0,,196805.0,198906,198906,NY,10036.0,NEW YORK,PF,O,UN,Z,IN,,6,59.0,0.0,220 W 42ND ST,3.0,0.0,2300.0,% N J STATHIS,1.0,13.0,1.0,0.0,1.0,,Z,UN,UN,OT,3.0,,,,,,,A6E,A,,,
3914,2,Y,N,N,N,Y,N,N,N,N,N,N,N,N,N,N,N,N,N,N,130429640,1989,1989,8,7,65,283490,0,1355352,1836844,0,0,328748,64196,561785,3804434,1576084,2228350,1518529,3406545,0,1569701,23192073,22967482,0,22077898,0,1218862,AMER ACAD ARTS & LETTERS,NEW YORK,NY,10032-7501,Z,Z99,0.388785,36061.0,10032.0,10032.0,5602.0,5600.0,36061.0,2.0,,193503.0,198912,198912,NY,10032.0,NEW YORK,PF,O,UN,Z,IN,,12,207.0,60.0,633 W 155TH ST,3.0,0.0,2300.0,,1.0,13.0,1.0,0.0,1.0,,Z,UN,UN,OT,3.0,,,,,,,A25,A,,,
3929,2,N,Y,N,N,Y,N,N,Y,Y,N,N,N,N,N,N,N,N,N,N,131624012,1989,1989,9,8,119,2602775,59605,3689320,4672560,0,172506,564533,237785,0,11761299,7147425,4613874,6456832,7877884,78779,4104162,70806977,67835807,0,91325975,0,4072920,FRICK COLLECTION,NEW YORK,NY,10021-4907,Z,Z99,0.852975,36061.0,10021.0,10021.0,5602.0,5600.0,36061.0,3.0,,193910.0,198912,198912,NY,10021.0,NEW YORK,PF,O,UN,Z,IN,,12,59.0,60.0,1 E 70TH ST,3.0,0.0,1200.0,,1.0,13.0,1.0,0.0,3.0,,Z,UN,UN,OT,3.0,,,,,,,A51,A,,,
3948,2,N,N,N,N,Y,N,N,N,N,N,N,N,N,N,N,N,Y,N,N,131656673,1989,1988,7,5,119,90007,0,72589,36350,0,0,104343,28750,35824,303289,355919,-52630,293646,46666,933,114659,1065813,1043173,24478,1547453,0,71192,NAT SCULPTURE SOC,NEW YORK,NY,10036-2714,Z,Z99,0.509851,36061.0,10036.0,10036.0,5602.0,5600.0,36061.0,3.0,,193901.0,198909,198909,NY,10036.0,NEW YORK,PF,O,UN,Z,IN,,9,59.0,40.0,1177 AVE OF THE AMERICAS,3.0,0.0,2000.0,,1.0,13.0,1.0,0.0,1.0,,Z,UN,UN,OT,3.0,,,,,,,A40,A,,,
3977,3,N,N,N,N,N,N,N,N,Y,N,N,N,N,N,N,N,N,N,N,131790739,1989,1988,7,5,561,51800,3179,102620,0,-622,0,22375,22871,91095,179352,133347,46005,112101,91108,1822,108596,1132987,1061947,354,1230663,0,59910,MUSICIANS FND,NEW YORK,NY,10001-3507,Z,Z99,0.539038,36061.0,10001.0,10001.0,5602.0,5600.0,36061.0,4.0,,195305.0,198904,198904,NY,10001.0,NEW YORK,PF,O,UN,Z,IN,,4,0.0,0.0,200 W 55TH ST,3.0,0.0,1000.0,,1.0,13.0,1.0,0.0,1.0,,Z,UN,UN,OT,3.0,,,,,,,A68,A,,,
3997,3,N,Y,N,N,N,N,N,N,N,N,N,N,N,N,N,N,Y,N,N,131873289,1989,1989,7,4,119,2200,446,70606,12205,0,0,0,0,53125,85458,95504,-10046,82093,69976,700,0,1008988,1004923,112,1290011,20305,60153,BAGBY FND MUSICAL ARTS,NEW YORK,NY,10017-6103,A,A50,0.884093,36061.0,10017.0,10017.0,5602.0,5600.0,36061.0,4.0,,194211.0,198912,198912,NY,10017.0,NEW YORK,PF,O,AR,A,IN,,12,927.0,561.0,501 FIFTH AVE,3.0,0.0,1000.0,,1.0,13.0,1.0,0.0,1.0,,A,AR,AR,AR,3.0,,,,,,,A68,A,,,
4011,3,N,N,N,Y,N,N,N,N,N,N,N,N,N,N,N,N,N,N,N,131925857,1988,1988,1,0,119,0,0,0,0,0,0,0,0,0,0,0,0,0,0,0,0,1,0,0,0,0,0,THEATRE GUILD FND,NEW YORK,NY,10036-1413,Z,Z99,0.0803319,36061.0,10036.0,10036.0,5602.0,5600.0,36061.0,,,,198812,198812,NY,10036.0,NEW YORK,U,O,UN,Z,IN,,12,,,,,,,,,,,,,,Z,UN,UN,OT,,,,,,,,A65,A,,,
4012,3,N,N,N,N,N,N,N,N,Y,N,N,N,N,N,N,N,N,N,N,131926551,1989,1989,7,7,119,721525,22614,464823,53049,0,0,3503,109430,440231,1265514,694902,570612,545280,474366,9487,0,9136765,7725920,27185,10786919,0,487926,HARKNESS FND DANCE,NEW YORK,NY,10017-1259,Z,Z99,0.146809,36061.0,10017.0,10017.0,5602.0,5600.0,36061.0,4.0,,197903.0,198912,198912,NY,10017.0,NEW YORK,PF,O,UN,Z,IN,,12,0.0,0.0,145 E 48TH ST SUITE 26C,3.0,0.0,1000.0,,1.0,13.0,1.0,0.0,1.0,,Z,UN,UN,OT,3.0,,,,,,,A62,A,,,
4014,2,N,N,N,N,Y,N,N,N,N,N,N,N,N,N,N,N,N,N,N,131933437,1989,1989,2,1,119,1513,26,0,0,0,0,0,0,0,1540,1419,121,1419,1540,31,1540,8507,0,0,8507,0,27,MUSICA AETERNA,NEW YORK,NY,10169-0007,Z,Z99,0.024829900000000002,36061.0,10169.0,10169.0,5602.0,5600.0,36061.0,,,,198912,198912,NY,10169.0,NEW YORK,U,O,UN,Z,IN,,12,,,,,,,,,,,,,,Z,UN,UN,OT,,,,,,,,A68,A,,,
4020,2,N,N,N,N,Y,N,Y,N,N,N,N,N,N,N,N,N,N,N,N,131947036,1990,1989,1,4,119,20778,2,41,0,0,0,20448,0,0,41269,32219,9050,12406,43,1,0,1004,180,9584,1861,0,113,AMOR ARTIS,NEW YORK,NY,10028-0040,Z,Z99,0.72377,36061.0,10028.0,10028.0,5602.0,5600.0,36061.0,3.0,,196311.0,199004,199004,NY,10028.0,NEW YORK,PF,O,UN,Z,IN,,4,59.0,0.0,175 RIVERSIDE DR,3.0,0.0,1200.0,% JEAN CANNON APT 5H,1.0,13.0,1.0,0.0,1.0,,Z,UN,UN,OT,3.0,,,,,,,A99,A,,,
4056,3,N,N,N,N,N,N,N,N,N,N,N,N,N,N,N,N,N,N,N,132509763,1989,1989,1,0,602,0,0,0,0,0,0,0,0,0,0,360,-360,360,0,0,0,3488,0,0,3488,0,181,ARTISTS CIVIL RIGHTS ASSISTANCE FND,BROOKLYN,NY,11215-3701,Z,Z99,0.9903049999999999,36047.0,11215.0,11215.0,5602.0,5600.0,36047.0,,,,198912,198912,NY,11215.0,BROOKLYN,U,O,UN,Z,IN,,12,,,,,,,,,,,,,,Z,UN,UN,OT,,,,,,,,A02,A,,,
4106,3,N,N,N,N,N,N,N,N,N,N,N,N,N,N,N,N,N,N,N,132621140,1989,1989,4,2,161,8500,0,221,0,0,0,0,0,4830,8721,12992,-4271,7178,0,0,0,42733,0,0,249993,0,12528,VIOLA W BERNARD FND,NEW YORK,NY,10021-2651,Z,Z99,0.711517,36061.0,10021.0,10021.0,5602.0,5600.0,36061.0,4.0,,196812.0,198912,198912,NY,10021.0,NEW YORK,PF,O,UN,Z,IN,,12,180.0,602.0,930 FIFTH AVE,3.0,0.0,1000.0,% HARRY GOODKIN & CO,1.0,13.0,1.0,0.0,1.0,,Z,UN,UN,OT,3.0,,,,,,,A68,A,,,
4180,2,N,Y,N,N,Y,N,Y,N,Y,N,N,N,N,N,N,N,N,N,N,132760185,1989,1988,5,4,8,52500,0,0,0,0,1946,0,0,0,54446,59495,-5049,52621,0,0,0,181315,0,6035,181315,0,163,EAKINS PRESS FND,NEW YORK,NY,10023-6226,Z,Z99,0.866382,36061.0,10023.0,10023.0,5602.0,5600.0,36061.0,4.0,,197404.0,198906,198906,NY,10023.0,NEW YORK,PF,O,UN,Z,IN,,6,0.0,0.0,15 W 67TH ST,3.0,0.0,1000.0,%LESLIE KATZ,1.0,13.0,1.0,0.0,1.0,,Z,UN,UN,OT,3.0,,,,,,,A33,A,,,
4218,3,N,Y,N,N,Y,N,N,Y,Y,N,N,N,N,N,N,N,N,N,N,132874843,1989,1989,2,3,995,10300,0,0,0,0,0,285,0,0,10585,6074,4511,6074,0,0,0,5470,0,0,5470,0,59,LAURA PAWEL DANCE COMPANY,NEW YORK,NY,10023-3402,Z,Z99,0.326612,36061.0,10023.0,10023.0,5602.0,5600.0,36061.0,4.0,,197701.0,198912,198912,NY,10023.0,NEW YORK,PF,O,UN,Z,IN,,12,119.0,0.0,15 W 72ND ST,3.0,0.0,2000.0,,1.0,13.0,1.0,0.0,1.0,,Z,UN,UN,OT,3.0,,,,,,,A62,A,,,
4220,2,Y,N,N,N,Y,Y,N,N,Y,N,N,N,N,N,N,N,N,N,N,132874863,1989,1988,2,5,995,61005,930,0,0,0,0,91890,26500,0,153825,176970,-23145,134657,930,0,0,7274,0,3802,7274,0,887,FIJI THEATRE COMPANY,NEW YORK,NY,10012-1114,A,A6F,0.732617,36061.0,10012.0,10012.0,5602.0,5600.0,36061.0,15.0,,197611.0,198906,198906,NY,10012.0,NEW YORK,PC,O,AR,A,IN,,6,0.0,0.0,47 GREAT JONES STREET,1.0,0.0,1200.0,% PING CHONG,1.0,13.0,10.0,0.0,1.0,,A,AR,AR,AR,3.0,,,,,,,A65,A,,,
4242,3,N,N,N,N,N,N,N,N,N,N,N,N,N,N,N,N,N,N,N,132893085,1989,1988,3,2,92,4000,1704,0,0,0,0,575,0,0,6279,1916,4363,1916,1704,34,0,20683,20000,0,20683,985,1013,NEW YORK DRAMA CRITIC CIRCLE,NEW YORK,NY,10017-5617,Z,Z99,0.58021,36061.0,10017.0,10017.0,5602.0,5600.0,36061.0,4.0,,197710.0,198909,198909,NY,10017.0,NEW YORK,PF,O,UN,Z,IN,,9,0.0,0.0,655 THIRD AVE,3.0,0.0,2000.0,% ROSENZWEIG & CO,1.0,13.0,1.0,0.0,1.0,,Z,UN,UN,OT,3.0,,,,,,,A65,A,,,
4248,3,N,N,N,N,N,N,N,N,N,N,N,N,N,N,N,N,Y,N,N,132896424,1989,1988,3,4,122,48500,1405,0,0,0,0,395,0,45413,50301,50748,-447,45413,0,0,0,22609,0,17410,22609,0,0,LIVING ARCHIVES,NEW YORK,NY,10024-1125,Z,Z99,0.376942,36061.0,10024.0,10024.0,5602.0,5600.0,36061.0,15.0,,197710.0,198910,198910,NY,10024.0,NEW YORK,PC,O,UN,Z,IN,,10,0.0,0.0,262 W 91ST ST,3.0,0.0,2000.0,,1.0,13.0,1.0,0.0,1.0,,Z,UN,UN,OT,3.0,,,,,,,A31,A,,,
4255,2,N,Y,N,N,Y,N,N,N,Y,N,N,N,N,N,N,N,N,N,N,132898805,1989,1988,7,5,119,315221,780,76090,0,0,0,2424,33042,0,394515,420928,-26413,416105,76184,762,78608,1034733,0,91439,1020428,0,46403,PUBLIC ART FND,NEW YORK,NY,10022-4201,Z,Z99,0.700304,36061.0,10022.0,10022.0,5602.0,5600.0,36061.0,15.0,,197707.0,198906,198906,NY,10022.0,NEW YORK,PC,O,UN,Z,IN,,6,123.0,429.0,1 E 53RD ST 11TH FL,3.0,0.0,2000.0,,1.0,13.0,1.0,0.0,5.0,,Z,UN,UN,OT,3.0,,,,,,,A1240,A,,,
4318,3,N,N,N,N,Y,N,N,N,N,N,N,N,N,N,N,N,N,N,N,132948550,1987,1987,1,0,994,0,0,0,0,0,0,0,0,0,0,0,0,0,0,0,0,1,0,0,0,0,0,ALL ABOUT TV,NEW YORK,NY,10019-3827,Z,Z99,0.014793100000000002,36061.0,10019.0,10019.0,5602.0,5600.0,36061.0,,,,198712,198712,NY,10019.0,NEW YORK,U,O,UN,Z,IN,,12,,,,,,,,,,,,,,Z,UN,UN,OT,,,,,,,,A32,A,,,
4328,3,N,N,N,N,N,N,N,N,N,N,N,N,N,N,N,N,N,N,N,132958531,1989,1988,0,0,995,0,0,0,0,0,0,0,0,0,0,0,0,0,0,0,0,0,0,0,0,0,0,CHAMBER PLAYERS LIMITED,NEW YORK,NY,10108-0346,Z,Z99,0.557592,36061.0,10108.0,10108.0,5602.0,5600.0,36061.0,4.0,,7810.0,198911,198911,NY,10108.0,NEW YORK,PF,O,UN,Z,IN,,11,90.0,0.0,PO BOX 2335,3.0,198311.0,1200.0,% CHRIS EREDE,1.0,13.0,1.0,0.0,1.0,,Z,UN,UN,OT,3.0,,,,,,,A65,A,,,
4360,3,N,N,N,Y,Y,N,N,N,N,N,N,N,N,N,N,N,N,N,N,132975183,1989,1989,1,1,995,0,102,0,0,0,0,0,0,2600,102,3017,-2915,2600,102,2,0,340,0,0,340,0,0,NEW CHAMBER ENSEMBLE,NEW YORK,NY,10024-1309,Z,Z99,0.18979400000000002,36061.0,10024.0,10024.0,5602.0,5600.0,36061.0,,,,198912,198912,NY,10024.0,NEW YORK,U,O,UN,Z,IN,,12,,,,,,,,,,,,,,Z,UN,UN,OT,,,,,,,,A6C,A,,,
4369,3,N,N,N,N,N,N,N,N,N,N,N,N,N,N,N,N,N,N,N,132982575,1989,1989,4,1,91,0,0,2365,0,0,0,0,0,0,2365,1180,1185,0,2365,47,1185,53271,0,0,53271,2577,2624,ROBERT C SCULL FND ARTS,NEW YORK,NY,10029-4316,Z,Z99,0.507817,36061.0,10029.0,10029.0,5602.0,5600.0,36061.0,4.0,,8207.0,198912,198912,NY,10029.0,NEW YORK,PF,O,UN,Z,IN,,12,0.0,0.0,2065 FIRST AVE,3.0,0.0,1000.0,,1.0,13.0,1.0,0.0,1.0,,Z,UN,UN,OT,3.0,,,,,,,A12,A,,,
4398,2,N,N,N,N,Y,N,N,N,N,N,N,N,N,N,N,N,N,N,N,133002233,1989,1988,5,4,60,0,0,75283,7803,0,0,0,0,3870,83086,68086,15000,6316,83086,1662,83086,453329,0,2600,475546,0,13462,STEDAWILL ART FND,NEW YORK,NY,10123-0599,Z,Z99,0.524309,36061.0,10123.0,10123.0,5602.0,5600.0,36061.0,4.0,,197911.0,198906,198906,NY,10123.0,NEW YORK,PF,O,UN,Z,IN,,6,0.0,0.0,450 7TH AVE RM 500,3.0,0.0,1000.0,L WOLLIN,1.0,13.0,1.0,0.0,1.0,,Z,UN,UN,OT,3.0,,,,,,,A12,A,,,
4414,2,N,N,N,N,Y,N,N,N,N,N,N,N,N,N,N,N,N,N,N,133009550,1989,1989,2,1,90,3000,546,0,0,0,0,0,0,3500,3546,4666,-1120,4666,546,11,546,5949,0,0,5949,0,321,INTL MEDIA STUDIES FND,NEW YORK,NY,10168-0002,Z,Z99,0.897918,36061.0,10168.0,10168.0,5602.0,5600.0,36061.0,3.0,,8002.0,198912,198912,NY,10168.0,NEW YORK,PF,O,UN,Z,IN,,12,119.0,0.0,122 E 42ND ST 3206,3.0,0.0,2000.0,% WILLIAM B OBOYLE,1.0,13.0,1.0,0.0,1.0,,Z,UN,UN,OT,3.0,,,,,,,A30,A,,,
4459,3,N,N,N,N,Y,N,Y,N,N,N,N,N,N,N,N,N,N,N,N,133031485,1989,1988,5,4,119,30000,0,1447,0,0,0,0,0,0,31447,55004,-23557,47804,1447,29,0,117273,0,86537,117273,0,5694,BARISHNIKOV DANCE FND,NEW YORK,NY,10019-3800,Z,Z99,0.317434,36061.0,10019.0,10019.0,5602.0,5600.0,36061.0,4.0,,197911.0,198901,198901,NY,10019.0,NEW YORK,PF,O,UN,Z,IN,,1,0.0,0.0,35 E 12TH ST 5C,3.0,0.0,1000.0,% PADELL NADELL FINE & WEINBERGER,1.0,13.0,1.0,0.0,1.0,,Z,UN,UN,OT,3.0,,,,,,,A62,A,,,
4488,3,N,N,N,N,N,N,N,N,N,N,N,N,N,N,N,N,N,N,N,133042386,1989,1989,4,1,119,1000,2695,0,0,0,0,0,0,0,3695,130,3565,0,2640,53,0,34393,0,0,34393,0,1606,FND NAT PERFORMING ARTS CTR INDIAINC,NEW YORK,NY,10178-0002,Z,Z99,0.8679969999999999,36061.0,10178.0,10178.0,5602.0,5600.0,36061.0,4.0,,198011.0,198912,198912,NY,10178.0,NEW YORK,PF,O,UN,Z,IN,,12,93.0,0.0,101 PARK AVE 28TH FLOOR,3.0,0.0,1000.0,% TATA INCORPORATED,1.0,13.0,1.0,0.0,1.0,NTRE OF INDIAINC,Z,UN,UN,OT,3.0,,,,,,,A1260,A,,,
4494,3,N,N,N,N,N,N,N,N,N,N,N,N,N,N,N,N,N,N,N,133047538,1988,1988,4,4,402,58455,3540,0,0,0,0,0,0,0,85092,82144,2948,82144,3540,71,0,44243,0,2000,44243,0,2106,SEPHARDIC HERITAGE FND,NEW YORK,NY,10120-0101,Z,Z99,0.177541,36061.0,10120.0,10120.0,5602.0,5600.0,36061.0,4.0,,198012.0,198812,198812,NY,10120.0,NEW YORK,PF,O,UN,Z,IN,,12,994.0,400.0,112 W 34TH ST,3.0,198212.0,1000.0,% SAM CATTON,1.0,1.0,1.0,0.0,1.0,,Z,UN,UN,OT,3.0,,,,,,,A82,A,,,
4523,3,N,N,N,N,N,N,N,N,N,N,N,N,N,N,N,N,N,N,N,133052495,1989,1989,1,0,90,0,0,0,0,0,0,0,0,0,0,0,0,0,0,0,0,211,6,0,211,0,10,HENRI & EUGENIA DOLL FND PERFORMING ARTS,NEW YORK,NY,10036-5803,Z,Z99,0.294935,36061.0,10036.0,10036.0,5602.0,5600.0,36061.0,,,,198912,198912,NY,10036.0,NEW YORK,U,O,UN,Z,IN,,12,,,,,,,,,,,,,,Z,UN,UN,OT,,,,,,,,A60,A,,,
4571,3,N,N,N,N,N,N,N,N,N,N,N,N,N,N,N,N,N,N,N,133072403,1990,1989,1,0,90,0,0,0,0,0,0,0,0,0,0,538,-538,538,0,0,0,216,0,1417,216,538,0,PLAYWRIGHTS FORUM,NEW YORK,NY,10023-5958,Z,Z99,0.231334,36061.0,10023.0,10023.0,5602.0,5600.0,36061.0,4.0,,8208.0,199002,199002,NY,10023.0,NEW YORK,PF,O,UN,Z,IN,,2,909.0,0.0,1585 BROADWAY RM 2358,3.0,0.0,2000.0,% TRAUM,1.0,13.0,1.0,0.0,1.0,,Z,UN,UN,OT,3.0,,,,,,,A65,A,,,
4576,3,N,N,N,N,N,N,N,N,N,N,N,N,N,N,N,N,N,N,N,133074367,1989,1989,2,0,124,0,0,0,0,0,0,0,0,0,0,760,-760,0,0,0,0,5781,0,650,5781,0,0,OPERA PIA INTL,NEW YORK,NY,10014-1916,Z,Z99,0.7330369999999999,36061.0,10014.0,10014.0,5602.0,5600.0,36061.0,,,,198912,198912,NY,10014.0,NEW YORK,U,O,UN,Z,IN,,12,,,,,,,,,,,,,,Z,UN,UN,OT,,,,,,,,A6A,A,,,
4585,3,N,Y,N,N,N,N,N,N,N,N,N,N,N,N,N,N,N,N,N,133080138,1989,1989,4,1,994,0,3586,0,0,0,0,0,0,28000,3586,28621,-25035,28000,2965,30,0,35245,0,0,35245,0,2315,ARIANA FND ARTS,NEW YORK,NY,10013-3512,Z,Z99,0.614744,36061.0,10013.0,10013.0,5602.0,5600.0,36061.0,,,,198912,198912,NY,10013.0,NEW YORK,U,O,UN,Z,IN,,12,,,,,,,,,,,,,,Z,UN,UN,OT,,,,,,,,A1261,A,,,
4595,3,N,Y,N,N,N,N,N,N,N,N,N,N,N,N,N,N,N,N,N,133082489,1990,1989,7,5,90,100000,61950,21430,0,0,0,0,0,59700,183380,60434,122946,59830,82776,828,82646,1098711,779225,476,1098711,6695,51083,TONY RANDALL THEATRICAL FND,NEW YORK,NY,10122-0008,Z,Z99,0.830105,36061.0,10122.0,10122.0,5602.0,5600.0,36061.0,4.0,,198210.0,199006,199006,NY,10122.0,NEW YORK,PF,O,UN,Z,IN,,6,995.0,0.0,225 W 34TH ST,3.0,198306.0,2000.0,% A GOLDFINE CPA,1.0,13.0,1.0,0.0,1.0,,Z,UN,UN,OT,3.0,,,,,,,A65,A,,,
4605,3,N,N,N,N,Y,N,N,N,N,N,N,N,N,N,N,N,N,N,N,133085960,1989,1988,2,3,90,7067,0,0,4335,0,0,0,0,0,11402,14347,-2945,0,4335,87,0,7066,0,0,7066,0,421,FRIENDS YOUNG MUSICIANS,NEW YORK,NY,10022-5493,Z,Z99,0.24875500000000003,36061.0,10022.0,10022.0,5602.0,5600.0,36061.0,4.0,,198109.0,198911,198911,NY,10022.0,NEW YORK,PF,O,UN,Z,IN,,11,0.0,0.0,515 MADISON AVE 15TH FLOOR,3.0,0.0,2000.0,,1.0,13.0,1.0,0.0,1.0,,Z,UN,UN,OT,3.0,,,,,,,A1168,A,,,
4620,3,N,N,N,N,N,N,Y,N,Y,N,N,N,N,N,N,N,N,N,N,133093638,1989,1989,7,7,91,583483,44119,134089,0,0,0,-3625,0,135900,758066,181867,576199,161719,245435,4909,130240,2742849,2172139,0,28608852,0,122009,MILTON & SALLY AVERY ARTS FND,NEW YORK,NY,10022-7572,Z,Z99,0.9922219999999999,36061.0,10022.0,10022.0,5602.0,5600.0,36061.0,4.0,,198311.0,198912,198912,NY,10022.0,NEW YORK,PF,O,UN,Z,IN,,12,123.0,561.0,805 THIRD AVE 21ST FLR,3.0,0.0,1000.0,% FINLEY KUMBLE ET AL,1.0,13.0,1.0,0.0,1.0,FELDMAN RADIN & CO PC,Z,UN,UN,OT,3.0,,,,,,,A1261,A,,,
4647,3,N,N,N,N,N,N,N,N,N,N,N,N,N,N,N,N,N,N,N,133098470,1988,1988,1,1,0,1486,1,0,0,0,0,298,0,0,1786,1285,501,1285,0,0,0,500,0,0,500,0,0,MEDIA FOR THE OTHER ARTS INC,NEW YORK,NY,10013-1660,Z,Z99,0.41516099999999995,36061.0,,10013.0,5602.0,5600.0,,4.0,,198210.0,198812,198812,,,,PF,O,UN,Z,IN,,12,0.0,0.0,48 GRAND ST,3.0,0.0,2.0,,1.0,1.0,1.0,0.0,1.0,,Z,UN,UN,OT,3.0,,,,,,,A30,A,,,
4696,2,N,N,N,N,Y,N,N,N,N,N,N,N,N,N,N,N,N,N,N,133109432,1988,1988,4,1,561,0,3630,0,0,0,0,0,0,130,3630,249,3381,249,3630,73,3630,55371,0,0,55371,0,2637,SOUND VALUES SHARING,NEW YORK,NY,10031-2450,Z,Z99,0.607665,36061.0,10031.0,10031.0,5602.0,5600.0,36061.0,,,,198812,198812,NY,10031.0,NEW YORK,U,O,UN,Z,IN,,12,,,,,,,,,,,,,,Z,UN,UN,OT,,,,,,,,A68,A,,,
4720,3,N,N,N,N,Y,N,N,N,N,N,N,N,N,N,N,N,N,Y,N,133124565,1989,1989,5,4,119,70000,0,0,0,0,0,0,0,68041,70000,70000,0,68041,0,0,0,466390,0,0,466390,0,0,AMER FRIENDS CANADIAN CTR ARCHITECTURE,NEW YORK,NY,10017-3903,Z,Z99,0.5429069999999999,36061.0,10017.0,10017.0,5602.0,5600.0,36061.0,4.0,,198206.0,198912,198912,NY,10017.0,NEW YORK,PF,O,UN,Z,IN,,12,0.0,0.0,425 LEXINGTON AVE,3.0,0.0,2000.0,DAVIES WARD PHILLIPS&VINEBERG LLP,1.0,13.0,1.0,0.0,1.0,ECTURE INC,Z,UN,UN,OT,3.0,,,,,,,A1140,A,,,
4731,3,N,N,N,N,Y,N,N,N,N,N,N,N,N,N,N,N,N,N,N,133127149,1990,1989,1,4,119,46227,0,0,0,0,0,0,0,0,46227,45590,637,45524,0,0,0,1960,0,5000,1960,0,0,MUSICAL THEATRE PROJECT,NEW YORK,NY,10122-0039,Z,Z99,0.0493653,36061.0,10122.0,10122.0,5602.0,5600.0,36061.0,4.0,,198310.0,199006,199006,NY,10122.0,NEW YORK,PF,O,UN,Z,IN,,6,0.0,0.0,225 W 34TH ST RM 1200,3.0,0.0,1000.0,,1.0,13.0,1.0,0.0,1.0,,Z,UN,UN,OT,3.0,,,,,,,A65,A,,,
4806,3,N,N,N,N,N,N,N,N,N,N,N,N,N,N,N,N,N,N,N,133156694,1987,1987,1,0,90,0,0,0,0,0,0,0,0,0,0,0,0,0,0,0,0,1724,0,0,1724,0,0,OPERA FND WESTCHESTER,NEW YORK,NY,10024-5150,Z,Z99,0.401145,36061.0,10024.0,10024.0,5602.0,5600.0,36061.0,,,,198712,198712,NY,10024.0,NEW YORK,U,O,UN,Z,IN,,12,,,,,,,,,,,,,,Z,UN,UN,OT,,,,,,,,A6A,A,,,
4812,2,N,N,N,N,Y,N,N,N,N,N,N,N,N,N,N,N,N,N,N,133157569,1987,1987,1,1,91,370,0,0,0,0,0,0,0,0,370,175,195,0,0,0,195,210,0,0,210,0,0,FRIENDS FINANCIAL HISTORY FND,NEW YORK,NY,10004-1604,Z,Z99,0.613554,36061.0,10004.0,10004.0,5602.0,5600.0,36061.0,,,,198712,198712,NY,10004.0,NEW YORK,U,O,UN,Z,IN,,12,,,,,,,,,,,,,,Z,UN,UN,OT,,,,,,,,A1180,A,,,
4833,3,N,N,N,Y,N,N,N,N,N,N,N,N,N,N,N,N,N,N,N,133163535,1987,1987,0,0,60,0,0,0,0,0,0,0,0,0,0,0,0,0,0,0,0,0,0,0,0,0,0,NEW YORK CITY CHILDRENS MUS,NEW YORK,NY,10022-2503,Z,Z99,0.177818,36061.0,10022.0,10022.0,5602.0,5600.0,36061.0,,,,198712,198712,NY,10022.0,NEW YORK,U,O,UN,Z,IN,,12,,,,,,,,,,,,,,Z,UN,UN,OT,,,,,,,,A50,A,,,
4853,2,N,N,N,N,Y,N,N,N,N,N,N,N,N,N,N,N,N,N,N,133171936,1990,1989,7,5,90,36667,70090,15543,0,0,0,10297,0,1221,132597,44888,87709,36589,85633,1713,88399,1491192,143556,0,1638698,0,72037,HERRICK THEATRE FND,NEW YORK,NY,10021-7055,Z,Z99,0.9879680000000001,36061.0,10021.0,10021.0,5602.0,5600.0,36061.0,3.0,,198310.0,199005,199005,NY,10021.0,NEW YORK,PF,O,UN,Z,IN,,5,994.0,0.0,SEVEN PENN PLZ STE 1600,3.0,198405.0,2000.0,% ROSENBERG NEUWIRTH & KUCHNER,1.0,13.0,1.0,0.0,1.0,LUCKY VENTURE CO,Z,UN,UN,OT,3.0,,,,,,,A65,A,,,
4870,3,N,N,N,N,N,N,N,N,N,N,N,N,N,N,N,N,N,N,N,133180628,1989,1989,1,1,90,2000,0,0,0,0,0,0,0,0,2000,2032,-32,2032,0,0,0,2055,0,0,2055,0,0,GEORGE BALANCHINE FND,NEW YORK,NY,10023-0000,Z,Z99,0.48009799999999997,36061.0,10023.0,10023.0,5602.0,5600.0,36061.0,15.0,,198404.0,198912,198912,NY,10023.0,NEW YORK,PC,O,UN,Z,IN,,12,0.0,0.0,NYS THEATRE LINCOLN CENTER,3.0,0.0,1000.0,% MS BARBARA HORGAN,1.0,13.0,1.0,0.0,1.0,,Z,UN,UN,OT,3.0,,,,,,,A99,A,,,
4877,3,N,N,N,N,N,N,N,N,N,N,N,N,N,N,N,N,N,N,N,133182985,1989,1989,1,1,998,0,7,0,0,0,0,0,0,0,7,30,-23,30,0,0,0,456,0,0,456,0,23,FRIENDS CHINESE DERMATOLOGY,NEW YORK,NY,10016-6402,Z,Z99,0.0736954,36061.0,10016.0,10016.0,5602.0,5600.0,36061.0,,,,198912,198912,NY,10016.0,NEW YORK,U,O,UN,Z,IN,,12,,,,,,,,,,,,,,Z,UN,UN,OT,,,,,,,,A1123,A,,,
4906,3,N,N,N,N,N,N,N,N,N,N,N,N,N,N,N,N,N,N,N,133190322,1988,1988,0,0,30,0,0,0,0,0,0,0,0,0,0,0,0,0,0,0,0,0,0,0,0,0,0,STARSHIP SOC NEW MUSIC,NEW YORK,NY,10019-4416,Z,Z99,0.46599399999999996,36061.0,10019.0,10019.0,5602.0,5600.0,36061.0,,,,198812,198812,NY,10019.0,NEW YORK,U,O,UN,Z,IN,,12,,,,,,,,,,,,,,Z,UN,UN,OT,,,,,,,,A68,A,,,
4933,3,N,N,N,N,N,N,N,N,N,N,N,N,N,N,N,N,N,N,N,133200329,1990,1989,8,7,602,7507991,2286,1129069,0,0,0,0,0,659196,8639346,849394,7789952,659196,8634243,172685,1126252,18177866,12088432,0,18347280,0,656897,LIZ CLAIBORNE & ART ORTENBERG FND,NEW YORK,NY,10006-3201,Z,Z99,0.166449,36061.0,10006.0,10006.0,5602.0,5600.0,36061.0,4.0,,198508.0,199001,199001,NY,10006.0,NEW YORK,PF,O,UN,Z,IN,,1,0.0,0.0,29 BROADWAY RM 2900,3.0,0.0,1000.0,% NATHAN BERKMAN & CO,1.0,13.0,1.0,0.0,2.0,,Z,UN,UN,OT,3.0,,,,,,,A12,A,,,
4936,3,N,N,N,N,N,N,N,N,N,N,N,N,N,N,N,N,N,N,N,133201819,1990,1989,5,4,119,36417,193,28259,0,0,0,20710,500,27140,85581,40170,45411,39417,27952,559,0,454479,0,289489,446847,0,6893,PERSIAN HERITAGE FND,NEW YORK,NY,10027-6821,Z,Z99,0.5881149999999999,36061.0,10027.0,10027.0,5602.0,5600.0,36061.0,4.0,,198406.0,199006,199006,NY,10027.0,NEW YORK,PF,O,UN,Z,IN,,6,602.0,0.0,450 RIVERSIDE DRIVE,3.0,0.0,1000.0,,1.0,13.0,1.0,0.0,1.0,,Z,UN,UN,OT,3.0,,,,,,,A23,A,,,
4967,3,N,N,N,N,N,N,N,N,N,N,N,N,N,N,N,N,N,N,N,133210017,1989,1988,1,0,160,0,0,0,0,0,0,0,0,0,0,0,0,0,0,0,0,1691,0,0,1691,0,0,PROGRAMMING PLANNING & PLACEMENT ALTERNATIVES,BRONX,NY,10469-4905,Z,Z99,0.0461655,36005.0,10469.0,10469.0,5602.0,5600.0,36005.0,4.0,,198501.0,198906,198906,NY,10469.0,BRONX,PF,O,UN,Z,IN,,6,0.0,0.0,999 PELHAM PKY,3.0,0.0,1000.0,,1.0,13.0,1.0,0.0,1.0,C,Z,UN,UN,OT,3.0,,,,,,,A61,A,,,
4978,3,N,N,N,N,N,N,N,N,N,N,N,Y,N,N,N,N,N,N,N,133213491,1989,1989,4,2,914,0,5288,0,0,0,0,0,0,0,5288,583,4705,55,5288,106,0,78097,0,0,78097,3612,3718,JOHN F WHARTON THEATRE AWARD,NEW YORK,NY,10019-6076,Z,Z99,0.6064390000000001,36061.0,10019.0,10019.0,5602.0,5600.0,36061.0,,,,198912,198912,NY,10019.0,NEW YORK,U,O,UN,Z,IN,,12,,,,,,,,,,,,,,Z,UN,UN,OT,,,,,,,,A65,A,,,
4992,3,N,N,N,N,N,N,N,N,N,N,N,N,N,N,N,N,N,N,N,133220595,1989,1989,0,0,92,0,0,0,0,0,0,0,0,0,0,0,0,0,0,0,0,0,0,0,0,0,0,LITERARY ARTS PRESS,NEW YORK,NY,10003-1741,Z,Z99,0.102836,36061.0,10003.0,10003.0,5602.0,5600.0,36061.0,,,,198912,198912,NY,10003.0,NEW YORK,U,O,UN,Z,IN,,12,,,,,,,,,,,,,,Z,UN,UN,OT,,,,,,,,A33,A,,,
4997,3,N,N,N,N,Y,N,N,N,N,N,N,N,N,N,N,N,N,N,N,133222005,1988,1988,2,3,91,20000,336,0,0,0,0,0,0,13951,20336,14661,5675,14661,336,3,336,5675,0,0,5675,0,258,OLD MASTERS EXHIBITION SOC NEW YORK,NEW YORK,NY,10028-8020,Z,Z99,0.0402041,36061.0,10028.0,10028.0,5602.0,5600.0,36061.0,4.0,,8412.0,198812,198812,NY,10028.0,NEW YORK,PF,O,UN,Z,IN,,12,93.0,0.0,85 E END AVE,3.0,,2000.0,% NATIONAL ACADEMY OF DESIGN,,,,,,,Z,UN,UN,OT,3.0,,,,,,,A54,A,,,
4998,3,N,N,N,N,N,N,N,N,N,N,N,N,N,N,N,N,N,N,N,133223771,1988,1988,2,2,90,9200,0,0,0,0,0,0,0,0,9200,10380,-1180,10380,0,0,0,5875,0,16180,0,0,0,ACTORS ENCLAVE,NEW YORK,NY,10011-1303,Z,Z99,0.0727872,36061.0,10011.0,10011.0,5602.0,5600.0,36061.0,,,,198812,198812,NY,10011.0,NEW YORK,U,O,UN,Z,IN,,12,,,,,,,,,,,,,,Z,UN,UN,OT,,,,,,,,A65,A,,,
5005,3,N,Y,N,N,N,N,N,N,Y,N,N,N,N,N,N,N,N,N,N,133227895,1989,1989,2,1,90,0,881,0,0,0,0,595,900,0,1476,3487,-2011,2300,881,9,289,7601,0,219,7601,0,51,NEW YORK CONSORTIUM NEW MUSIC,NEW YORK,NY,10025-6787,Z,Z99,0.375916,36061.0,10025.0,10025.0,5602.0,5600.0,36061.0,15.0,,198404.0,198912,198912,NY,10025.0,NEW YORK,PC,O,UN,Z,IN,,12,0.0,0.0,95 W 95TH 34G,3.0,0.0,2100.0,,1.0,13.0,20.0,0.0,1.0,,Z,UN,UN,OT,3.0,,,,,,,A68,A,,,
5012,3,N,N,N,N,N,N,N,N,N,N,N,N,N,N,N,N,N,Y,N,133229407,1989,1989,5,5,123,390780,13051,0,0,0,0,29605,0,102797,433436,362820,70616,353828,6923,138,0,248776,0,28998,248776,0,9738,AMER FND RESISTANCE INTL,NEW YORK,NY,10022-6018,A,A33,0.19700499999999999,36061.0,10022.0,10022.0,5602.0,5600.0,36061.0,15.0,,8504.0,198912,198912,NY,10022.0,NEW YORK,PC,O,AR,A,IN,,12,0.0,0.0,101 E 52ND ST 12TH FLR,3.0,0.0,1000.0,,1.0,13.0,20.0,0.0,1.0,,A,AR,AR,AR,3.0,,,,,,,A33,A,,,
5024,3,N,N,N,N,N,N,N,N,N,N,N,N,N,N,N,N,N,N,N,133236892,1989,1988,0,3,93,18000,0,0,0,0,0,0,0,0,18000,0,18000,0,0,0,0,0,0,0,0,0,0,HARA MUS FND,NEW YORK,NY,10004-2616,Z,Z99,0.925694,36061.0,10004.0,10004.0,5602.0,5600.0,36061.0,4.0,,198509.0,198906,198906,NY,10004.0,NEW YORK,PF,O,UN,Z,IN,,6,0.0,0.0,122 E 42ND ST 800,3.0,0.0,1000.0,% KO-YUNG TUNG OMELVENY & MYERS,1.0,13.0,1.0,0.0,1.0,,Z,UN,UN,OT,3.0,,,,,,,A50,A,,,
5034,3,N,Y,N,N,N,N,N,N,N,N,N,N,N,N,N,N,N,N,N,133243285,1990,1989,6,3,0,635,13562,9269,0,0,0,0,0,845,23466,47213,-23747,35269,22831,228,22831,626902,463238,54,0,0,12393,BLACK RIVER ENVIRONMENTAL IMPROV ASSOC,NEW YORL,NY,10153-0001,T,T99,0.826202,36061.0,10153.0,10153.0,5602.0,5600.0,36061.0,17.0,,198503.0,199004,199004,NY,10153.0,NEW YORL,PC,S,ZF,T,IN,,4,0.0,0.0,RR 3 BOX 50A 50,3.0,0.0,1000.0,% ACCOUNTING SERVICES OF BOONVILLE,1.0,16.0,1.0,0.0,1.0,INC,T,PU,PU,OT,3.0,,,,,,,A23,A,,,
5086,3,N,N,N,N,N,N,N,N,N,N,N,N,N,N,N,N,N,N,N,133253712,1990,1989,1,1,995,0,156,0,0,0,0,0,0,0,156,0,156,0,156,0,0,2420,0,0,2420,0,0,RADIO DRAMA NETWORK,NEW YORK,NY,10024-3006,Z,Z99,0.944559,36061.0,10024.0,10024.0,5602.0,5600.0,36061.0,4.0,,198503.0,199006,199006,NY,10024.0,NEW YORK,PF,O,UN,Z,IN,,6,90.0,0.0,285 CENTRAL PARK WEST,3.0,198906.0,1000.0,% HIMAN BROWN,1.0,13.0,1.0,0.0,1.0,,Z,UN,UN,OT,3.0,,,,,,,A34,A,,,
5094,3,N,N,N,N,N,N,N,N,N,N,N,N,N,N,N,N,Y,N,N,133255361,1989,1988,1,4,90,77495,0,0,0,0,0,17009,30088,0,94504,88429,6075,0,0,0,0,4372,2681,0,3556,0,0,LIVING THEATRE,NEW YORK,NY,10025-5467,Z,Z99,0.0782154,36061.0,10025.0,10025.0,5602.0,5600.0,36061.0,2.0,,198504.0,198906,198906,NY,10025.0,NEW YORK,PF,O,UN,Z,IN,,6,0.0,0.0,800 W END AVE STE 5A,3.0,0.0,1000.0,,1.0,13.0,1.0,0.0,1.0,,Z,UN,UN,OT,3.0,,,,,,,A65,A,,,
5137,3,N,N,N,N,N,N,N,N,N,N,N,N,N,N,N,N,N,N,N,133271577,1989,1989,7,6,561,540794,0,138530,134381,0,0,0,6300,412350,813705,523733,289972,488532,239285,4786,0,2128693,2042059,404,2128693,0,98953,ART MATTERS,NEW YORK,NY,10113-1815,Z,Z99,0.10462,36061.0,10113.0,10113.0,5602.0,5600.0,36061.0,4.0,,198510.0,198912,198912,NY,10113.0,NEW YORK,PF,O,UN,Z,IN,,12,0.0,0.0,131 W 24TH ST,3.0,0.0,2000.0,,1.0,13.0,1.0,0.0,1.0,,Z,UN,UN,OT,3.0,,,,,,,A99,A,,,
5142,3,N,N,N,N,N,N,N,N,N,N,N,N,N,N,N,N,N,N,N,133276439,1988,1988,0,0,994,0,0,0,0,0,0,0,0,0,0,0,0,0,0,0,0,0,0,0,0,0,0,ALTOS DE CHAVON INTER ARTS FND,NEW YORK,NY,10011-8802,Z,Z99,0.873291,36061.0,10011.0,10011.0,5602.0,5600.0,36061.0,,,,198812,198812,NY,10011.0,NEW YORK,U,O,UN,Z,IN,,12,,,,,,,,,,,,,,Z,UN,UN,OT,,,,,,,,A1261,A,,,
5174,3,N,N,N,N,N,N,N,N,Y,N,N,N,N,N,N,N,N,N,N,133305823,1990,1989,7,5,602,0,292,83023,26910,0,0,0,15111,70463,110225,57919,52306,70463,125336,2507,0,1290705,1282228,0,1364458,0,67349,DOROTHY B MELVILLE TR MUSEUMS AT STONY BROOK,NEW YORK,NY,10008-0829,Z,Z99,0.26850599999999997,36061.0,10008.0,10008.0,5602.0,5600.0,36061.0,4.0,,198703.0,199004,199004,NY,10008.0,NEW YORK,PF,O,UN,Z,IN,,4,0.0,0.0,PO BOX 829 CHURCH ST STA,3.0,0.0,1000.0,% BANKERS TR CO,1.0,13.0,1.0,0.0,2.0,OK,Z,UN,UN,OT,3.0,,,,,,,A50,A,,,
5179,3,N,Y,N,N,N,N,N,N,N,N,N,N,N,N,N,N,N,N,N,133307841,1989,1989,4,1,602,0,3149,0,0,0,0,0,0,2400,3149,6170,-3021,6122,3141,31,0,45568,0,0,45568,0,2443,MONA BISMARCK ART 5TH PARAGRAPH B CHARITABLE TR UW,NEW YORK,NY,10112-0000,Z,Z99,0.41370200000000007,36061.0,10112.0,10112.0,5602.0,5600.0,36061.0,,,,198912,198912,NY,10112.0,NEW YORK,U,O,UN,Z,IN,,12,,,,,,,,,,,,,,Z,UN,UN,OT,,,,,,,,A12,A,,,
5188,3,N,N,N,N,N,N,N,N,N,N,N,N,N,N,N,N,N,N,N,133314180,1989,1988,3,4,998,0,0,0,0,0,0,34976,0,0,34976,29489,5487,0,12,0,5499,13733,0,0,13733,0,0,ASSOC BLACK WOMEN IN HIGHER EDUC,NEW YORK,NY,10025-7822,Z,Z99,0.418196,36061.0,10025.0,10025.0,5602.0,5600.0,36061.0,4.0,,8708.0,198906,198906,NY,10025.0,NEW YORK,PF,O,UN,Z,IN,,6,0.0,0.0,2910 BROADWAY CMR BOX 6,3.0,0.0,1000.0,% DR PATRICIA M CAREY,1.0,13.0,1.0,0.0,1.0,INC,Z,UN,UN,OT,3.0,,,,,,,A23,A,,,
5216,3,N,Y,N,N,N,N,Y,N,Y,N,N,N,Y,N,N,N,N,N,N,133317928,1990,1989,8,7,91,8102113,0,0,0,0,0,0,27000,203912,8102113,2233498,5868615,2233498,0,0,0,43138410,464308,9803444,43138410,0,3795,IAN WOODNER FAMILY COLLECTION,NEW YORK,NY,10151-0099,Z,Z99,0.37954699999999997,36061.0,10151.0,10151.0,5602.0,5600.0,36061.0,3.0,,198605.0,199006,199006,NY,10151.0,NEW YORK,PF,O,UN,Z,IN,,6,119.0,0.0,745 FIFTH AVE,3.0,0.0,2000.0,,1.0,13.0,1.0,0.0,1.0,,Z,UN,UN,OT,3.0,,,,,,,A99,A,,,
5258,3,N,N,N,N,N,N,N,N,N,N,N,N,N,N,N,N,N,N,N,133321549,1988,1988,0,0,0,0,0,0,0,0,0,0,0,0,0,0,0,0,0,0,0,0,0,0,0,0,0,AMER FRIENDS NAT GALLERY LONDON,NEW YORK,NY,10021-4335,A,A50,0.301117,36061.0,10021.0,10021.0,5602.0,5600.0,36061.0,17.0,,198602.0,198812,198812,NY,10021.0,NEW YORK,PC,O,AR,A,IN,,12,0.0,0.0,165 E 72ND ST 1B,3.0,0.0,1000.0,% SLOANE & HINSHAW,1.0,13.0,10.0,0.0,1.0,C,A,AR,AR,AR,3.0,,,,,,,A1150,A,,,
5274,3,N,N,N,N,N,N,N,N,N,N,N,N,N,N,N,N,N,N,N,133327907,1989,1989,0,0,88,0,0,0,0,0,0,0,0,0,0,0,0,0,0,0,0,0,0,0,0,0,0,J MICHAEL BLOOM THEATRE FUNDATION,NEW YORK,NY,10003-1683,Z,Z99,0.8706719999999999,36061.0,10003.0,10003.0,5602.0,5600.0,36061.0,4.0,,198605.0,198912,198912,NY,10003.0,NEW YORK,PF,O,UN,Z,IN,,12,602.0,0.0,233 PARK AVE S FLOOR 10,3.0,0.0,1000.0,% J MICHAEL BLOOM LTD,1.0,13.0,1.0,0.0,1.0,,Z,UN,UN,OT,3.0,,,,,,,A65,A,,,
5276,3,N,N,N,N,N,N,N,N,N,N,N,N,N,N,N,N,N,N,N,133328723,1989,1988,7,5,602,0,24053,179938,0,0,0,8817,10000,100000,212808,136405,76403,108792,195565,3911,0,2460380,1937443,13128,2473543,0,122686,MEX AM CULTURAL FND,NEW YORK,NY,10022-1010,Z,Z99,0.991,36061.0,10022.0,10022.0,5602.0,5600.0,36061.0,4.0,,198610.0,198909,198909,NY,10022.0,NEW YORK,PF,O,UN,Z,IN,,9,600.0,603.0,645 MADISON AVE,3.0,0.0,1000.0,GRANT HERRMANN SCHWARTZ & KLINGER,1.0,13.0,1.0,0.0,1.0,SCHWARTZ & KLINGER,Z,UN,UN,OT,3.0,,,,,,,A1220,A,,,
5320,3,N,N,N,N,N,N,N,N,N,N,N,N,N,N,N,N,N,N,N,133347068,1989,1989,0,0,180,0,0,0,0,0,0,0,0,0,0,0,0,0,0,0,0,0,0,0,0,0,0,AFRICAN AMER DEV,NEW YORK,NY,10169-0510,Z,Z99,0.07339010000000001,36061.0,10169.0,10169.0,5602.0,5600.0,36061.0,,,,198912,198912,NY,10169.0,NEW YORK,U,O,UN,Z,IN,,12,,,,,,,,,,,,,,Z,UN,UN,OT,,,,,,,,A23,A,,,
5322,2,N,N,N,N,Y,N,N,N,N,N,N,N,N,N,N,N,N,N,N,133347776,1989,1989,5,5,120,148100,13584,0,0,0,0,0,0,0,161684,14668,147016,14668,13584,272,13584,148040,0,1250,148040,0,4243,BURLINGTON MAGAZINE FND,NEW YORK,NY,10004-2400,Z,Z99,0.9339049999999999,36061.0,10004.0,10004.0,5602.0,5600.0,36061.0,3.0,,198609.0,198912,198912,NY,10004.0,NEW YORK,PF,O,UN,Z,IN,,12,0.0,0.0,250 PARK AVE,3.0,0.0,1000.0,SULLIVAN AND CROMWELL,1.0,13.0,1.0,0.0,1.0,N & CROMWELL,Z,UN,UN,OT,3.0,,,,,,,A33,A,,,
5346,3,N,Y,N,N,N,N,N,N,Y,N,N,N,N,N,N,N,N,N,N,133354167,1989,1989,5,5,0,10061,35,0,4753,0,0,250000,3000,0,264849,15499,249350,15349,4638,46,0,257394,0,0,257394,0,7169,GREENWICH COLLECTION,NEW YORK,NY,10012-5902,Z,Z99,0.543602,36061.0,10012.0,10012.0,5602.0,5600.0,36061.0,4.0,,198703.0,198912,198912,NY,10012.0,NEW YORK,PF,O,UN,Z,IN,,12,0.0,0.0,435 W BROADWAY,3.0,0.0,1000.0,% CHADBOURNE & PARKE,1.0,13.0,1.0,0.0,1.0,,Z,UN,UN,OT,3.0,,,,,,,A99,A,,,
5621,3,N,Y,N,N,N,N,N,N,N,N,N,N,N,N,N,N,N,N,N,133398045,1989,1989,6,6,602,604000,17690,61321,0,0,0,0,0,527528,683011,539032,143979,527798,682791,6828,278791,976411,959411,200000,976411,124005,35106,ABBY & MITCH LEIGH FND,NEW YORK,NY,10021-4951,Z,Z99,0.533159,36061.0,10021.0,10021.0,5602.0,5600.0,36061.0,4.0,,198705.0,198912,198912,NY,10021.0,NEW YORK,PF,O,UN,Z,IN,,12,0.0,0.0,880 FIFTH AVENUE,3.0,0.0,1000.0,% MITCH & MRS LEIGH,1.0,13.0,1.0,0.0,1.0,LEIGH ABBY AND MITCH TRUSTEES,Z,UN,UN,OT,3.0,,,,,,,A68,A,,,
5628,2,N,N,N,N,Y,N,N,N,N,N,N,N,N,N,N,N,N,N,N,133399317,1988,1987,1,3,123,23000,0,0,0,0,0,0,0,0,23000,9643,13357,0,0,0,0,1479,0,187466,1479,0,0,ALERDINCK CTR EAST WEST COMMUNICATIONS,NEW YORK,NY,10018-3308,Z,Z99,0.237004,36061.0,10018.0,10018.0,5602.0,5600.0,36061.0,4.0,,8808.0,198811,198811,NY,10018.0,NEW YORK,PF,O,UN,Z,IN,,11,0.0,0.0,1430 BROADWAY,3.0,0.0,1000.0,% WEBER UPSHIE & CO,1.0,13.0,1.0,0.0,1.0,,Z,UN,UN,OT,3.0,,,,,,,A30,A,,,
5637,3,N,N,N,Y,N,N,N,N,N,N,N,N,N,N,N,N,N,N,N,133401359,1987,1987,0,1,89,2500,43,0,0,0,0,0,0,1863,2543,6334,-3791,0,43,0,0,0,0,0,0,93,93,FND MUSICAL PERFORMANCE,NEW YORK,NY,10019-2210,Z,Z99,0.49921099999999996,36061.0,10019.0,10019.0,5602.0,5600.0,36061.0,,,,198712,198712,NY,10019.0,NEW YORK,U,O,UN,Z,IN,,12,,,,,,,,,,,,,,Z,UN,UN,OT,,,,,,,,A68,A,,,
5671,3,N,Y,N,N,N,N,N,N,N,N,N,N,N,N,N,N,N,N,N,133410749,1989,1988,8,8,119,26087242,425367,1421712,0,0,0,0,191600,3311850,27934321,3766344,24167977,3730900,1813624,18136,0,25282389,21545997,1659,25222355,0,1181398,ANDY WARHOL FND VISUAL ARTS,NEW YORK,NY,10012-0000,Z,Z99,0.7468899999999999,36061.0,10012.0,10012.0,5602.0,5600.0,36061.0,4.0,,198801.0,198904,198904,NY,10012.0,NEW YORK,PF,O,UN,Z,IN,,4,91.0,0.0,65 BLEEKER ST 7TH FLR,3.0,0.0,1000.0,% GOTTFRIED,1.0,13.0,1.0,0.0,1.0,,Z,UN,UN,OT,3.0,,,,,,,A40,A,,,
5833,2,N,Y,N,N,Y,N,N,N,N,N,N,N,N,N,N,N,N,N,N,133458208,1989,1988,8,6,0,40870,826597,0,0,0,0,0,0,475000,867467,547873,319594,475000,794631,7946,762767,11572917,0,575787,11580417,0,553506,DAHESH MUS,NEW YORK,NY,10017-1024,Z,Z99,0.67992,36061.0,10017.0,10017.0,5602.0,5600.0,36061.0,3.0,,198807.0,198905,198905,NY,10017.0,NEW YORK,PF,O,UN,Z,IN,,5,0.0,0.0,601 5TH AVENUE 2ND FLOOR,3.0,0.0,5000.0,,1.0,13.0,1.0,0.0,1.0,,Z,UN,UN,OT,3.0,,,,,,,A50,A,,,
5848,3,N,N,N,N,N,N,N,N,N,N,N,N,N,N,N,N,N,N,N,133465520,1989,1989,0,0,602,0,0,0,0,0,0,0,0,0,0,0,0,0,0,0,0,0,0,0,0,0,0,SOUTHERN AFRICAN ADVANCED EDUC & TRAINI,NEW YORK,NY,10112-0002,Z,Z99,0.805128,36061.0,10112.0,10112.0,5602.0,5600.0,36061.0,4.0,,8810.0,198912,198912,NY,10112.0,NEW YORK,PF,O,UN,Z,IN,,12,0.0,0.0,30 ROCKEFELLER PLAZA ROOM 3500,3.0,,2000.0,,,,,,,NG PROJECT,Z,UN,UN,OT,3.0,,,,,,,A23,A,,,
5895,3,N,Y,N,N,N,N,N,N,N,N,N,N,N,N,N,N,N,N,N,133483365,1989,1989,1,0,602,0,0,0,0,0,0,0,0,2735,0,2735,-2735,2735,0,0,0,800,0,0,800,0,56164,ANTONIA MASTROCRISTINO SIRENA CULTURAL FND,NEW YORK,NY,10028-0135,Z,Z99,0.337863,36061.0,10028.0,10028.0,5602.0,5600.0,36061.0,,,,198912,198912,NY,10028.0,NEW YORK,U,O,UN,Z,IN,,12,,,,,,,,,,,,,,Z,UN,UN,OT,,,,,,,,A1220,A,,,
5902,3,N,N,N,N,N,N,N,N,N,N,N,N,N,N,N,N,N,N,N,133487704,1988,1988,1,2,602,7940,0,0,0,0,0,0,0,0,7940,7947,-7,7947,0,0,0,1295,0,1302,1295,0,1,MUSIC PROJECT,NEW YORK,NY,10021-1202,Z,Z99,0.9350950000000001,36061.0,10021.0,10021.0,5602.0,5600.0,36061.0,4.0,,8907.0,198812,198812,NY,10021.0,NEW YORK,PF,O,UN,Z,IN,,12,0.0,0.0,226 E 79TH ST,3.0,0.0,1000.0,% ILANA VERED,1.0,13.0,1.0,0.0,1.0,,Z,UN,UN,OT,3.0,,,,,,,A68,A,,,
5987,3,N,N,N,N,N,N,N,N,N,N,N,Y,N,N,N,N,N,N,N,133525999,1988,1988,5,1,0,0,2526,0,0,0,0,0,0,0,2526,222,2304,0,2526,51,2501,292465,0,0,292465,2668,2719,RALPH C MARCOVE INTL UNDRSTDG THROUGH ARTS & CRAFTS FNDTN,NEW YORK,NY,10021-4871,Z,Z99,0.0181575,36061.0,10021.0,10021.0,5602.0,5600.0,36061.0,4.0,,198304.0,198812,198812,NY,10021.0,NEW YORK,PF,O,UN,Z,IN,,12,0.0,0.0,517 E 71ST ST,3.0,0.0,1000.0,MARCOVE,1.0,13.0,1.0,0.0,1.0,CRAFTS FNDTN INC,Z,UN,UN,OT,3.0,,,,,,,A40,A,,,
6024,2,N,N,N,N,Y,N,N,N,N,N,N,N,N,N,N,N,N,N,N,133536258,1990,1989,1,4,120,33738,0,0,0,0,0,2732,0,0,36470,35717,753,35717,0,0,0,753,0,0,753,0,19,DANCE INK,NEW YORK,NY,10023-1487,Z,Z99,0.102256,36061.0,10023.0,10023.0,5602.0,5600.0,36061.0,4.0,,199005.0,199007,199007,NY,10023.0,NEW YORK,PF,O,UN,Z,IN,,7,0.0,0.0,PO BOX 20719 COLUMBUS CIR STA,3.0,0.0,1000.0,% PATRICIA TARR,1.0,13.0,1.0,0.0,1.0,,Z,UN,UN,OT,3.0,,,,,,,A1261,A,,,
6035,3,N,N,N,N,N,N,N,N,N,N,N,N,N,N,N,N,N,N,N,133540880,1990,1989,4,4,602,52494,0,0,0,0,0,0,0,0,52494,79040,-26546,79040,0,0,0,28055,0,50254,28055,0,0,MUS AMER FINANCIAL HISTORY,NEW YORK,NY,10004-1703,Z,Z99,0.06935419999999999,36061.0,10004.0,10004.0,5602.0,5600.0,36061.0,3.0,,199201.0,199008,199008,NY,10004.0,NEW YORK,PF,O,UN,Z,IN,,8,0.0,0.0,26 BROADWAY,3.0,0.0,1000.0,,1.0,13.0,1.0,0.0,1.0,,Z,UN,UN,OT,3.0,,,,,,,A50,A,,,
6116,2,N,N,N,N,Y,N,N,N,N,N,N,N,N,N,N,N,N,N,N,135635801,1989,1989,8,7,59,868797,6271,169877,177545,0,0,799421,53417,0,2021911,1492480,529431,1405185,271930,5439,948900,13366335,4064453,80333,14266237,0,675455,ADIRONDACK HIST ASSOC,NEW YORK,NY,10022-5802,Z,Z99,0.5813229999999999,36061.0,10022.0,10022.0,5602.0,5600.0,36061.0,15.0,,199210.0,198912,198912,NY,10022.0,NEW YORK,PC,O,UN,Z,IN,,12,0.0,0.0,477 MADISON AVE,3.0,199612.0,1000.0,% YOHALEM GILLMAN & CO,1.0,13.0,1.0,0.0,1.0,,Z,UN,UN,OT,3.0,,,,,,,A54,A,,,
6131,3,N,N,N,N,N,N,N,N,N,N,N,N,N,N,N,N,N,N,N,136000245,1990,1989,1,4,119,70250,0,0,0,0,369,0,0,0,70619,80745,-10126,80682,0,0,0,1178,0,15000,1178,259,259,BALLET SOC,NEW YORK,NY,10023-3101,Z,Z99,0.367635,36061.0,10023.0,10023.0,5602.0,5600.0,36061.0,4.0,,194710.0,199006,199006,NY,10023.0,NEW YORK,PF,O,UN,Z,IN,,6,59.0,927.0,5 W 73RD ST,3.0,0.0,2000.0,,1.0,13.0,1.0,0.0,1.0,,Z,UN,UN,OT,3.0,,,,,,,A63,A,,,
6150,3,N,N,N,N,Y,N,N,N,Y,N,N,N,N,N,N,N,N,N,N,136019220,1989,1988,5,5,119,176054,3071,6602,0,0,0,4245,23000,21753,189972,149066,40906,142696,7589,152,11834,160740,70579,17229,161558,0,6535,POETRY SOC AMERICA,NEW YORK,NY,10003-1705,Z,Z99,0.851374,36061.0,10003.0,10003.0,5602.0,5600.0,36061.0,4.0,,193705.0,198909,198909,NY,10003.0,NEW YORK,PF,O,UN,Z,IN,,9,0.0,0.0,15 GRAMERCY PARK,3.0,0.0,3000.0,,1.0,13.0,1.0,0.0,5.0,,Z,UN,UN,OT,3.0,,,,,,,A0370,A,,,
6194,3,N,N,N,N,N,N,N,N,Y,N,N,N,N,N,N,N,N,N,N,136031962,1989,1989,5,4,602,0,0,38857,57532,0,0,0,2293,35813,96389,38766,57623,36084,93902,1878,58895,410951,401820,0,880638,25308,41593,AL CROWLEY TRUST FBO NEIGHBORHOOD PLAYHOUSE,NEW YORK,NY,10017-2014,Z,Z99,0.8737889999999999,36061.0,10017.0,10017.0,5602.0,5600.0,36061.0,4.0,,197302.0,198912,198912,NY,10017.0,NEW YORK,PF,O,UN,Z,IN,,12,0.0,0.0,270 PARK AVE 27TH FL,3.0,0.0,1000.0,% CHEMICAL BANK ADMIN SERV DEPT,1.0,13.0,1.0,0.0,2.0,T-15246,Z,UN,UN,OT,3.0,,,,,,,A61,A,,,
6285,3,N,N,N,N,N,N,N,N,N,N,N,N,N,N,N,N,N,N,N,136059836,1988,1988,6,5,161,88247,32662,13268,0,-15104,0,0,0,104750,119073,118147,926,104750,37754,755,40709,885723,854943,0,850718,0,41220,HIST RES FND,NEW YORK,NY,10036-2501,Z,Z99,0.778093,36061.0,10036.0,10036.0,5602.0,5600.0,36061.0,4.0,,196204.0,198812,198812,NY,10036.0,NEW YORK,PF,O,UN,Z,IN,,12,180.0,59.0,1185 AVE OF THE AMERICAS,3.0,0.0,2000.0,% ARTHUR ANDERSON,1.0,13.0,1.0,0.0,1.0,,Z,UN,UN,OT,3.0,,,,,,,A1282,A,,,
6349,3,N,N,N,N,N,N,N,N,N,N,N,N,N,N,N,N,N,N,N,136066265,1989,1989,3,1,161,0,1429,0,0,0,0,126,0,1500,1555,1690,-135,1650,1555,31,0,17812,0,0,17812,0,922,COLT ARCHAEOLOGICAL INST,NEW YORK,NY,10178-0037,Z,Z99,0.5790109999999999,36061.0,10178.0,10178.0,5602.0,5600.0,36061.0,,,,198912,198912,NY,10178.0,NEW YORK,U,O,UN,Z,IN,,12,,,,,,,,,,,,,,Z,UN,UN,OT,,,,,,,,A70,A,,,
6353,3,N,N,N,N,N,N,N,N,N,N,N,N,N,N,N,N,N,N,N,136066414,1989,1989,1,0,602,0,0,0,0,0,0,0,0,0,0,0,0,0,0,0,0,200,0,0,200,0,10,JOSEPH M MAY MEM ASSOC,NEW YORK,NY,10170-0000,Z,Z99,0.938716,36061.0,10170.0,10170.0,5602.0,5600.0,36061.0,4.0,,195508.0,198912,198912,NY,10170.0,NEW YORK,PF,O,UN,Z,IN,,12,0.0,0.0,420 LEXINGTON AVE RM 2817-20,3.0,0.0,1000.0,% JACOBS EVALL & BLUMENFELD,1.0,13.0,1.0,0.0,1.0,,Z,UN,UN,OT,3.0,,,,,,,A80,A,,,
6574,3,N,N,N,N,N,N,N,N,N,N,N,N,N,N,N,N,N,N,N,136085361,1989,1988,5,2,602,0,0,4295,0,0,0,0,0,510000,4295,510000,-505705,510000,218421,4368,4295,240176,2634,2,474538,0,13996,WARNER COMMUNICATIONS FND,NEW YORK,NY,10020-1401,Z,Z99,0.686898,36061.0,10020.0,10020.0,5602.0,5600.0,36061.0,4.0,,6012.0,198905,198905,NY,10020.0,NEW YORK,PF,O,UN,Z,IN,,5,0.0,0.0,1271 AVE OF THE AMERICAS 41ST FL,3.0,0.0,1000.0,,1.0,13.0,1.0,0.0,1.0,,Z,UN,UN,OT,3.0,,,,,,,A30,A,,,
6623,3,N,N,N,N,N,N,N,N,Y,N,N,N,Y,N,N,N,N,N,N,136086859,1989,1989,9,8,62,128311,0,7420893,529876,0,0,247264,114848,5863714,8326344,7396651,929693,6415520,7551313,151026,0,527739800,527457123,159120,527739800,20357926,25984444,LILA WALLACE READERS DIGEST FND,NEW YORK,NY,10016-5603,Z,Z99,0.9799129999999999,36061.0,10016.0,10016.0,5602.0,5600.0,36061.0,4.0,,196004.0,198912,198912,NY,10016.0,NEW YORK,PF,O,UN,Z,IN,,12,0.0,0.0,2 PARK AVE 23RD FLR,3.0,0.0,1000.0,% CFO,1.0,13.0,1.0,0.0,1.0,,Z,UN,UN,OT,3.0,,,,,,,A33,A,,,
6678,3,N,Y,N,N,N,N,N,N,N,N,N,N,N,N,N,N,N,N,N,136089816,1989,1988,5,7,602,1903360,0,0,0,0,0,3140,0,1916568,1906500,1916568,-10068,1916568,23424,234,0,153710,0,0,202387,0,9880,VIACOM FND,NEW YORK,NY,10036-5701,Z,Z99,0.83034,36061.0,10036.0,10036.0,5602.0,5600.0,36061.0,4.0,,195508.0,198910,198910,NY,10036.0,NEW YORK,PF,O,UN,Z,IN,,10,0.0,0.0,1515 BROADWAY,3.0,0.0,1000.0,VIACOM INTERNATIONAL INC,1.0,13.0,1.0,0.0,1.0,,Z,UN,UN,OT,3.0,,,,,,,A68,A,,,
6695,3,N,N,N,N,N,N,N,N,Y,N,N,N,N,N,N,N,N,N,N,136090423,1989,1989,5,3,59,0,1996,8862,4530,0,0,0,0,0,21913,17963,3950,3206,7302,146,2772,114792,94850,146,128493,850,5856,AMER SCENIC & HISTORIC PRESERVATION SOC,NEW YORK,NY,10112-0001,Z,Z99,0.806285,36061.0,10112.0,10112.0,5602.0,5600.0,36061.0,,,,198912,198912,NY,10112.0,NEW YORK,U,O,UN,Z,IN,,12,,,,,,,,,,,,,,Z,UN,UN,OT,,,,,,,,A82,A,,,
6790,3,N,N,N,N,N,N,N,N,N,N,N,N,N,N,N,N,Y,N,N,136096069,1989,1989,6,5,908,19035,135,63040,61953,0,0,24247,0,32150,168410,97554,70856,64247,125128,2503,56717,831743,708617,2165,1107988,50687,53190,DAUGHTERS CINCINNATI,NEW YORK,NY,10022-1909,Z,Z99,0.937051,36061.0,10022.0,10022.0,5602.0,5600.0,36061.0,4.0,,194308.0,198912,198912,NY,10022.0,NEW YORK,PF,O,UN,Z,IN,,12,40.0,0.0,122 E 58TH ST,3.0,0.0,1200.0,,1.0,13.0,1.0,0.0,1.0,,Z,UN,UN,OT,3.0,,,,,,,A80,A,,,
7144,3,N,N,N,N,N,N,N,N,N,N,N,N,N,N,N,N,N,N,N,136115059,1989,1989,5,4,59,100,6520,27969,0,0,0,0,0,20325,34589,22743,11846,20353,32723,524,32723,334751,223095,0,591644,0,26549,LITERARY SOC FND,NEW YORK,NY,10028-0002,Z,Z99,0.543783,36061.0,10028.0,10028.0,5602.0,5600.0,36061.0,4.0,,194705.0,198912,198912,NY,10028.0,NEW YORK,PF,O,UN,Z,IN,,12,0.0,0.0,PO BOX 155 GRACIE STA,3.0,0.0,2000.0,HANS SCHUMACHER,1.0,13.0,1.0,0.0,1.0,,Z,UN,UN,OT,3.0,,,,,,,A70,A,,,
7220,3,N,N,N,N,Y,N,N,N,N,N,N,Y,N,N,N,N,N,N,N,136118881,1989,1989,3,1,561,1040,1083,0,0,0,0,0,0,2240,2123,2287,-164,2240,1036,21,0,14787,0,0,14787,0,761,BELGIAN SOC BENEVOLENCE,NEW YORK,NY,10024-1719,Z,Z99,0.29943000000000003,36061.0,10024.0,10024.0,5602.0,5600.0,36061.0,4.0,,194208.0,198912,198912,NY,10024.0,NEW YORK,PF,O,UN,Z,IN,,12,0.0,0.0,767 FIFTH AVE 28TH FLR,3.0,0.0,1000.0,% SOCFIN US INC,1.0,13.0,1.0,0.0,1.0,,Z,UN,UN,OT,3.0,,,,,,,A23,A,,,
7261,3,N,N,N,N,N,N,N,N,N,N,N,N,N,N,N,N,N,N,N,136121046,1989,1989,4,1,119,2000,842,0,0,0,0,0,0,0,2842,275,2567,0,567,11,567,46237,0,3000,46237,0,694,NAT ARTS FND,NEW YORK,NY,10166-0005,Z,Z99,0.9587319999999999,36061.0,10166.0,10166.0,5602.0,5600.0,36061.0,4.0,,195204.0,198912,198912,NY,10166.0,NEW YORK,PF,O,UN,Z,IN,,12,59.0,561.0,200 PARK AVE KIESEL,1.0,0.0,2100.0,% WHITMAN & RANSOM,1.0,13.0,1.0,0.0,1.0,,Z,UN,UN,OT,3.0,,,,,,,A26,A,,,
7356,3,N,N,N,Y,N,N,N,N,N,N,N,N,N,N,N,N,N,N,N,136127130,1989,1989,0,4,602,0,873,26165,0,0,0,0,0,29405,27038,42667,-15629,0,26938,539,27038,0,0,0,0,0,22816,MORRIS FINKELSTEIN & SONS FOUNDA TION,NEW YORK,NY,10036-8102,Z,Z99,0.403783,36061.0,10036.0,10036.0,5602.0,5600.0,36061.0,,,,198912,198912,NY,10036.0,NEW YORK,U,O,UN,Z,IN,,12,,,,,,,,,,,,,,Z,UN,UN,OT,,,,,,,,A80,A,,,
7363,3,N,N,N,N,N,N,N,N,N,N,N,N,N,N,N,N,N,N,N,136127858,1990,1989,1,1,119,40,0,0,0,0,0,0,0,0,40,40,0,0,0,0,0,28,0,0,28,0,0,BELGIAN ART FND IN UNITED STATES,NEW YORK,NY,10019-3323,Z,Z99,0.44617399999999996,36061.0,10019.0,10019.0,5602.0,5600.0,36061.0,4.0,,196202.0,199005,199005,NY,10019.0,NEW YORK,PF,O,UN,Z,IN,,5,0.0,0.0,146 W 57TH ST APT 43 A,3.0,0.0,2000.0,,1.0,13.0,1.0,0.0,1.0,,Z,UN,UN,OT,3.0,,,,,,,A23,A,,,
7420,3,N,N,N,N,N,N,N,N,N,N,N,N,N,N,N,N,N,N,N,136133259,1989,1989,1,1,602,1000,85,0,0,0,0,0,0,1000,1085,1011,74,1000,73,1,73,1564,0,0,1564,0,68,IRISH EMIGRANT SOC NEW YORK,NEW YORK,NY,10017-6904,Z,Z99,0.9258360000000001,36061.0,10017.0,10017.0,5602.0,5600.0,36061.0,4.0,,194503.0,198912,198912,NY,10017.0,NEW YORK,PF,O,UN,Z,IN,,12,0.0,0.0,5 E 42ND ST,3.0,0.0,1000.0,,1.0,13.0,1.0,0.0,1.0,,Z,UN,UN,OT,3.0,,,,,,,A23,A,,,
7441,3,N,N,N,N,N,N,N,N,N,N,N,N,N,N,N,N,N,N,N,136135409,1989,1988,2,0,602,0,0,0,0,0,0,0,0,5106,0,5106,-5106,5106,0,0,0,6321,0,0,6321,0,437,CINEMA FND,NEW YORK,NY,10017-5405,Z,Z99,0.458103,36061.0,10017.0,10017.0,5602.0,5600.0,36061.0,4.0,,6303.0,198910,198910,NY,10017.0,NEW YORK,PF,O,UN,Z,IN,,10,561.0,0.0,50 E 42ND ST RM 515,3.0,0.0,1000.0,,1.0,13.0,1.0,0.0,1.0,,Z,UN,UN,OT,3.0,,,,,,,A31,A,,,
7480,3,N,Y,N,N,N,N,N,N,Y,N,N,N,N,N,N,N,N,N,N,136139518,1989,1989,7,6,40,0,57781,0,0,0,0,887227,88983,27169,945008,501439,443569,141718,634694,6347,634694,2688548,0,55525,2688548,0,99380,KURT WEILL FND MUSIC,NEW YORK,NY,10003-1106,Z,Z99,0.776575,36061.0,10003.0,10003.0,5602.0,5600.0,36061.0,4.0,,196407.0,198912,198912,NY,10003.0,NEW YORK,PF,O,UN,Z,IN,,12,59.0,0.0,7 E 20TH ST,3.0,0.0,1200.0,% HOROWITZ COLEMAN & WALDMAN,1.0,13.0,1.0,0.0,1.0,,Z,UN,UN,OT,3.0,,,,,,,A68,A,,,
7572,2,N,N,N,N,Y,N,N,N,N,N,N,N,N,N,N,N,N,N,N,136149781,1989,1988,7,5,59,150050,222333,47072,192,0,0,42053,0,10152,466194,202844,263350,175889,249291,4986,271744,2329148,362425,36982,2288429,0,115877,PERFORMING ARTS FND,NEW YORK,NY,10016-0570,Z,Z99,0.438892,36061.0,10016.0,10016.0,5602.0,5600.0,36061.0,3.0,,196411.0,198908,198908,NY,10016.0,NEW YORK,PF,O,UN,Z,IN,,8,602.0,0.0,21 E 40TH ST RM 1006,3.0,0.0,1200.0,% SPITZ & EDELSTEIN CPAS,1.0,13.0,1.0,0.0,3.0,,Z,UN,UN,OT,3.0,,,,,,,A1260,A,,,
7662,3,N,N,N,N,N,N,N,N,N,N,N,N,N,N,N,N,N,N,N,136157956,1989,1989,3,3,59,11125,423,0,0,0,0,0,0,8350,11548,8757,2791,8750,416,8,0,11857,0,0,11857,534,542,LARCHMONT CHAMBER MUSIC CIRCLE,NEW YORK,NY,10036-2601,Z,Z99,0.586142,36061.0,10036.0,10036.0,5602.0,5600.0,36061.0,4.0,,196404.0,198912,198912,NY,10036.0,NEW YORK,PF,O,UN,Z,IN,,12,0.0,0.0,1185 AVE OF AMERICAS,3.0,0.0,2000.0,% LILLIE BERNSTEIN,1.0,13.0,1.0,0.0,1.0,,Z,UN,UN,OT,3.0,,,,,,,A6C,A,,,
7847,3,N,N,N,N,N,N,N,N,N,N,N,N,N,N,N,N,N,N,N,136161472,1988,1988,1,1,119,0,5,0,0,0,0,0,0,0,5,93,-88,93,5,0,5,950,0,0,950,0,3,ARTS FND,NEW YORK,NY,10007-1901,Z,Z99,0.68991,36061.0,10007.0,10007.0,5602.0,5600.0,36061.0,,,,198812,198812,NY,10007.0,NEW YORK,U,O,UN,Z,IN,,12,,,,,,,,,,,,,,Z,UN,UN,OT,,,,,,,,A1261,A,,,
7848,3,N,N,N,N,N,N,N,N,N,N,N,N,N,N,N,N,N,N,N,136161473,1989,1989,1,1,119,0,121,0,0,0,0,0,0,0,121,99,22,0,22,0,22,4734,2465,1533,2482,115,115,EDWARD F & HILDA S KOOK ARTS THEATRE FND,NEW YORK,NY,10106-0001,Z,Z99,0.0660953,36061.0,10106.0,10106.0,5602.0,5600.0,36061.0,4.0,,194909.0,198912,198912,NY,10106.0,NEW YORK,PF,O,UN,Z,IN,,12,602.0,59.0,1995 BROADWAY,3.0,0.0,2300.0,% BUDD H GIBBS ESQ,1.0,13.0,1.0,0.0,1.0,TION INC,Z,UN,UN,OT,3.0,,,,,,,A1265,A,,,
7898,3,N,N,N,N,Y,N,N,N,N,N,N,N,N,N,N,N,N,N,N,136161674,1989,1989,5,4,65,38616,1809,322,0,0,25157,6175,0,0,72079,65128,6951,61916,2131,43,4820,441677,0,339,438238,0,1112,NICHOLAS ROERICH MUS,NEW YORK,NY,10025-2715,Z,Z99,0.551909,36061.0,10025.0,10025.0,5602.0,5600.0,36061.0,4.0,,199404.0,198912,198912,NY,10025.0,NEW YORK,PF,O,UN,Z,IN,,12,0.0,0.0,319 W 107TH,3.0,0.0,1000.0,,1.0,13.0,1.0,0.0,1.0,,Z,UN,UN,OT,3.0,,,,,,,A50,A,,,
8010,3,N,Y,N,N,N,N,N,N,N,N,N,N,N,N,N,N,N,N,N,136163969,1989,1989,4,4,59,13832,2326,8371,22,0,0,0,0,12985,24551,19025,5526,15988,7762,78,0,91840,49021,0,268057,0,11780,SOC DAUGHTERS HOLLAND DAMES,NEW YORK,NY,10021-6591,Z,Z99,0.120175,36061.0,10021.0,10021.0,5602.0,5600.0,36061.0,4.0,,194211.0,198912,198912,NY,10021.0,NEW YORK,PF,O,UN,Z,IN,,12,602.0,0.0,17 STEVENS ST,3.0,0.0,1000.0,% BARBARA HARNESS,1.0,22.0,1.0,0.0,5.0,,Z,UN,UN,OT,3.0,,,,,,,A80,A,,,
8015,3,N,N,N,N,N,N,N,N,N,N,N,N,N,N,N,N,N,N,N,136164757,1990,1989,7,6,602,0,8369,83019,4992,0,171962,100700,0,98000,369042,271047,97995,268547,94796,1896,89804,1298855,772491,352736,1392119,0,57279,SOC FRIENDLY SONS ST PATRICK IN CITY NEW Y,NEW YORK,NY,10005-3601,Z,Z99,0.46114799999999995,36061.0,10005.0,10005.0,5602.0,5600.0,36061.0,4.0,,194506.0,199003,199003,NY,10005.0,NEW YORK,PF,O,UN,Z,IN,,3,0.0,0.0,80 WALL ST,3.0,0.0,1000.0,,1.0,13.0,1.0,0.0,1.0,HE CITY OF NEW Y,Z,UN,UN,OT,3.0,,,,,,,A80,A,,,
8031,3,N,N,N,N,N,N,N,N,N,N,N,N,N,N,N,N,Y,N,N,136165706,1989,1989,3,3,602,18000,402,0,0,0,0,0,0,13000,18402,17500,902,13000,0,0,0,16977,0,0,16977,0,814,HARPSICHORD MUSIC SOC,NEW YORK,NY,10018-2903,Z,Z99,0.910768,36061.0,10018.0,10018.0,5602.0,5600.0,36061.0,,,,198912,198912,NY,10018.0,NEW YORK,U,O,UN,Z,IN,,12,,,,,,,,,,,,,,Z,UN,UN,OT,,,,,,,,A68,A,,,
8077,3,N,N,N,N,N,N,Y,N,N,N,N,N,N,N,N,N,Y,N,N,136168827,1989,1989,5,4,602,50000,0,0,0,0,0,0,0,0,58670,20028,38642,15334,3976,80,5710,172391,0,18499,172391,8438,8518,EDWARD ALBEE FND,NEW YORK,NY,10016-6823,Z,Z99,0.186639,36061.0,10016.0,10016.0,5602.0,5600.0,36061.0,4.0,,196412.0,198912,198912,NY,10016.0,NEW YORK,PF,O,UN,Z,IN,,12,0.0,0.0,192 LEXINGTON AVE 1100,3.0,0.0,1000.0,% A KOZAK CO,1.0,13.0,1.0,0.0,1.0,,Z,UN,UN,OT,3.0,,,,,,,A20,A,,,
8183,3,N,Y,N,N,N,N,N,N,N,N,N,N,Y,N,N,N,N,N,N,136182926,1988,1987,6,4,119,0,6018,39375,0,0,0,25297,0,83421,70690,166141,-95451,159178,64509,645,64509,512507,491785,100000,507122,0,30178,DAVID MERRICK ARTS FND,NEW YORK,NY,10176-0999,Z,Z99,0.42445900000000003,36061.0,10176.0,10176.0,5602.0,5600.0,36061.0,16.0,,196508.0,198806,198806,NY,10176.0,NEW YORK,PC,O,UN,Z,IN,,6,0.0,0.0,101 PARK AVE,3.0,0.0,1000.0,SCOTT GILDEA & CO,1.0,13.0,1.0,0.0,2.0,,Z,UN,UN,OT,3.0,,,,,,,A26,A,,,
8488,3,N,N,N,N,N,N,N,N,N,N,N,N,N,N,N,N,N,N,N,136222553,1987,1987,4,1,602,2250,0,0,0,0,0,0,0,105,2250,2314,-64,2314,0,0,0,87506,87500,2706,87506,2314,0,BETHLEHEM ART FND,NEW YORK,NY,10001-3811,Z,Z99,0.829932,36061.0,10001.0,10001.0,5602.0,5600.0,36061.0,,,,198712,198712,NY,10001.0,NEW YORK,U,O,UN,Z,IN,,12,,,,,,,,,,,,,,Z,UN,UN,OT,,,,,,,,A12,A,,,
8515,3,N,N,N,N,N,N,N,N,N,N,N,N,N,N,N,N,N,N,N,136227356,1989,1989,2,1,119,2050,0,381,0,0,0,-1050,0,0,1381,2105,-724,0,381,0,0,5390,0,0,5390,0,261,DANCE PERSPECTIVES FND,NEW YORK,NY,10022-6472,Z,Z99,0.539071,36061.0,10022.0,10022.0,5602.0,5600.0,36061.0,4.0,,196709.0,198912,198912,NY,10022.0,NEW YORK,PF,O,UN,Z,IN,,12,40.0,59.0,400 E 50TH ST 3A,3.0,0.0,1200.0,,1.0,13.0,1.0,0.0,1.0,,Z,UN,UN,OT,3.0,,,,,,,A62,A,,,
8618,3,N,N,N,N,N,N,N,N,N,N,N,N,N,N,N,N,N,N,N,136271755,1989,1989,4,1,59,0,0,3732,0,0,0,0,0,9589,3732,10188,-6456,9589,3732,75,3732,44781,0,0,32450,0,2049,ETHICS FROM SINAI,NEW YORK,NY,10123-0101,Z,Z99,0.141433,36061.0,10123.0,10123.0,5602.0,5600.0,36061.0,,,,198912,198912,NY,10123.0,NEW YORK,U,O,UN,Z,IN,,12,,,,,,,,,,,,,,Z,UN,UN,OT,,,,,,,,A70,A,,,
8661,3,N,N,N,N,N,N,N,N,Y,N,N,N,N,N,N,N,Y,N,N,136274647,1989,1988,6,4,119,0,5230,47007,9462,0,0,0,0,37301,61700,48353,13347,47576,51425,1029,41186,675226,246767,0,667960,0,32570,SWANN COLLECTION CARRICUTURE & CARTOON,NEW YORK,NY,10022-4503,Z,Z99,0.219879,36061.0,10022.0,10022.0,5602.0,5600.0,36061.0,4.0,,196712.0,198909,198909,NY,10022.0,NEW YORK,PF,O,UN,Z,IN,,9,59.0,0.0,641 LEXINGTON AVE,3.0,0.0,1230.0,% HENRY J GOLDSCHMIDT,1.0,13.0,1.0,0.0,1.0,,Z,UN,UN,OT,3.0,,,,,,,A99,A,,,
8735,3,N,N,N,N,N,N,N,N,N,N,N,N,N,N,N,N,N,N,N,136400310,1989,1988,5,5,119,189828,1815,0,0,0,0,0,0,0,191643,143571,48072,143554,1798,0,0,149898,0,126874,149898,136705,6849,GOLDMAN MEM BAND,NEW YORK,NY,10011-5126,Z,Z99,0.22443200000000002,36061.0,10011.0,10011.0,5602.0,5600.0,36061.0,15.0,,199305.0,198909,198909,NY,10011.0,NEW YORK,PC,O,UN,Z,IN,,9,0.0,0.0,1501 BROADWAY STE 2401,3.0,0.0,1000.0,% ORIN & KLEIN,1.0,13.0,10.0,0.0,1.0,GUGGENHEIM CONCERTS BAND INC,Z,UN,UN,OT,3.0,,,,,,,A6C,A,,,
8753,3,N,N,N,N,N,N,N,N,N,N,N,N,N,N,N,N,N,N,N,136625578,1989,1988,4,3,602,12885,4781,0,0,0,0,0,0,7500,17666,8913,8753,7500,4781,96,4781,67834,0,610,67834,0,3122,AMER SOC JOURNALISTS & AUTHORS CHARITABLE TRUST,NEW YORK,NY,10036-5501,Z,Z99,0.998084,36061.0,10036.0,10036.0,5602.0,5600.0,36061.0,4.0,,198810.0,198908,198908,NY,10036.0,NEW YORK,PF,O,UN,Z,IN,,8,0.0,0.0,1501 BROADWAY STE 305,3.0,199308.0,1000.0,,1.0,13.0,1.0,0.0,1.0,ABLE TRUST,Z,UN,UN,OT,3.0,,,,,,,A70,A,,,
8755,3,N,N,N,Y,N,N,N,N,N,N,N,N,N,N,N,N,N,N,N,136640975,1988,1988,1,0,602,0,0,0,0,0,0,0,0,0,0,19,-19,19,0,0,0,1,0,0,0,0,0,HERBERT & NELL SINGER CHARITABLE TRUST,NEW YORK,NY,10151-0001,Z,Z99,0.152192,36061.0,10151.0,10151.0,5602.0,5600.0,36061.0,,,,198812,198812,NY,10151.0,NEW YORK,U,O,UN,Z,IN,,12,,,,,,,,,,,,,,Z,UN,UN,OT,,,,,,,,A68,A,,,
8766,3,N,N,N,N,N,N,N,N,Y,N,N,N,N,N,N,N,N,N,N,136734265,1989,1989,5,4,602,0,0,35406,23251,0,0,0,4619,19877,58657,25076,33581,19957,54038,1081,0,458938,405879,0,525512,0,23688,TRUST U W CARL OTTO VONKIENBUSCH B O PHILADELPHIA MUS ART,NEW YORK,NY,10005-2502,Z,Z99,0.30170399999999997,36061.0,10005.0,10005.0,5602.0,5600.0,36061.0,4.0,,197806.0,198912,198912,NY,10005.0,NEW YORK,PF,O,UN,Z,IN,,12,0.0,0.0,ONE WALL ST TAX DEPT 28TH FLR,3.0,0.0,1000.0,,1.0,13.0,1.0,0.0,2.0,A MUSEUM OF ART,Z,UN,UN,OT,3.0,,,,,,,A50,A,,,
8796,3,N,Y,N,N,N,N,N,N,Y,N,N,N,N,N,N,N,N,N,N,136814491,1989,1988,8,7,602,0,82323,2204304,456614,0,0,806,256290,1907057,2744047,2303799,440248,2108127,2579647,25796,0,23494782,20908282,0,27346879,0,1293117,FRANCES & EDWIN COMMINGS MEM,NEW YORK,NY,10017-6102,Z,Z99,0.6066739999999999,36061.0,10017.0,10017.0,5602.0,5600.0,36061.0,4.0,,198403.0,198907,198907,NY,10017.0,NEW YORK,PF,O,UN,Z,IN,,7,0.0,0.0,501 FIFTH AVE STE 708,3.0,0.0,1000.0,% THE BANK OF NEW YORK TAX DEPT,1.0,13.0,1.0,0.0,6.0,,Z,UN,UN,OT,3.0,,,,,,,A80,A,,,
10040,3,N,Y,N,N,N,N,N,N,N,N,N,N,N,N,N,N,N,N,N,222436291,1989,1988,1,2,29,6000,0,0,0,0,0,0,0,0,6000,6526,-526,6526,0,0,0,1994,0,0,0,0,29,AMER FRIENDS ITALIAN JEWRY,NEW YORK,NY,10019-3301,Z,Z99,0.268068,36061.0,10019.0,10019.0,5602.0,5600.0,36061.0,4.0,,198305.0,198910,198910,NY,10019.0,NEW YORK,PF,O,UN,Z,IN,,10,994.0,0.0,152 W 57TH ST,3.0,198310.0,1000.0,% KOENIG RATNER & MOTT PC,1.0,13.0,1.0,0.0,1.0,,Z,UN,UN,OT,3.0,,,,,,,A1123,A,,,
10612,3,N,Y,N,N,N,N,N,N,Y,N,N,N,N,N,N,N,Y,N,N,222711422,1989,1989,7,5,40,0,63787,219136,13431,0,0,0,31200,247500,296354,350762,-54408,321585,267177,2671,0,3153945,2608305,764,3083379,0,150793,CHINA TIMES CULTURAL FND,FLUSHING,NY,11355-2427,Z,Z99,0.184583,36081.0,11355.0,11355.0,5602.0,5600.0,36081.0,4.0,,198609.0,198912,198912,NY,11355.0,FLUSHING,PF,O,UN,Z,IN,,12,123.0,0.0,43 27 36TH ST,3.0,0.0,1000.0,,1.0,11.0,1.0,0.0,1.0,,Z,UN,UN,OT,3.0,,,,,,,A1233,A,,,
10934,3,N,N,N,N,N,N,N,N,N,N,N,N,N,N,N,N,N,N,N,222795753,1989,1988,7,4,602,0,0,67584,0,-11516,0,0,0,43480,56068,56945,-877,48590,61095,1222,61092,1260287,926381,0,1258660,6553,67757,INDIAN PT FND,NEW YORK,NY,10128-1154,Z,Z99,0.797407,36061.0,10128.0,10128.0,5602.0,5600.0,36061.0,4.0,,8706.0,198906,198906,NY,10128.0,NEW YORK,PF,O,UN,Z,IN,,6,0.0,0.0,1095 PARK AVE 11A,3.0,0.0,1000.0,,1.0,13.0,1.0,0.0,1.0,,Z,UN,UN,OT,3.0,,,,,,,A23,A,,,
13911,3,N,N,N,N,N,N,N,N,N,N,N,N,N,N,N,N,N,N,N,237044630,1990,1989,1,1,119,2595,0,0,0,0,0,2191,0,0,4786,4819,-33,0,0,0,0,474,0,33,0,0,0,RIVERSIDE THEATRE WORKSHOP,NEW YORK,NY,10025-5220,Z,Z99,0.0773517,36061.0,10025.0,10025.0,5602.0,5600.0,36061.0,4.0,,196912.0,199005,199005,NY,10025.0,NEW YORK,PF,O,UN,Z,IN,,5,59.0,0.0,280 RIVERSIDE DR,3.0,0.0,1200.0,,1.0,13.0,1.0,0.0,1.0,,Z,UN,UN,OT,3.0,,,,,,,A65,A,,,
14062,3,N,N,N,N,N,N,N,N,N,N,N,N,N,N,N,N,Y,N,N,237055841,1989,1989,7,5,119,0,2028,168884,59,0,0,0,24876,108702,170971,163446,7525,128497,139322,2786,139263,1898672,1870809,0,1918968,0,92003,INDONESIAN CULTURAL FND,NEW YORK,NY,10158-0180,Z,Z99,0.39305999999999996,36061.0,10158.0,10158.0,5602.0,5600.0,36061.0,4.0,,197002.0,198912,198912,NY,10158.0,NEW YORK,PF,O,UN,Z,IN,,12,602.0,40.0,60 E 42ND ST,3.0,0.0,1000.0,,1.0,13.0,1.0,0.0,1.0,,Z,UN,UN,OT,3.0,,,,,,,A23,A,,,
14246,3,N,N,N,N,N,N,N,N,N,N,N,N,N,N,N,N,N,Y,N,237075252,1989,1989,1,4,59,30190,0,0,0,0,0,0,0,30000,30190,30183,7,30000,0,0,0,6,0,0,6,0,0,INTL CTR THEATRE CREATION,NEW YORK,NY,10014-4960,Z,Z99,0.649953,36061.0,10014.0,10014.0,5602.0,5600.0,36061.0,4.0,,7007.0,198912,198912,NY,10014.0,NEW YORK,PF,O,UN,Z,IN,,12,602.0,0.0,42 KING ST,3.0,,1200.0,% STEVE BENEDICT,,,,,,,Z,UN,UN,OT,3.0,,,,,,,A65,A,,,
14276,3,N,N,N,N,N,N,N,N,N,N,N,N,N,N,N,N,Y,N,N,237077374,1989,1989,4,3,914,8555,69,2570,0,0,1000,3,0,10500,12197,12499,-302,12446,2639,53,3642,29216,27386,0,29216,14023,1446,ELEANOR STEBER MUSIC FND,NEW YORK,NY,10016-0701,Z,Z99,0.479314,36061.0,10016.0,10016.0,5602.0,5600.0,36061.0,,,,198912,198912,NY,10016.0,NEW YORK,U,O,UN,Z,IN,,12,,,,,,,,,,,,,,Z,UN,UN,OT,,,,,,,,A68,A,,,
14349,2,N,N,N,N,Y,N,N,N,N,N,N,N,Y,N,N,N,N,N,N,237087276,1989,1988,7,5,59,0,0,56049,103987,0,0,0,0,5635,160036,103375,56661,85503,160036,3201,56049,1108208,709100,0,3181981,0,116346,PEARSON ART FND,NEW YORK,NY,10118-0000,Z,Z99,0.138215,36061.0,10118.0,10118.0,5602.0,5600.0,36061.0,3.0,,197011.0,198909,198909,NY,10118.0,NEW YORK,PF,O,UN,Z,IN,,9,602.0,0.0,580 SYLVAN AVE,3.0,0.0,1200.0,% WOLLIN ASSOC INC,1.0,22.0,1.0,0.0,1.0,,Z,UN,UN,OT,3.0,,,,,,,A12,A,,,
14500,2,N,N,N,N,Y,N,N,N,N,N,N,N,N,N,N,N,N,N,N,237108615,1989,1988,1,2,119,4170,35,0,0,0,0,0,0,400,6205,6812,-607,0,1015,20,0,888,0,102,242725,0,12004,GABRIEL VON WAYDITCH MUSIC FND,KEW GARDENS,NY,11415-1715,Z,Z99,0.334994,36081.0,11415.0,11415.0,5602.0,5600.0,36081.0,4.0,,197112.0,198910,198910,NY,11415.0,KEW GARDENS,PF,O,UN,Z,IN,,10,0.0,0.0,80 61 LEFFERTS BLVD,3.0,0.0,1300.0,,1.0,11.0,1.0,0.0,1.0,,Z,UN,UN,OT,3.0,,,,,,,A68,A,,,
14771,3,N,N,N,N,N,N,N,N,N,N,N,N,N,N,N,N,N,N,N,237162976,1989,1989,3,4,119,41563,0,0,0,0,0,0,0,0,41563,38147,3416,34147,0,0,0,14064,0,0,4619,0,0,FND RES IN AFRO AMER CREATIVE ARTS,CAMBRIA HGTS,NY,11411-0000,Z,Z99,0.554986,36081.0,11411.0,11411.0,5602.0,5600.0,36081.0,4.0,,7212.0,198912,198912,NY,11411.0,CAMBRIA HGTS,PF,O,UN,Z,IN,,12,91.0,0.0,PO BOX I,3.0,0.0,2000.0,,1.0,11.0,1.0,0.0,1.0,IVE ARTS,Z,UN,UN,OT,3.0,,,,,,,A12,A,,,
14863,3,N,Y,N,N,Y,N,N,N,N,N,N,Y,N,N,N,N,N,N,N,237179844,1990,1989,4,2,602,6003,3191,0,0,0,0,0,0,5000,9194,5100,4094,5000,3191,32,3191,61643,100,0,61643,0,2930,RANDI PRESS FND,BROOKLYN,NY,11234-4518,Z,Z99,0.29070799999999997,36047.0,11234.0,11234.0,5602.0,5600.0,36047.0,4.0,,197302.0,199001,199001,NY,11234.0,BROOKLYN,PF,O,UN,Z,IN,,1,0.0,0.0,2284 FLATBUSH AVE,3.0,0.0,1000.0,,1.0,11.0,1.0,0.0,1.0,,Z,UN,UN,OT,3.0,,,,,,,A33,A,,,
14917,3,N,Y,N,N,Y,N,N,N,N,N,N,N,N,N,N,N,N,N,N,237193312,1988,1988,6,4,59,41000,0,7226,0,0,0,0,0,82000,48226,85993,-37767,83135,4419,44,7226,692966,117808,0,694420,0,6313,AMER FRIENDS CANADA COMM,NEW YORK,NY,10016-0601,Z,Z99,0.671238,36061.0,10016.0,10016.0,5602.0,5600.0,36061.0,9.0,,197206.0,198812,198812,NY,10016.0,NEW YORK,PC,O,UN,Z,IN,,12,119.0,0.0,270 MADISON AVE,3.0,0.0,2000.0,% US TRUST CO OF NEW YORK,1.0,13.0,1.0,0.0,1.0,,Z,UN,UN,OT,3.0,,,,,,,A26,A,,,
15054,3,N,N,N,N,N,N,N,N,N,N,N,N,N,N,N,N,N,N,N,237228901,1988,1988,3,1,65,0,1119,0,0,0,0,0,0,0,1119,1053,66,0,65,1,65,19777,0,0,19744,0,0,LUNDQUIST RELIGIOUS EXHIBITS,BRONX,NY,10462-3170,Z,Z99,0.369234,36005.0,10462.0,10462.0,5602.0,5600.0,36005.0,4.0,,197212.0,198812,198812,NY,10462.0,BRONX,PF,O,UN,Z,IN,,12,207.0,0.0,2041 COLDEN AVE,3.0,0.0,1000.0,,1.0,13.0,1.0,0.0,1.0,,Z,UN,UN,OT,3.0,,,,,,,A50,A,,,
15173,3,N,N,N,N,N,N,N,N,N,N,N,N,N,N,N,N,N,N,N,237259874,1988,1988,1,0,59,0,0,0,0,0,0,0,0,0,0,25,-25,0,0,0,0,40,0,0,40,0,0,NAT CONCERT ARTISTS FND,NEW YORK,NY,10031-7821,Z,Z99,0.820017,36061.0,10031.0,10031.0,5602.0,5600.0,36061.0,,,,198812,198812,NY,10031.0,NEW YORK,U,O,UN,Z,IN,,12,,,,,,,,,,,,,,Z,UN,UN,OT,,,,,,,,A68,A,,,
15175,3,N,N,N,N,N,N,N,N,N,N,N,N,N,N,N,N,N,N,N,237259908,1989,1989,3,2,560,2487,0,988,465,0,0,0,0,17450,3940,17703,-13763,17450,1453,29,988,11291,10121,0,11291,17450,118,IDA FINK MEM ASSOC,BROOKLYN,NY,11230-5105,Z,Z99,0.7194010000000001,36047.0,11230.0,11230.0,5602.0,5600.0,36047.0,4.0,,7302.0,198912,198912,NY,11230.0,BROOKLYN,PF,O,UN,Z,IN,,12,0.0,0.0,1297 E 8TH ST,3.0,0.0,1000.0,% DAVID GOLDMAN,1.0,11.0,1.0,0.0,1.0,,Z,UN,UN,OT,3.0,,,,,,,A80,A,,,
15252,3,N,N,N,N,N,N,N,N,N,N,N,N,N,N,N,N,N,N,N,237292189,1989,1989,5,4,119,0,36739,0,0,0,0,323,0,0,37062,7497,29565,6936,36762,735,37062,448518,0,0,448518,12960,21229,INST CHINESE PERFORMING ARTS,NEW YORK,NY,10016-2059,Z,Z99,0.715677,36061.0,10016.0,10016.0,5602.0,5600.0,36061.0,4.0,,197312.0,198912,198912,NY,10016.0,NEW YORK,PF,O,UN,Z,IN,,12,0.0,0.0,600 THIRD AVE 22ND FLOOR,3.0,0.0,3000.0,% EUGENIA SHIAH,1.0,13.0,1.0,0.0,1.0,,Z,UN,UN,OT,3.0,,,,,,,A60,A,,,
15508,3,N,N,N,N,N,N,N,N,N,N,N,N,N,N,N,N,N,N,N,237360614,1988,1988,1,1,123,679,0,0,0,0,0,0,0,91,679,679,0,679,0,0,0,141,0,0,291,86,0,CNCL NATIVE AMER INDIAN PROGRESS,FLUSHING,NY,11355-1407,S,S41,0.7265550000000001,36081.0,11355.0,11355.0,5602.0,5600.0,36081.0,15.0,,197505.0,198812,198812,NY,11355.0,FLUSHING,PC,O,PB,S,IN,,12,0.0,0.0,280 BROADWAY SUITE 316,3.0,0.0,1000.0,,1.0,13.0,20.0,0.0,1.0,,S,PU,PU,OT,3.0,,,,,,,A23,A,,,
15523,3,N,N,N,N,N,N,N,N,N,N,N,N,N,N,N,N,N,N,N,237363420,1989,1989,5,3,602,0,11591,0,0,0,0,0,0,16400,11591,19277,-7686,16400,8714,174,8714,107512,0,0,107512,0,5319,MEYER & TZIPPE FRUCHTBAUM FND JEWISH CULTURE,NEW YORK,NY,10023-2824,Z,Z99,0.551291,36061.0,10023.0,10023.0,5602.0,5600.0,36061.0,4.0,,7412.0,198912,198912,NY,10023.0,NEW YORK,PF,O,UN,Z,IN,,12,0.0,0.0,200 W 72ND ST,3.0,0.0,1000.0,% LEBYL KAHN,1.0,13.0,1.0,0.0,1.0,LTURE INC,Z,UN,UN,OT,3.0,,,,,,,A23,A,,,
15536,3,N,N,N,N,N,N,N,N,N,N,N,N,N,N,N,N,N,N,N,237365710,1989,1989,0,0,119,0,0,0,0,0,0,0,0,0,0,0,0,0,0,0,0,0,0,0,0,0,0,ION NICOLA THEATRE FND,NEW YORK,NY,10150-6429,Z,Z99,0.359902,36061.0,10150.0,10150.0,5602.0,5600.0,36061.0,4.0,,197405.0,198912,198912,NY,10150.0,NEW YORK,PF,O,UN,Z,IN,,12,0.0,0.0,PO BOX 6429,3.0,0.0,2000.0,,1.0,13.0,1.0,0.0,1.0,,Z,UN,UN,OT,3.0,,,,,,,A65,A,,,
15619,3,N,N,N,N,N,N,N,N,N,N,N,N,N,N,N,N,N,N,N,237381454,1989,1988,0,0,90,0,0,0,0,0,0,0,0,0,0,0,0,0,0,0,0,0,0,0,0,0,0,PHILHARMONIA EREDE,NEW YORK,NY,10036-6315,Z,Z99,0.243786,36061.0,10036.0,10036.0,5602.0,5600.0,36061.0,4.0,,7411.0,198909,198909,NY,10036.0,NEW YORK,PF,O,UN,Z,IN,,9,0.0,0.0,400 W 43RD ST RM 37 N,3.0,0.0,2000.0,,1.0,13.0,1.0,0.0,1.0,,Z,UN,UN,OT,3.0,,,,,,,A69,A,,,
15678,2,N,N,N,N,Y,N,N,N,Y,N,N,N,N,N,N,N,N,N,N,237397946,1990,1989,8,7,91,190695,1467,158820,42323,0,0,247681,104700,12750,640986,1251559,-610573,1057758,291456,5829,351570,16211393,7450392,220942,17787501,0,490483,DIA CTR ARTS,NEW YORK,NY,10011-1108,A,A6F,0.436767,36061.0,10011.0,10011.0,5602.0,5600.0,36061.0,15.0,,197409.0,199006,199006,NY,10011.0,NEW YORK,PC,O,AR,A,IN,,6,0.0,0.0,155 MERCER STREET,3.0,0.0,1200.0,,1.0,13.0,10.0,0.0,1.0,,A,AR,AR,AR,3.0,,,,,,,A20,A,,,
15704,3,N,N,N,N,N,N,N,N,N,N,N,N,N,N,N,N,N,N,N,237401883,1987,1987,1,1,119,0,0,0,0,0,0,0,0,30,31,164,-133,164,0,0,0,2600,0,0,2600,0,0,AMER THEATRE PLANNING BOARD,NEW YORK,NY,10128-1337,Z,Z99,0.152701,36061.0,10128.0,10128.0,5602.0,5600.0,36061.0,,,,198712,198712,NY,10128.0,NEW YORK,U,O,UN,Z,IN,,12,,,,,,,,,,,,,,Z,UN,UN,OT,,,,,,,,A65,A,,,
15744,3,N,N,N,N,N,N,N,N,N,N,N,N,N,N,N,N,N,N,N,237411091,1987,1987,1,4,119,52000,0,0,0,0,0,0,0,0,52000,61500,-9500,0,0,0,0,1,0,0,0,0,0,LATVIAN CULTURAL INST,BRONX,NY,10453-1306,Z,Z99,0.89969,36005.0,10453.0,10453.0,5602.0,5600.0,36005.0,,,,198712,198712,NY,10453.0,BRONX,U,O,UN,Z,IN,,12,,,,,,,,,,,,,,Z,UN,UN,OT,,,,,,,,A23,A,,,
15754,3,N,N,N,N,N,N,N,N,N,N,N,N,N,N,N,N,N,N,N,237412320,1989,1989,4,1,994,0,1433,0,0,0,0,0,0,425,1433,1469,-36,1469,1433,29,0,30845,0,0,30845,86,1584,FLARE FND ARTS,NEW YORK,NY,10019-1415,Z,Z99,0.851527,36061.0,10019.0,10019.0,5602.0,5600.0,36061.0,4.0,,197411.0,198912,198912,NY,10019.0,NEW YORK,PF,O,UN,Z,IN,,12,119.0,64.0,200 CENTRAL PARK S 21E,3.0,0.0,2000.0,,1.0,13.0,1.0,0.0,1.0,,Z,UN,UN,OT,3.0,,,,,,,A12,A,,,
16032,3,N,Y,N,N,Y,N,N,N,Y,N,N,N,N,N,N,N,N,N,N,237438514,1988,1987,6,6,119,438315,0,15636,0,0,441359,5651,112884,0,900961,859842,41119,829594,15486,155,15486,538123,0,295484,538123,0,16046,RECORDED ANTHOLOGY AMER MUSIC,NEW YORK,NY,10036-1508,A,A68,0.5280020000000001,36061.0,10036.0,10036.0,5602.0,5600.0,36061.0,15.0,,199311.0,198806,198806,NY,10036.0,NEW YORK,PC,O,AR,A,IN,,6,0.0,0.0,701 SEVENTH AVE,3.0,0.0,2000.0,,1.0,13.0,10.0,0.0,1.0,,A,AR,AR,AR,3.0,,,,,,,A68,A,,,
16069,3,N,N,N,N,N,N,N,N,N,N,N,N,N,N,N,N,N,N,N,237443020,1989,1989,7,7,602,2000000,251390,0,0,0,0,0,0,1993716,2251390,1995255,256135,1993716,251390,5028,251390,1955739,0,0,1955739,0,131513,ABC BROADCASTING FND,NEW YORK,NY,10023-0000,Z,Z99,0.718159,36061.0,10023.0,10023.0,5602.0,5600.0,36061.0,4.0,,197504.0,198912,198912,NY,10023.0,NEW YORK,PF,O,UN,Z,IN,,12,0.0,0.0,11TH FLOOR 77 W 66TH ST,3.0,0.0,1000.0,,1.0,13.0,1.0,0.0,1.0,,Z,UN,UN,OT,3.0,,,,,,,A30,A,,,
22730,3,N,N,N,N,Y,N,N,N,Y,N,N,N,N,N,N,N,N,N,N,382415253,1988,1988,2,4,90,85314,1085,0,0,0,-4298,0,10266,0,82102,75914,6188,71625,1085,0,0,6379,0,0,6379,6379,0,CTR ALTERNATIVE MEDIA & CULTURE,NEW YORK,NY,10022-6022,Z,Z99,0.733525,36061.0,10022.0,10022.0,5602.0,5600.0,36061.0,2.0,,198303.0,198812,198812,NY,10022.0,NEW YORK,PF,O,UN,Z,IN,,12,0.0,0.0,350 PARK AVE,3.0,0.0,1000.0,% STARR & CO,1.0,13.0,1.0,0.0,1.0,,Z,UN,UN,OT,3.0,,,,,,,A30,A,,,
27430,3,N,N,N,N,N,N,N,N,Y,N,N,N,N,N,N,N,N,N,N,510163343,1989,1989,6,4,40,0,1431,57686,7026,0,0,0,6326,35000,66143,46151,19992,38243,59235,1185,0,707826,637973,0,906159,0,41825,UWO MOLLY M FORSTER TRUST U ART IV PARA 2,NEW YORK,NY,10170-0001,Z,Z99,0.101074,36061.0,10170.0,10170.0,5602.0,5600.0,36061.0,,,,198912,198912,NY,10170.0,NEW YORK,U,O,UN,Z,IN,,12,,,,,,,,,,,,,,Z,UN,UN,OT,,,,,,,,A12,A,,,
27700,3,N,N,N,N,Y,N,N,N,N,N,N,N,N,N,N,N,N,N,N,510196883,1988,1988,4,1,995,3437,0,0,0,0,135,0,0,0,3572,3526,46,3526,0,0,0,43274,0,21660,45,45,0,APOLLO OPERA,NEW YORK,NY,10023-1796,Z,Z99,0.232904,36061.0,10023.0,10023.0,5602.0,5600.0,36061.0,,,,198812,198812,NY,10023.0,NEW YORK,U,O,UN,Z,IN,,12,,,,,,,,,,,,,,Z,UN,UN,OT,,,,,,,,A6A,A,,,
27847,3,N,N,N,N,N,N,N,N,N,N,N,N,N,N,N,N,N,Y,N,510254205,1989,1989,3,3,0,17640,869,0,0,0,0,0,0,600,18509,40588,-22079,40559,869,17,869,18290,0,0,18290,0,798,MUS SCOTLAND & HERITAGE TRUST FND,NEW YORK,NY,10021-4335,Z,Z99,0.734686,36061.0,10021.0,10021.0,5602.0,5600.0,36061.0,4.0,,198012.0,198912,198912,NY,10021.0,NEW YORK,PF,O,UN,Z,IN,,12,0.0,0.0,165 E 72ND ST,3.0,0.0,1000.0,% SLOANE & HINSHAW INC,1.0,13.0,1.0,0.0,1.0,ON,Z,UN,UN,OT,3.0,,,,,,,A50,A,,,
28386,3,N,N,N,N,N,N,N,N,N,N,N,N,N,N,N,N,N,N,N,521344035,1987,1987,1,0,561,0,0,0,0,0,0,0,0,0,0,551,-551,551,0,0,0,135,0,39,135,0,21,DE PAUL PERFORMING ARTS FND,NEW YORK,NY,10016-6023,Z,Z99,0.0240649,36061.0,10016.0,10016.0,5602.0,5600.0,36061.0,,,,198712,198712,NY,10016.0,NEW YORK,U,O,UN,Z,IN,,12,,,,,,,,,,,,,,Z,UN,UN,OT,,,,,,,,A1260,A,,,
37335,3,N,N,N,N,N,N,N,N,N,N,N,N,N,N,N,N,N,N,N,840572016,1989,1989,4,1,59,0,1966,0,0,0,0,0,0,0,1966,55,1911,0,1926,39,1926,30119,0,40,30119,0,1414,ASPEN CTR CONTEMPORARY ART,NEW YORK,NY,10017-3610,Z,Z99,0.6856899999999999,36061.0,10017.0,10017.0,5602.0,5600.0,36061.0,4.0,,196705.0,198912,198912,NY,10017.0,NEW YORK,PF,O,UN,Z,IN,,12,119.0,60.0,135 W 50TH ST,3.0,0.0,2000.0,% HOLLAND & HART CHARLES T BRANDT,1.0,13.0,1.0,0.0,1.0,,Z,UN,UN,OT,3.0,,,,,,,A20,A,,,
40640,3,N,N,N,N,Y,N,N,N,Y,N,N,N,N,N,N,N,N,N,N,953697181,1989,1988,3,4,88,53605,678,0,0,0,0,0,0,1629,54283,71469,-17186,69110,678,14,0,13509,0,0,13509,0,1078,ONE WORLD ARTS FND,NEW YORK,NY,10024-6210,Z,Z99,0.106251,36061.0,10024.0,10024.0,5602.0,5600.0,36061.0,4.0,,8201.0,198906,198906,NY,10024.0,NEW YORK,PF,O,UN,Z,IN,,6,90.0,0.0,230 W 79TH ST 93 N,3.0,0.0,2000.0,,1.0,13.0,1.0,0.0,1.0,,Z,UN,UN,OT,3.0,,,,,,,A12,A,,,
