,FILER,ACTIVCD1,SUBSECCD,POPCODE,styear,REASON,CODE990,INCCD,ASCD,EIN,P1TCONT,P1DUES,P1SECURG,P1SECURC,P1INVST,P1FREXP,P1INVNTC,P1INVNTN,P1SALES,GROSSINC,GROSSREC,P1TOTEXP,P1NASEOY,P2TCOMP,P2TFRFEE,P4B_ASST,P4E_ASST,P4B_LIAB,P4E_LIAB,P4E_RETN,P6INIFEE,P6PUBINC,P6MEMINC,P6OTHINC,P6POLEXP,A3LOBBY,A6GLBYB,A6DLBYB,A6TGLBB,A6NLBEB,P6UNRELB,NAME,CITY,STATE,ZIP,ZIP5,FIPS,NTEECC,NTEE1,zipnew,MSA_NECH,PMSA,fipsold,v_errorCd,LEVEL1,LEVEL2,LEVEL3,LEVEL4,RandNum,nteeConf,MAJGRPB,OUTNCCS,OUTREAS,NTEESRC,ntmaj10,ntmaj12,ntmaj5,NteeOldA,Confidence,NteeCC4d,FipsOldA,estTAXPER,TaxPer,FisYr,stateOld1,zip5Old1,cityOld1,Ntee2007a,Confidence2007a,ACCPER,ACTIV1,ACTIV2,ACTIV3,ADDRESS,AFCD,ARED,CLASSCD,CONTACT,DEDUCTCD,DISTRICT,FNDNCD,FRCD,GEN,ORGCD,RULEDATE,SEC_NAME,LEVEL1old20090616,LEVEL2old20090616,LEVEL3old20090616,LEVEL4old20090616,OUTNCCSold20090616,OUTREASold20090616,nteeFinal,nteeFinal1,NAICS
10345,990.0,920,6,1,1989,0,1,4,3,112022650,0,34775,0,0,2152,0,0,0,115300,115300,150075,101571,50954,0,0,32862,50954,0,0,50954,0,0,0,0,0,0,0,0,0,0,Y,AUTO BODY CRAFTSMENS GUILD,GLENDALE,NY,11385-7067,11385.0,36081,A01,A,,5602.0,5600.0,,,O,O,AR,A,0.39181,,A,IN,,Q,AR,AR,AR,Z99,C,,,198912,198912,1989,NY,11385.0,,A40,A,12,920.0,0.0,0.0,65 60 MYRTLE AVE,3.0,0.0,2000.0,,2.0,11.0,0.0,10.0,0.0,1.0,6506.0,,PC,O,AR,A,OUT,S,A40,A,710000.0
10643,,301,4,0,1988,0,1,0,0,112466553,0,0,0,0,0,0,0,0,0,0,0,0,0,0,0,0,0,0,0,0,0,0,0,0,0,0,0,0,0,0,N,FORT GREENE RECREATION INC,BROOKLYN,NY,11217-0551,11217.0,36047,A99,A,11217.0,5602.0,5600.0,36047.0,,O,O,AR,A,0.37623,,A,IN,,Q,AR,AR,AR,Z99,C,,36047.0,198812,198812,1988,NY,11217.0,BROOKLYN,N32,C,12,328.0,994.0,317.0,PO BOX 170551,3.0,199612.0,1000.0,,1.0,11.0,15.0,20.0,0.0,1.0,9203.0,,PC,O,AR,A,IN,,A99,A,710000.0
10779,,998,4,0,1988,0,1,0,0,112557794,0,0,0,0,0,0,0,0,0,0,0,0,0,0,0,0,0,0,0,0,0,0,0,0,0,0,0,0,0,0,N,BROAD CHANNEL VOLUNTEERS INC,BROAD CHANNEL,NY,11693-1037,11693.0,36081,A32,A,,5602.0,5600.0,,,O,O,AR,A,0.36335,,A,IN,,Q,AR,AR,AR,Z99,C,,,198812,198812,1988,,,,A32,A,12,158.0,407.0,0.0,15 NOEL RD,3.0,0.0,1.0,,1.0,1.0,15.0,10.0,0.0,1.0,199801.0,,PC,O,AR,A,OUT,S,A32,A,513120.0
10811,990.0,200,12,1,1990,10,1,3,2,112579110,0,26933,0,0,262,6384,0,0,262,262,27195,29128,16868,0,0,18801,16868,0,0,0,0,0,0,0,0,0,0,0,0,0,N,NEW YORK OIL HEAT SERVICE MANAGERS ASSOC,BRONX,NY,10472-3102,10472.0,36005,A65,A,,5602.0,5600.0,,,O,O,AR,A,0.26203000000000004,,A,IN,,Q,AR,AR,AR,Z99,C,,,199012,199012,1990,NY,10472.0,,A65,C,12,200.0,0.0,0.0,1110 BRONX RIVER AVE,3.0,0.0,1000.0,% CHARLES WEINER,2.0,13.0,0.0,20.0,0.0,1.0,8311.0,,PC,O,AR,A,OUT,S,A65,A,711110.0
10825,990.0,124,5,1,1988,7,1,3,1,112584796,37855,0,0,0,0,2900,0,0,0,0,37855,33455,7010,9100,2900,2610,7010,0,0,0,0,0,0,0,0,0,0,0,0,0,N,CARIBBEAN MEDIA STUDIES INC,BROOKLYN,NY,11203-6608,11203.0,36047,A30,A,,5602.0,5600.0,,,O,O,AR,A,0.0074,,A,IN,,Q,AR,AR,AR,Z99,B,,,198812,198812,1988,NY,11203.0,,A30,B,12,124.0,125.0,123.0,968 E 49TH ST,3.0,0.0,1000.0,,1.0,11.0,15.0,20.0,0.0,1.0,8101.0,,PC,O,AR,A,OUT,S,A30,A,510000.0
11060,,319,7,0,1988,0,1,0,0,112713273,0,0,0,0,0,0,0,0,0,0,0,0,0,0,0,0,0,0,0,0,0,0,0,0,0,0,0,0,0,0,N,THE CRAFTSMEN ASSOCIATION,CAMBRIA HEIGHTS,NY,11411-1230,11411.0,36081,A40,A,,5602.0,5600.0,,,O,O,AR,A,0.7409,,A,IN,,Q,AR,AR,AR,Z99,C,,,198812,198812,1988,NY,11411.0,,A40,A,12,319.0,30.0,40.0,115 75 222ND ST,3.0,0.0,1000.0,,2.0,11.0,0.0,20.0,0.0,1.0,8503.0,,PC,O,AR,A,OUT,S,A40,A,710000.0
11130,,091,5,0,1989,0,1,0,0,112771371,0,0,0,0,0,0,0,0,0,0,0,0,0,0,0,0,0,0,0,0,0,0,0,0,0,0,0,0,0,0,N,BROOKLYN WATERFRONT ARTISTS COALITION INC,BROOKLYN,NY,11202-0002,11202.0,36047,A01,A,11202.0,5602.0,5600.0,36047.0,,O,O,AR,A,0.39425,,A,IN,,Q,AR,AR,AR,Z99,B,,36047.0,198912,198912,1989,NY,11202.0,BROOKLYN,A0140,B,12,91.0,90.0,119.0,PO BOX 020072,3.0,0.0,2000.0,,1.0,11.0,15.0,20.0,0.0,1.0,8609.0,,PC,O,AR,A,IN,,A0140,A,813319.0
11210,990.0,119,4,1,1989,0,1,4,4,112803536,2537,808,0,0,5975,2140,0,0,113636,113636,116981,17386,179714,0,0,153037,180249,535,535,179714,0,0,0,0,0,0,0,0,0,0,Y,BORGETTO CULTURAL ASSOC M S S ADDOLORATA DEL ROMITELLO,ASTORIA,NY,11103-1264,11103.0,36081,A99,A,,5602.0,5600.0,,,O,O,AR,A,0.97806,,A,IN,,Q,AR,AR,AR,Z99,B,,,199007,199007,1990,NY,11103.0,,A23,B,7,119.0,0.0,0.0,46 02 30TH AVE,3.0,0.0,1000.0,,2.0,11.0,0.0,10.0,0.0,1.0,8707.0,ELLO INC,PC,O,AR,A,OUT,S,A23,A,710000.0
11274,,088,5,0,1989,0,1,0,0,112844682,0,0,0,0,0,0,0,0,0,0,0,0,0,0,0,0,0,0,0,0,0,0,0,0,0,0,0,0,0,0,N,REDEEMER ASTORIA ARTS CENTER INC,ASTORIA,NY,11102-0000,11102.0,36081,A99,A,,5602.0,5600.0,,,O,O,AR,A,0.71005,,A,IN,,Q,AR,AR,AR,Z99,C,,,198912,198912,1989,NY,11102.0,,A20,B,12,88.0,90.0,91.0,30 14 CRESCENT ST,3.0,,1000.0,,,,16.0,,,,8705.0,,PC,O,AR,A,OUT,S,A20,A,710000.0
11364,,000,3,0,1988,0,1,0,0,112892196,0,0,0,0,0,0,0,0,0,0,0,0,0,0,0,0,0,0,0,0,0,0,0,0,0,0,0,0,0,0,N,BALLET FOLKLORICO MEXICANO DE NUEVA YORK,QUEENS VILLAGE,NY,11428-1045,11428.0,36081,A19,A,,5602.0,5600.0,,,PC,O,AR,A,0.84214,,A,IN,,Q,AR,AR,AR,Z99,C,,,198812,198812,1988,,,,A63,A,12,995.0,90.0,119.0,93 41 207TH ST,3.0,199812.0,2000.0,,1.0,11.0,16.0,10.0,0.0,1.0,9509.0,,PC,O,AR,A,OUT,S,A63,A,711120.0
11531,990.0,000,3,1,1990,7,1,4,4,112981112,384292,0,0,0,853,16534,0,0,853,853,385145,439226,-54081,9908,0,0,136490,0,190571,0,0,0,0,0,0,0,0,0,0,0,N,MESORAH HERITAGE FOUNDATION,BROOKLYN,NY,11232-4212,11232.0,36047,A05,A,11232.0,5602.0,5600.0,36047.0,,PC,O,AR,A,0.24208000000000002,,A,IN,,Q,AR,AR,AR,Z99,A,,36047.0,199012,199012,1990,NY,11232.0,BROOKLYN,A0582,A,12,8.0,0.0,0.0,4401 2ND AVE,3.0,0.0,1000.0,,1.0,11.0,15.0,10.0,0.0,1.0,9403.0,,PC,O,AR,A,IN,,A0582,A,541720.0
11800,,200,6,0,1988,0,1,0,0,116035572,0,0,0,0,0,0,0,0,0,0,0,0,0,0,0,0,0,0,0,0,0,0,0,0,0,0,0,0,0,0,N,ASSOCIATION OF ARCHITECTURAL & STORE FRONT CONTRAC,HOWARD BEACH,NY,11414-2415,11414.0,36081,A40,A,,5602.0,5600.0,,,O,O,AR,A,0.19318,,A,IN,,Q,AR,AR,AR,Z99,C,,,198906,198906,1989,NY,11414.0,,A40,A,6,200.0,0.0,0.0,90 53 SHORE PARKWAY,3.0,0.0,2000.0,,2.0,11.0,0.0,20.0,0.0,1.0,6312.0,TORS INC,PC,O,AR,A,OUT,S,A40,A,710000.0
12093,,088,4,0,1990,0,1,0,0,116201446,0,0,0,0,0,0,0,0,0,0,0,0,0,0,0,0,0,0,0,0,0,0,0,0,0,0,0,0,0,0,N,LIONS INTERNATION BROOKLYN HGWY,BROOKLYN,NY,11234-6721,11234.0,36047,A65,A,,5602.0,5600.0,,,O,O,AR,A,0.75938,,A,IN,,Q,AR,AR,AR,Z99,C,,,199012,199012,1990,NY,11234.0,,S80,A,12,88.0,0.0,0.0,145 BARLOW DR S,9.0,0.0,3000.0,% THOMAS SETARO,2.0,11.0,0.0,20.0,239.0,5.0,4012.0,8460,PC,O,AR,A,OUT,S,S80,S,813410.0
12144,990.0,919,6,1,1990,0,1,6,6,130417765,0,1030196,0,0,237288,0,0,0,2317707,2317707,3347903,3047604,1921994,549054,0,3059463,3282176,1444168,1360117,300364,0,0,0,0,0,0,0,0,0,0,Y,ADVERTISING RES FND,NEW YORK,NY,10022-4503,10022.0,36061,A30,A,,5602.0,5600.0,,,O,O,AR,A,0.13249,,A,IN,,Q,AR,AR,AR,Z99,C,,,199012,199012,1990,NY,10022.0,,A03,A,12,919.0,0.0,0.0,641 LEXINGTON AVE 11TH FLR,3.0,0.0,1000.0,,2.0,13.0,0.0,10.0,0.0,1.0,4303.0,,PC,O,AR,A,OUT,S,A03,A,813920.0
12164,990.0,065,6,1,1989,0,1,5,6,130448930,0,113729,0,0,5282,0,0,0,866497,866497,980226,967922,1021990,63713,0,1485144,1439270,392955,417280,0,0,0,0,0,0,0,0,0,0,0,Y,ART DIRECTORS CLUB,NEW YORK,NY,10003-1402,10003.0,36061,A25,A,,5602.0,5600.0,,,O,O,AR,A,0.46047,,A,IN,,Q,AR,AR,AR,Z99,A,,,199008,199008,1990,NY,10003.0,,A25,A,8,65.0,207.0,119.0,250 PARK AVE S,3.0,0.0,2000.0,,2.0,13.0,0.0,10.0,0.0,1.0,3807.0,,PC,O,AR,A,OUT,S,A25,A,611610.0
12168,990.0,059,6,1,1989,0,1,6,5,130452445,0,2523890,0,0,41094,0,0,0,62694,62694,2586584,2394122,235839,306250,0,679140,762821,635763,526982,0,0,0,0,0,0,0,0,0,0,0,N,AMER BUSINESS PRESS,NEW YORK,NY,10017-5704,10017.0,36061,A01,A,,5602.0,5600.0,,,O,O,AR,A,0.44097,,A,IN,,Q,AR,AR,AR,Z99,C,,,199006,199006,1990,NY,10017.0,,A0330,A,6,59.0,200.0,0.0,675 3RD AVE RM 415,3.0,0.0,2000.0,,2.0,13.0,0.0,10.0,0.0,1.0,3504.0,,PC,O,AR,A,OUT,S,S41,S,813910.0
12176,990.0,919,6,1,1989,0,1,6,6,130453230,0,3462905,0,0,74669,0,0,0,1432530,1432530,4895435,4685327,117140,661235,0,1868976,1735696,1961944,1618556,117140,0,0,0,0,0,0,0,0,0,0,N,ASSOC NAT ADVERTISERS,NEW YORK,NY,10017-4201,10017.0,36061,A30,A,,5602.0,5600.0,,,O,O,AR,A,0.49632,,A,IN,,Q,AR,AR,AR,Z99,C,,,199011,199011,1990,NY,10017.0,,S41,A,11,919.0,205.0,0.0,155 E 44TH ST,3.0,0.0,2000.0,,2.0,13.0,0.0,10.0,0.0,5.0,4208.0,,PC,O,AR,A,OUT,S,S41,S,813910.0
12186,990.0,298,4,1,1990,0,1,3,6,130508050,0,0,0,0,173755,0,0,0,82945,82945,82945,7561,1269402,0,0,1295485,1370869,101467,101467,1260417,0,0,0,0,0,0,0,0,0,0,N,BOHEMIAN BENEVOLENT & LITERARY ASSOC NEW YORK CITY,NEW YORK,NY,10021-3705,10021.0,36061,A70,A,,5602.0,5600.0,,,O,O,AR,A,0.19222999999999998,,A,IN,,Q,AR,AR,AR,Z99,C,,,199106,199106,1991,NY,10021.0,,A23,B,6,298.0,318.0,319.0,321 E 73RD ST,3.0,0.0,3000.0,JAN HIRD POKORNY PRESIDENT,2.0,13.0,0.0,10.0,0.0,5.0,6501.0,TY,PC,O,AR,A,OUT,S,A23,A,710000.0
12260,990.0,279,5,1,1990,0,1,5,4,130872850,0,662758,0,0,10414,0,0,0,84781,84781,747539,847353,221968,109084,0,322640,227810,858,5842,0,0,0,0,0,0,0,0,0,0,0,N,INTERNATIONAL ALLIANCE THEATRICAL STAGE EMP & MVG,NEW YORK,NY,10018-6505,10018.0,36061,A65,A,,5602.0,5600.0,,,O,O,AR,A,0.70455,,A,IN,,Q,AR,AR,AR,Z99,C,,,199105,199105,1991,NY,10018.0,,A65,A,5,279.0,268.0,0.0,505 EIGHTH AVE,9.0,0.0,3000.0,,2.0,13.0,0.0,10.0,386.0,5.0,4104.0,PIC MACH OP-US&CAN,PC,O,AR,A,OUT,S,J40,J,813930.0
12272,990.0,119,6,1,1989,0,1,6,6,130951470,0,1276276,0,0,162350,0,0,0,519218,519218,1795494,1749294,1230442,255114,0,1473024,1699540,287830,469098,0,0,0,0,0,2900,0,0,0,0,0,N,LEAGUE AMER THEATRES & PRODUCERS,NEW YORK,NY,10036-1413,10036.0,36061,A99,A,,5602.0,5600.0,,,O,O,AR,A,0.30219,,A,IN,,Q,AR,AR,AR,Z99,C,,,199008,199008,1990,NY,10036.0,,A0365,A,8,119.0,205.0,279.0,226 W 47TH ST,3.0,0.0,2000.0,,2.0,13.0,0.0,10.0,0.0,1.0,4210.0,,PC,O,AR,A,OUT,S,A0365,A,813920.0
12275,990.0,119,7,1,1989,9,1,4,3,130971750,7051,3753,0,0,77,0,0,0,252183,252183,262987,252761,33939,0,0,42614,43235,13245,9296,0,0,0,0,0,0,0,0,0,0,0,N,LIEDERKRANZ CITY NEW YORK,NEW YORK,NY,10128-0505,10128.0,36061,A6A,A,,5602.0,5600.0,,,O,O,AR,A,0.34988,,A,IN,,Q,AR,AR,AR,Z99,A,,,199006,199006,1990,NY,10128.0,,A6A,A,6,119.0,916.0,318.0,6 E 87TH ST,3.0,0.0,1000.0,,2.0,13.0,0.0,10.0,0.0,1.0,3907.0,,PC,O,AR,A,OUT,S,A6A,A,711130.0
12313,990.0,200,6,1,1990,0,1,7,6,131087160,151158,4998755,625925,512632,393864,0,0,0,2729930,2217298,7879843,8267297,4141956,1245841,0,3864077,4461159,0,319203,4141956,0,0,0,0,0,0,0,0,0,0,N,MAGAZINE PUBLISHERS AMERICA,NEW YORK,NY,10022-3801,10022.0,36061,A01,A,,5602.0,5600.0,,,O,O,AR,A,0.7844399999999999,,A,IN,,Q,AR,AR,AR,Z99,C,,,199012,199012,1990,NY,10022.0,,A33,A,12,200.0,0.0,0.0,919 THIRD AVE 22ND FL,3.0,0.0,2000.0,,2.0,13.0,0.0,10.0,0.0,1.0,4209.0,,PC,O,AR,A,OUT,S,A0333,A,813920.0
12326,990.0,200,6,1,1989,0,1,4,3,131101367,0,70704,0,0,4591,0,53060,-11546,97508,44448,168212,128891,42102,0,0,65231,94144,9390,52042,42102,0,0,0,0,0,0,0,0,0,0,Y,NEW YORK SOC ARCHITECTS,NEW YORK,NY,10001-6708,10001.0,36061,A01,A,,5602.0,5600.0,,,O,O,AR,A,0.18307,,A,IN,,Q,AR,AR,AR,Z99,C,,,199011,199011,1990,NY,10001.0,,A03,B,11,200.0,205.0,0.0,275 SEVENTH AVE 15TH FLR,3.0,0.0,2000.0,,2.0,13.0,0.0,10.0,0.0,1.0,4208.0,,PC,O,AR,A,OUT,S,A03,A,813920.0
12380,990.0,200,6,1,1990,0,1,5,5,131374145,0,265919,0,0,43690,0,0,0,283192,283192,549111,435007,515821,74302,0,530267,518408,0,2587,0,0,0,0,0,0,0,0,0,0,0,Y,TEXTILE DISTRIBUTORS ASSOC,NEW YORK,NY,10018-7904,10018.0,36061,A01,A,,5602.0,5600.0,,,O,O,AR,A,0.90171,,A,IN,,Q,AR,AR,AR,Z99,C,,,199012,199012,1990,NY,10018.0,,A40,A,12,200.0,279.0,0.0,45 W 36TH ST,3.0,0.0,2000.0,,2.0,13.0,0.0,10.0,0.0,1.0,4409.0,,PC,O,AR,A,OUT,S,A40,A,710000.0
12389,990.0,205,6,1,1990,0,1,6,5,131394480,0,629723,0,0,34497,0,5387,7090,390258,384871,1019981,1087461,47462,104330,0,609777,653960,489447,606497,0,0,0,0,0,0,0,0,0,0,0,N,TRAFFIC AUDIT BUREAU MEDIA MEASUREMENT,NEW YORK,NY,10170-2599,10170.0,36061,A01,A,,5602.0,5600.0,,,O,O,AR,A,0.9028799999999999,,A,IN,,Q,AR,AR,AR,Z99,C,,,199012,199012,1990,NY,10170.0,,A30,B,12,205.0,0.0,0.0,420 LEXINGTON AVE 2520,3.0,0.0,2000.0,,2.0,13.0,0.0,10.0,0.0,1.0,5501.0,,PC,O,AR,A,OUT,S,A30,A,510000.0
12399,990.0,263,5,1,1990,0,1,3,3,131406872,63210,0,0,0,64,0,0,0,64,64,63274,45174,7160,0,0,16200,26731,27140,19571,0,0,0,0,0,0,0,0,0,0,0,N,INTERNATIONAL ALLIANCE THEATRICAL STAGE EMP & MVG,NEW YORK,NY,10036-5701,10036.0,36061,A65,A,,5602.0,5600.0,,,O,O,AR,A,0.03845,,A,IN,,Q,AR,AR,AR,Z99,C,,,199012,199012,1990,NY,10036.0,,A65,A,12,263.0,0.0,0.0,1515 BROADWAY 601,9.0,0.0,3000.0,,2.0,13.0,0.0,10.0,386.0,5.0,4407.0,PIC MACH OP-US&CAN,PC,O,AR,A,OUT,S,A65,A,711110.0
12431,990.0,205,6,1,1988,0,1,6,5,131505524,0,433033,521269,497784,57592,0,51881,14234,671124,121459,1104157,710064,595628,76534,0,890303,805663,153687,210035,0,0,0,0,0,0,0,0,0,0,0,N,AMERICAN INSTITUTE OF ARCHITECTS N Y CHAPTER,NEW YORK,NY,10022-6830,10022.0,36061,A40,A,,5602.0,5600.0,,,O,O,AR,A,0.26247,,A,IN,,Q,AR,AR,AR,Z99,B,,,198812,198812,1988,NY,10022.0,,A40,B,12,205.0,40.0,279.0,200 LEXINGTON AVE RM 602,0.0,0.0,1000.0,,2.0,13.0,11.0,10.0,0.0,1.0,4208.0,N Y CHAPTER,PC,O,AR,A,OUT,S,A40,A,710000.0
12445,990.0,119,6,1,1990,0,1,3,3,131520977,0,40275,0,0,1542,0,0,0,1542,1542,41817,48014,59679,0,0,65876,59679,0,0,0,0,0,0,0,0,0,0,0,0,0,N,ART & ANTIQUE DEALERS LEAGUE AMERICA,NEW YORK,NY,10021-1313,10021.0,36061,A01,A,,5602.0,5600.0,,,O,O,AR,A,0.6251399999999999,,A,IN,,Q,AR,AR,AR,Z99,B,,,199109,199109,1991,NY,10021.0,,A0380,A,9,119.0,0.0,0.0,353 E 78TH ST,3.0,0.0,1000.0,,2.0,13.0,0.0,10.0,0.0,1.0,7601.0,,PC,O,AR,A,OUT,S,A0380,A,813920.0
12454,990.0,059,8,1,1990,0,1,3,2,131530748,1635,13099,0,0,0,0,0,0,40189,40189,54923,32472,14139,0,0,17028,14543,796,404,0,0,0,0,0,0,0,0,0,0,0,N,CINEMA RADIO TV UNIT 6000,NEW YORK,NY,10036-7209,10036.0,36061,A32,A,,5602.0,5600.0,,,O,O,AR,A,0.28888,,A,IN,,Q,AR,AR,AR,Z99,C,,,199012,199012,1990,NY,10036.0,,A32,A,12,59.0,29.0,349.0,229 W 42ND ST,9.0,0.0,1000.0,,1.0,13.0,0.0,20.0,947.0,5.0,4606.0,,PC,O,AR,A,OUT,S,A32,A,513120.0
12481,990.0,119,7,1,1989,0,1,5,4,131572247,0,163838,0,0,17373,0,222356,308961,557699,335343,721537,468044,320885,0,0,453655,482677,163907,161792,0,9775,0,0,0,0,0,0,0,0,0,N,METRO OPERA CLUB,NEW YORK,NY,10023-0000,10023.0,36061,A11,A,,5602.0,5600.0,,,O,S,ZA,A,0.79379,,A,IN,,Q,AR,AR,AR,Z99,A,,,199007,199007,1990,NY,10023.0,,A11,A,7,119.0,319.0,0.0,LINCOLN CENTER,3.0,0.0,1000.0,,2.0,13.0,0.0,10.0,0.0,1.0,4608.0,,PC,S,ZA,A,OUT,S,A11,A,813219.0
12491,990.0,919,6,1,1990,0,1,4,5,131583260,0,419073,0,0,47220,0,0,0,47220,47220,466293,438697,174209,154553,0,635119,736119,488506,561910,0,0,0,0,0,0,0,0,0,0,0,N,STATION REPRESENTATIVES ASSOC,NEW YORK,NY,10169-0005,10169.0,36061,A30,A,,5602.0,5600.0,,,O,O,AR,A,0.02,,A,IN,,Q,AR,AR,AR,Z99,C,,,199106,199106,1991,NY,10169.0,,A01,C,6,919.0,200.0,0.0,230 PARK AVE,3.0,0.0,2000.0,KATZ MEDIA J BELOYIANIS,2.0,13.0,0.0,10.0,0.0,1.0,6910.0,,PC,O,AR,A,OUT,S,A01,A,813319.0
12560,,908,4,0,1990,0,1,0,0,131673348,0,0,0,0,0,0,0,0,0,0,0,0,0,0,0,0,0,0,0,0,0,0,0,0,0,0,0,0,0,0,N,OLD GUARD CITY NEW YORK,NEW YORK,NY,10024-1001,10024.0,36061,A82,A,,5602.0,5600.0,,,O,O,AR,A,0.0873,,A,IN,,Q,AR,AR,AR,Z99,A,,,199102,199102,1991,NY,10024.0,,W20,C,2,908.0,0.0,0.0,307 W 91ST ST,3.0,0.0,3000.0,,2.0,13.0,0.0,10.0,0.0,1.0,5203.0,,PC,O,AR,A,OUT,S,W20,W,813410.0
12586,990.0,000,3,1,1990,9,1,3,2,131694606,53150,34609,0,0,133,0,0,0,133,133,87892,82020,13886,4050,0,8014,13998,0,112,13886,0,0,0,0,0,0,0,0,0,0,N,NEW REVIEW INC,NEW YORK,NY,10012-2608,10012.0,36061,A33,A,10012.0,5602.0,5600.0,36061.0,,PC,O,AR,A,0.2315,,A,IN,,Q,AR,AR,AR,Z99,A,,36061.0,199012,199012,1990,NY,10012.0,NEW YORK,A33,A,12,92.0,0.0,0.0,611 BROADWAY RM 842,3.0,0.0,1200.0,,1.0,13.0,16.0,10.0,0.0,1.0,9003.0,,PC,O,AR,A,IN,,A33,A,511100.0
12764,,319,4,0,1990,0,1,0,0,131769475,0,0,0,0,0,0,0,0,0,0,0,0,0,0,0,0,0,0,0,0,0,0,0,0,0,0,0,0,0,0,N,THEATRICAL MUTUAL ASSOC NEW YORK LODGE 1,NEW YORK,NY,10019-0000,10019.0,36061,A65,A,,5602.0,5600.0,,,O,O,AR,A,0.9052,,A,IN,,Q,AR,AR,AR,Z99,C,,,199012,199012,1990,NY,10019.0,,A65,B,12,319.0,0.0,0.0,211 W 53RD ST,3.0,0.0,3000.0,,2.0,13.0,0.0,20.0,0.0,1.0,5504.0,,PC,O,AR,A,OUT,S,A65,A,711110.0
12777,990.0,200,6,1,1989,0,1,4,4,131783842,0,289673,0,0,13674,0,0,0,13674,13674,303347,251074,141503,0,0,77398,130077,-11832,-11426,141503,0,0,0,0,0,0,0,0,0,0,N,ANTIQUARIAN BOOKSELLERS ASSOC AMERICA SHOP 2 CONCOURSE,NEW YORK,NY,10020-1605,10020.0,36061,A03,A,,5602.0,5600.0,,,O,O,AR,A,0.8221299999999999,,A,IN,,Q,AR,AR,AR,Z99,A,,,198912,198912,1989,NY,10020.0,,A0333,A,12,200.0,0.0,0.0,50 ROCKERFELLER PLAZA,3.0,0.0,2000.0,,2.0,13.0,0.0,10.0,0.0,1.0,5109.0,2 CONCOURSE,PC,O,AR,A,OUT,S,A0333,A,813920.0
12794,990.0,123,4,1,1990,0,1,4,2,131813049,92722,0,0,0,113,14163,0,0,45024,45024,137746,144216,-12394,25253,0,23003,22451,28927,34845,0,0,0,0,0,0,0,0,0,0,0,N,AMER COMM AFRICA,NEW YORK,NY,10038-4010,10038.0,36061,A70,A,,5602.0,5600.0,,,O,O,AR,A,0.17171,,A,IN,,Q,AR,AR,AR,Z99,C,,,199012,199012,1990,NY,10038.0,,A70,C,12,123.0,124.0,480.0,17 JOHN STREET 12TH FLOOR,3.0,0.0,3000.0,AFRICA ACTION,2.0,13.0,0.0,10.0,0.0,1.0,7911.0,,PC,O,AR,A,OUT,S,A70,A,710000.0
12809,990.0,205,6,1,1990,0,1,6,4,131830960,0,79363,0,0,19416,0,0,0,1164702,1164702,1244065,1125822,317772,0,0,291090,433241,91561,115469,0,0,0,0,0,0,0,0,0,0,0,Y,INTERNATIONAL RADIO AND TELEVISION SOCIETY INC,NEW YORK,NY,10170-0002,10170.0,36061,A32,A,,5602.0,5600.0,,,O,O,AR,A,0.64423,,A,IN,,Q,AR,AR,AR,Z99,C,,,199012,199012,1990,NY,10170.0,,A32,A,12,205.0,120.0,0.0,420 LEXINGTON AVE,3.0,,2000.0,,,,0.0,,,,5406.0,,PC,O,AR,A,OUT,S,A32,A,513120.0
12825,990.0,265,9,1,1989,0,1,6,6,131841248,0,0,85000,84299,72112,0,0,0,1147283,1062984,1147283,1114013,657334,0,0,1095732,1151035,387369,493701,0,0,0,0,0,0,0,0,0,0,0,N,INTL PHOTOGRAPHERS 644 WELFARE FND,NEW YORK,NY,10011-5126,10011.0,36061,A40,A,,5602.0,5600.0,,,O,O,AR,A,0.07045,,A,IN,,Q,AR,AR,AR,Z99,C,,,199008,199008,1990,NY,10011.0,,A40,A,8,265.0,0.0,0.0,505 EIGHTH AVE,3.0,0.0,1000.0,,2.0,13.0,0.0,10.0,0.0,5.0,5811.0,,PC,O,AR,A,OUT,S,A40,A,710000.0
12861,990.0,263,5,1,1990,0,1,4,3,131866133,0,151556,0,0,780,0,0,0,780,780,152336,151209,30525,0,0,35824,36383,6426,5858,30525,0,0,0,0,0,0,0,0,0,0,N,INTERNATIONAL ALLIANCE THEATRICAL STAGE EMP & MVG,NEW YORK,NY,10018-6505,10018.0,36061,A65,A,,5602.0,5600.0,,,O,O,AR,A,0.55075,,A,IN,,Q,AR,AR,AR,Z99,C,,,199012,199012,1990,NY,10018.0,,A65,A,12,263.0,0.0,0.0,505 EIGHTH AVE 16TH FLR,9.0,,3000.0,,,,0.0,,,,6205.0,PIC MACH OP-US&CAN,PC,O,AR,A,OUT,S,A65,A,711110.0
12965,990.0,205,6,1,1989,0,1,6,6,131951979,0,144816,0,0,105847,0,0,0,2188085,2188085,2332901,1982650,1549834,106667,0,1488916,1986114,289333,436280,0,0,0,0,0,0,0,0,0,0,0,Y,NAT ACAD TELEVISION ARTS & SCIENCES,NEW YORK,NY,10019-2211,10019.0,36061,A03,A,,5602.0,5600.0,,,O,O,AR,A,0.18445999999999999,,A,IN,,Q,AR,AR,AR,Z99,A,,,199008,199008,1990,NY,10019.0,,A0332,A,8,205.0,0.0,0.0,111 W 57TH ST,6.0,0.0,2000.0,,2.0,13.0,0.0,10.0,3005.0,5.0,7610.0,,PC,O,AR,A,OUT,S,A0332,A,813920.0
13019,990.0,920,6,1,1990,0,1,4,4,131996451,0,190000,0,0,41508,0,0,0,41594,41594,231594,227038,267345,99021,0,367046,399026,104256,131681,0,0,0,0,0,0,0,0,0,0,0,N,MEDIA RATING CNCL,NEW YORK,NY,10019-3211,10019.0,36061,A01,A,,5602.0,5600.0,,,O,O,AR,A,0.137,,A,IN,,Q,AR,AR,AR,Z99,C,,,199012,199012,1990,NY,10019.0,,A30,B,12,920.0,905.0,0.0,200 W 57TH ST STE 204,3.0,0.0,2000.0,,2.0,13.0,0.0,10.0,0.0,1.0,6512.0,,PC,O,AR,A,OUT,S,A30,A,510000.0
13075,990.0,205,6,1,1990,0,1,4,2,132562532,0,0,0,0,2386,0,0,0,260893,260893,260893,289535,19721,0,0,51088,23974,2725,4253,0,0,0,0,0,0,0,0,0,0,0,N,AMER SOC JOURNALISTS & AUTHORS,NEW YORK,NY,10036-5503,10036.0,36061,A01,A,,5602.0,5600.0,,,O,O,AR,A,0.31383,,A,IN,,Q,AR,AR,AR,Z99,C,,,199106,199106,1991,NY,10036.0,,A70,A,6,205.0,120.0,279.0,1501 BROADWAY,3.0,0.0,2000.0,,2.0,13.0,0.0,10.0,0.0,1.0,6801.0,,PC,O,AR,A,OUT,S,A70,A,710000.0
13094,990.0,267,17,1,1989,0,1,6,8,132576830,0,0,13992,0,1491726,0,0,0,1505718,1505718,1505718,694760,18702690,0,0,18246370,18952370,354638,249680,18702690,0,0,0,0,0,0,0,0,0,0,N,GRAPHIC ARTS INTL UNION LOC 119B NY PRNTRS LEAG SPCL DSPLCMT BNFT FND,NEW YORK,NY,10003-3305,10003.0,36061,A99,A,,5602.0,5600.0,,,O,O,AR,A,0.55323,,A,IN,,Q,AR,AR,AR,Z99,C,,,199006,199006,1990,NY,10003.0,,A40,C,6,267.0,0.0,0.0,27 UNION SQ RM 204,3.0,0.0,1000.0,,2.0,13.0,0.0,10.0,0.0,2.0,6803.0,PCL DSPLCMT BNFT FND,PC,O,AR,A,OUT,S,A1240,A,813219.0
13178,990.0,205,6,1,1990,0,1,6,5,132643358,0,51061,0,0,24284,0,0,0,1061444,1061444,1112505,981950,628305,0,0,546251,673588,48501,45283,0,0,0,0,0,0,0,0,0,0,0,N,THE ONE CLUB FOR ART & COPY,NEW YORK,NY,10010-7201,10010.0,36061,A40,A,10010.0,5602.0,5600.0,36061.0,,O,O,AR,A,0.73073,,A,IN,,Q,AR,AR,AR,Z99,C,,36061.0,199012,199012,1990,NY,10010.0,NEW YORK,A20,B,12,123.0,995.0,0.0,32 E 21ST ST,3.0,199607.0,1000.0,,1.0,13.0,16.0,10.0,0.0,1.0,9207.0,,PC,O,AR,A,IN,,A20,A,710000.0
13210,990.0,200,6,1,1990,0,1,4,4,132666239,0,912,0,0,0,0,0,0,345478,345478,346390,249361,88467,0,0,97126,110307,7696,21840,0,0,0,0,0,0,0,0,0,0,0,N,NEW YORK MARKET RADIO BROADCASTERS ASSOC,NEW YORK,NY,10017-5404,10017.0,36061,A01,A,,5602.0,5600.0,,,O,O,AR,A,0.53179,,A,IN,,Q,AR,AR,AR,Z99,C,,,199012,199012,1990,NY,10017.0,,A34,A,12,200.0,120.0,0.0,51 E 42ND ST 416,3.0,0.0,2000.0,,2.0,13.0,0.0,10.0,0.0,1.0,7101.0,,PC,O,AR,A,OUT,S,A34,A,513110.0
13280,990.0,200,6,1,1990,0,1,5,3,132760431,0,517606,0,0,2025,0,0,0,2025,2025,519631,479072,47919,0,0,7374,47919,15,0,47919,0,0,0,0,0,0,0,0,0,0,N,MEDIA COALITION,NEW YORK,NY,10038-2594,10038.0,36061,A01,A,,5602.0,5600.0,,,O,O,AR,A,0.9807,,A,IN,,Q,AR,AR,AR,Z99,C,,,199012,199012,1990,NY,10038.0,,A30,B,12,200.0,0.0,0.0,1221 AVE OF AMERICAS 24TH FLOOR,3.0,0.0,2000.0,,2.0,13.0,0.0,10.0,0.0,1.0,7407.0,,PC,O,AR,A,OUT,S,A30,A,510000.0
13306,990.0,200,6,1,1989,0,1,4,1,132806164,5976,163468,0,0,0,0,0,0,11777,11777,181221,181214,-7102,0,0,12006,9026,19115,16128,0,0,0,0,0,0,0,0,0,0,0,N,ASSOC INDEPENDENT VIDEO & FILMMAKERS,NEW YORK,NY,10013-1015,10013.0,36061,A03,A,,5602.0,5600.0,,,O,O,AR,A,0.27844,,A,IN,,Q,AR,AR,AR,Z99,A,,,199006,199006,1990,NY,10013.0,,A0331,A,6,200.0,123.0,119.0,625 BROADWA,3.0,0.0,2000.0,,2.0,13.0,0.0,10.0,0.0,1.0,7505.0,C,PC,O,AR,A,OUT,S,A0331,A,813920.0
13334,990.0,091,5,1,1989,8,1,4,2,132842726,80546,25853,0,0,1328,87497,0,0,219442,219442,325841,351817,-22521,0,0,44810,15399,42021,37920,0,0,0,0,0,0,0,0,0,0,0,N,CTR BOOK ARTS 1974,NEW YORK,NY,10012-2617,10012.0,36061,A40,A,,5602.0,5600.0,,,O,O,AR,A,0.80669,,A,IN,,Q,AR,AR,AR,Z99,A,,,198912,198912,1989,NY,10012.0,,A70,A,12,91.0,126.0,995.0,626 BROADWAY,3.0,0.0,1000.0,,1.0,13.0,16.0,10.0,0.0,1.0,7511.0,,PC,O,AR,A,OUT,S,A70,A,710000.0
13348,990.0,263,5,1,1990,0,1,9,8,132856736,0,582596,33047181,33047181,3997687,0,0,0,56661521,23614340,57244117,25876002,11022155,910517,0,14968739,12832081,2283591,1809926,0,0,0,0,0,0,0,0,0,0,0,N,AMALGAMATED CLOTHING & TEXTILE WORKERS UNION,NEW YORK,NY,10019-5254,10019.0,36061,A40,A,,5602.0,5600.0,,,O,O,AR,A,0.05509,,A,IN,,Q,AR,AR,AR,Z99,C,,,199012,199012,1990,NY,10019.0,,A40,A,12,263.0,261.0,279.0,15 UNION SQUARE,6.0,0.0,3000.0,,2.0,13.0,0.0,10.0,3084.0,2.0,7802.0,ACTWU,PC,O,AR,A,OUT,S,A40,A,710000.0
13349,990.0,200,6,1,1990,0,1,3,3,132857251,0,43114,0,0,1666,0,0,0,1666,1666,44780,33202,46328,0,0,34750,46328,0,0,0,0,0,0,0,0,0,0,0,0,0,N,DECORATIVE FABRICS ASSOC,LONG ISLAND CITY,NY,10013-1522,10013.0,36061,A01,A,,5602.0,5600.0,,,O,O,AR,A,0.16885999999999998,,A,IN,,Q,AR,AR,AR,Z99,C,,,199012,199012,1990,NY,10013.0,,A40,A,12,200.0,0.0,0.0,31 11 THOMSON AVE,3.0,0.0,2000.0,% LEE JOFA INC,2.0,11.0,0.0,10.0,0.0,1.0,7708.0,,PC,O,AR,A,OUT,S,A40,A,710000.0
13350,990.0,200,6,1,1990,0,1,4,4,132857274,0,139263,0,0,2709,0,9761,15758,87713,77952,226976,149034,44622,0,0,122566,160187,146125,115565,0,0,0,0,0,0,0,0,0,0,0,N,BOOK INDUSTRY STUDY GROUP,NEW YORK,NY,10010-7003,10010.0,36061,A05,A,,5602.0,5600.0,,,O,O,AR,A,0.67904,,A,IN,,Q,AR,AR,AR,Z99,A,,,199106,199106,1991,NY,10010.0,,A0533,A,6,200.0,209.0,0.0,160 FIFTH AVE 640,3.0,0.0,2000.0,% PASKUS GORDON & HYMAN,2.0,13.0,0.0,10.0,0.0,1.0,7609.0,,PC,O,AR,A,OUT,S,A0533,A,541720.0
13351,990.0,123,4,1,1989,0,1,4,3,132857308,0,97950,0,0,6692,0,0,0,11497,11497,109447,101757,73658,0,0,84036,83421,18068,9763,0,0,0,0,0,0,0,0,0,0,0,N,WOMENS FORUM,NEW YORK,NY,10017-6224,10017.0,36061,A70,A,,5602.0,5600.0,,,O,O,AR,A,0.8886299999999999,,A,IN,,Q,AR,AR,AR,Z99,C,,,199010,199010,1990,NY,10017.0,,R24,C,10,123.0,559.0,0.0,9 E 41ST ST,3.0,0.0,3000.0,,2.0,13.0,0.0,10.0,0.0,1.0,7602.0,,PC,O,AR,A,OUT,S,R24,R,813311.0
13353,990.0,264,9,1,1990,0,1,6,6,132861474,0,0,225000,227667,96110,0,0,0,4703022,4475355,4703022,2921056,2301446,0,0,2577872,3603884,1821689,1302438,2301446,0,0,0,0,0,0,0,0,0,0,N,LOCAL 15 ASSOC FILM CRAFTSMEN WELFARE FND,NEW YORK,NY,10019-3202,10019.0,36061,A31,A,,5602.0,5600.0,,,O,O,AR,A,0.36428,,A,IN,,Q,AR,AR,AR,Z99,C,,,199012,199012,1990,NY,10019.0,,A31,A,12,264.0,265.0,279.0,250 W 57TH ST,3.0,0.0,1000.0,% KING ADMINISTRATORS,2.0,13.0,0.0,20.0,0.0,2.0,7702.0,,PC,O,AR,A,OUT,S,A31,A,512110.0
13366,990.0,267,17,1,1989,0,1,7,6,132873008,0,0,7592355,7592917,186870,0,0,0,7779225,186308,7779225,90094,2368095,0,0,2232220,2382102,8378,14007,2368095,0,0,0,0,0,0,0,0,0,0,N,PRINTERS LEAGUE GRAPHIC ARTS INTNTL UNION LOC 43B SPEC DISPL BNFT FND,NEW YORK,NY,10003-3388,10003.0,36061,A99,A,,5602.0,5600.0,,,O,O,AR,A,0.85611,,A,IN,,Q,AR,AR,AR,Z99,C,,,199001,199001,1990,NY,10003.0,,A0333,A,1,267.0,0.0,0.0,27 UNION SQ RM 407,3.0,0.0,1000.0,,2.0,13.0,0.0,10.0,0.0,2.0,7608.0,SPEC DISPL BNFT FUND,PC,O,AR,A,OUT,S,A0333,A,813920.0
13458,990.0,000,6,1,1990,9,1,3,1,132918640,0,44617,0,0,461,0,0,0,461,461,45078,54764,8978,0,0,18664,8978,0,0,0,0,0,0,0,0,0,0,0,0,0,N,WOMENS MEDIA GROUP,NEW YORK,NY,10017-6102,10017.0,36061,A01,A,,5602.0,5600.0,,,O,O,AR,A,0.15355,,A,IN,,Q,AR,AR,AR,Z99,C,,,199012,199012,1990,NY,10017.0,,A30,B,12,205.0,0.0,0.0,501 5TH AVE 901,3.0,0.0,2000.0,% SHUBERT SILVER & ROSEN,2.0,13.0,0.0,10.0,0.0,1.0,9308.0,,PC,O,AR,A,OUT,S,A30,A,510000.0
13483,,091,4,0,1989,0,1,0,0,132931071,0,0,0,0,0,0,0,0,0,0,0,0,0,0,0,0,0,0,0,0,0,0,0,0,0,0,0,0,0,0,N,SOC ANIMAL ARTISTS,NEW YORK,NY,10003-4303,10003.0,36061,A20,A,,5602.0,5600.0,,,O,O,AR,A,0.65533,,A,IN,,Q,AR,AR,AR,Z99,C,,,198912,198912,1989,NY,10003.0,,A0340,A,12,91.0,126.0,0.0,47 FIFTH AVE,3.0,0.0,1000.0,,2.0,13.0,0.0,10.0,0.0,1.0,8306.0,,PC,O,AR,A,OUT,S,A0340,A,813920.0
13487,990.0,319,7,1,1990,0,1,3,3,132932563,100,1675,0,0,14562,0,0,0,34181,34181,35956,17071,74057,0,0,70311,74057,0,0,0,1675,0,0,0,0,0,0,0,0,0,N,METRO SOC KARDAMYLIANS,BROOKLYN,NY,11209-3601,11209.0,36047,A99,A,,5602.0,5600.0,,,O,O,AR,A,0.52068,,A,IN,,Q,AR,AR,AR,Z99,C,,,199012,199012,1990,NY,11209.0,,A99,C,12,119.0,123.0,0.0,7919 THIRD AVE,3.0,0.0,1000.0,,2.0,11.0,0.0,10.0,0.0,1.0,7805.0,LIVANOS,PC,O,AR,A,OUT,S,A99,A,710000.0
13553,,000,3,0,1989,0,1,0,0,132964947,0,0,0,0,0,0,0,0,0,0,0,0,0,0,0,0,0,0,0,0,0,0,0,0,0,0,0,0,0,0,N,INTERNATIONAL WOMENS WRITING GUILD,NEW YORK,NY,10028-0082,10028.0,36061,A70,A,10028.0,5602.0,5600.0,36061.0,,PC,O,AR,A,0.43966000000000005,,A,IN,,Q,AR,AR,AR,Z99,A,,36061.0,198912,198912,1989,NY,10028.0,NEW YORK,A70,A,12,92.0,0.0,0.0,BOX 810 GRACIE STA,3.0,0.0,1000.0,,1.0,13.0,16.0,10.0,0.0,1.0,9405.0,,PC,O,AR,A,IN,,A70,A,710000.0
13565,990.0,091,4,1,1990,0,1,5,3,132971627,0,0,0,0,2137,0,0,0,666832,666832,666832,667145,90463,72500,0,95413,97878,4637,7415,90463,0,0,0,0,0,0,0,0,0,0,N,AMER ARTS & CRAFTS ALLIANCE,CENTERPORT,NY,10168-1999,10168.0,36061,A20,A,,5602.0,5600.0,,,O,O,AR,A,0.27237,,A,IN,,Q,AR,AR,AR,Z99,A,,,199012,199012,1990,NY,10168.0,,A0140,A,12,91.0,0.0,0.0,PO BOX 241,3.0,0.0,3000.0,% ALAN FELL,2.0,13.0,0.0,10.0,0.0,1.0,7907.0,,PC,O,AR,A,OUT,S,A0140,A,813319.0
13608,,205,6,0,1989,0,1,0,0,132990527,0,0,0,0,0,0,0,0,0,0,0,0,0,0,0,0,0,0,0,0,0,0,0,0,0,0,0,0,0,0,N,MUSIC PUBLISHERS ASSOC UNITED STATES,NEW YORK,NY,10017-4014,10017.0,36061,A01,A,,5602.0,5600.0,,,O,O,AR,A,0.28953,,A,IN,,Q,AR,AR,AR,Z99,C,,,199005,199005,1990,NY,10017.0,,A68,A,5,205.0,0.0,0.0,205 E 42ND ST,3.0,0.0,2000.0,,2.0,13.0,0.0,10.0,0.0,1.0,7910.0,INC,PC,O,AR,A,OUT,S,A68,A,711130.0
13660,990.0,000,3,1,1990,9,1,3,2,133019799,37695,0,0,0,0,0,0,0,35515,35515,73210,59028,16599,0,0,4192,16599,1775,0,0,0,0,0,0,0,0,0,0,0,0,N,NEW LIFE DANCE INC,NEW YORK,NY,10009-0834,10009.0,36061,A62,A,10009.0,5602.0,5600.0,36061.0,,PC,O,AR,A,0.11259000000000001,,A,IN,,Q,AR,AR,AR,Z99,A,,36061.0,199012,199012,1990,NY,10009.0,NEW YORK,A62,A,12,995.0,90.0,0.0,PO BOX 834,3.0,0.0,1000.0,,1.0,13.0,16.0,10.0,0.0,1.0,8008.0,,PC,O,AR,A,IN,,A62,A,711120.0
13664,990.0,064,4,1,1990,0,1,3,2,133021168,30500,0,0,0,0,0,0,0,41167,41167,71667,57586,15309,0,0,49026,15309,11450,0,0,0,0,0,0,0,0,0,0,0,0,Y,COMITE DEL DESFILE DE LA HISPANIDAD,NEW YORK,NY,10010-0000,10010.0,36061,A84,A,,5602.0,5600.0,,,O,O,AR,A,0.63967,,A,IN,,Q,AR,AR,AR,Z99,C,,,199102,199102,1991,NY,10010.0,,A84,C,2,64.0,90.0,92.0,174 176 5TH AVE SUITE 401,3.0,0.0,3000.0,,2.0,13.0,0.0,10.0,0.0,1.0,8005.0,,PC,O,AR,A,OUT,S,A84,A,712120.0
13704,990.0,000,4,1,1990,7,1,4,3,133036753,54262,0,0,0,0,397,0,0,90109,90109,144371,105592,44634,0,0,5855,44634,0,0,0,0,0,0,0,0,0,0,0,0,0,N,BOND STREET THEATRE COALITION,NEW YORK,NY,10012-2308,10012.0,36061,A65,A,,5602.0,5600.0,,,O,O,AR,A,0.28663,,A,IN,,Q,AR,AR,AR,Z99,A,,,199012,199012,1990,NY,10012.0,,A65,A,12,0.0,0.0,0.0,2 BOND ST,3.0,0.0,3000.0,,0.0,13.0,0.0,10.0,0.0,5.0,0.0,,PC,O,AR,A,OUT,S,A65,A,711110.0
13839,,090,5,0,1990,0,1,0,0,133087478,0,0,0,0,0,0,0,0,0,0,0,0,0,0,0,0,0,0,0,0,0,0,0,0,0,0,0,0,0,0,N,SAFARI EAST CULTURAL PRESENTATIONS,NEW YORK,NY,10016-7923,10016.0,36061,A68,A,,5602.0,5600.0,,,O,O,AR,A,0.87785,,A,IN,,Q,AR,AR,AR,Z99,A,,,199108,199108,1991,NY,10016.0,,A68,A,8,90.0,0.0,0.0,141 W 28TH ST 302,3.0,0.0,1000.0,,1.0,13.0,15.0,10.0,0.0,1.0,8110.0,,PC,O,AR,A,OUT,S,A68,A,711130.0
13856,990.0,091,4,1,1990,0,1,3,2,133093349,15463,59067,0,0,354,0,0,0,14616,14616,89146,94245,17717,0,0,25523,19657,5151,1940,0,0,0,0,0,0,0,0,0,0,0,N,SOHO 20 ARTISTS INC,NEW YORK,NY,10013-2294,10013.0,36061,A40,A,10013.0,5602.0,5600.0,36061.0,,O,O,AR,A,0.40828000000000003,,A,IN,,Q,AR,AR,AR,Z99,C,,36061.0,199012,199012,1990,NY,10013.0,NEW YORK,A40,B,12,91.0,0.0,0.0,469 BROOME ST,3.0,0.0,3000.0,,1.0,13.0,15.0,10.0,0.0,1.0,8905.0,,PC,O,AR,A,IN,,A99,A,710000.0
13861,,123,6,0,1990,0,1,0,0,133094056,0,0,0,0,0,0,0,0,0,0,0,0,0,0,0,0,0,0,0,0,0,0,0,0,0,0,0,0,0,0,N,PACIFIC INTELLECTUAL PROPERTY ASSOC,NEW YORK,NY,10163-3477,10163.0,36061,A70,A,,5602.0,5600.0,,,O,O,AR,A,0.28818,,A,IN,,Q,AR,AR,AR,Z99,C,,,199103,199103,1991,NY,10163.0,,S03,C,3,123.0,0.0,0.0,PO BOX 3477 GRAND CENTRAL STA,3.0,0.0,2000.0,,2.0,13.0,0.0,20.0,0.0,5.0,8201.0,,PC,O,AR,A,OUT,S,S03,S,813920.0
13904,990.0,123,4,1,1990,0,1,4,4,133109557,66563,121506,0,0,18399,31452,0,0,131231,131231,319300,195253,385066,23255,0,339556,432710,27212,47644,0,0,0,0,0,0,0,0,0,0,0,N,DEMOCRATIC SOCIALISTS AMERICA,NEW YORK,NY,10014-4606,10014.0,36061,A70,A,,5602.0,5600.0,,,O,O,AR,A,0.73146,,A,IN,,Q,AR,AR,AR,Z99,C,,,199012,199012,1990,NY,10014.0,,A70,C,12,123.0,521.0,0.0,180 VARICK ST,3.0,0.0,3000.0,,2.0,13.0,0.0,10.0,0.0,1.0,8807.0,,PC,O,AR,A,OUT,S,V24,V,541720.0
13911,990.0,119,4,1,1990,9,1,3,3,133112767,0,34882,0,0,4302,0,0,0,4490,4490,39372,41856,49937,0,0,56145,54955,3723,5018,49937,0,0,0,0,0,0,0,0,0,0,N,INTL CNCL TRADITIONAL MUSIC,NEW YORK,NY,10027-0000,10027.0,36061,A68,A,,5602.0,5600.0,,,O,O,AR,A,0.24228000000000002,,A,IN,,Q,AR,AR,AR,Z99,C,,,199012,199012,1990,NY,10027.0,,A68,A,12,119.0,93.0,0.0,DEPT OF MUSIC COLUMBIA UNIVERSITY,3.0,0.0,1000.0,% DEPT OF MUSIC COLUMBIA UNIVERSITY,2.0,13.0,0.0,10.0,0.0,5.0,8602.0,,PC,O,AR,A,OUT,S,A68,A,711130.0
13937,990.0,200,6,1,1990,0,1,5,4,133119551,0,500000,0,0,6558,0,0,0,6558,6558,506558,357482,211815,115417,0,70793,215939,3747,4124,0,0,0,0,0,0,0,0,0,0,0,N,RADIO NETWORK ASSOC,NEW YORK,NY,10017-5613,10017.0,36061,A34,A,,5602.0,5600.0,,,O,O,AR,A,0.9337799999999999,,A,IN,,Q,AR,AR,AR,Z99,C,,,199012,199012,1990,NY,10017.0,,A34,A,12,200.0,121.0,0.0,100 E 42ND ST,3.0,0.0,1000.0,,2.0,13.0,0.0,10.0,0.0,1.0,8309.0,,PC,O,AR,A,OUT,S,A34,A,513110.0
13950,990.0,120,6,1,1990,0,1,6,5,133124063,0,982595,0,0,26873,0,0,0,1188781,1188781,2171376,2171376,0,0,0,672014,778278,672014,778278,0,0,0,0,0,0,0,0,0,0,0,N,AMER PAYROLL INST,NEW YORK,NY,10016-5337,10016.0,36061,A33,A,,5602.0,5600.0,,,O,O,AR,A,0.52405,,A,IN,,Q,AR,AR,AR,Z99,C,,,199012,199012,1990,NY,10016.0,,S41,A,12,120.0,205.0,209.0,30 E 33RD ST,3.0,0.0,1000.0,,1.0,13.0,0.0,10.0,0.0,1.0,8407.0,STITUTE INC,PC,O,AR,A,OUT,S,S41,S,813910.0
13971,990.0,229,6,1,1990,9,1,4,3,133131629,0,73389,0,0,1344,0,0,0,137184,137184,210573,201327,57183,52959,0,51464,63658,3527,6475,0,0,0,0,0,0,0,0,0,0,0,N,ADVERTISING PHOTOGRAPHER AMERICA,NEW YORK,NY,10011-3707,10011.0,36061,A01,A,,5602.0,5600.0,,,O,O,AR,A,0.98449,,A,IN,,Q,AR,AR,AR,Z99,C,,,199105,199105,1991,NY,10011.0,,A40,A,5,229.0,0.0,0.0,27 W 20TH ST RM 601,3.0,0.0,1000.0,,2.0,13.0,0.0,10.0,0.0,1.0,8410.0,,PC,O,AR,A,OUT,S,A40,A,710000.0
13994,990.0,200,6,1,1990,0,1,4,4,133137480,0,147792,0,0,16406,0,0,0,245425,245425,393217,409060,208748,52000,0,316217,343507,91626,134759,0,0,0,0,0,0,0,0,0,0,0,N,KNITTED TEXTILE ASSOC,NEW YORK,NY,10016-8804,10016.0,36061,A01,A,,5602.0,5600.0,,,O,O,AR,A,0.9743,,A,IN,,Q,AR,AR,AR,Z99,C,,,199012,199012,1990,NY,10016.0,,A40,A,12,200.0,229.0,0.0,386 PARK AVE S,3.0,0.0,2000.0,,2.0,13.0,0.0,10.0,0.0,5.0,8301.0,,PC,O,AR,A,OUT,S,A40,A,710000.0
14036,,279,9,0,1989,0,1,0,0,133160506,0,0,0,0,0,0,0,0,0,0,0,0,0,0,0,0,0,0,0,0,0,0,0,0,0,0,0,0,0,0,N,SHER WOVEN COMPANY INC EMPLOYEES BENEFIT TRUST,NEW YORK,NY,10018-6203,10018.0,36061,A40,A,,5602.0,5600.0,,,O,O,AR,A,0.61157,,A,IN,,Q,AR,AR,AR,Z99,C,,,198912,198912,1989,NY,10018.0,,A40,A,12,279.0,0.0,0.0,62 W 38TH ST,3.0,,1000.0,,,,0.0,,,,8308.0,,PC,O,AR,A,OUT,S,A40,A,710000.0
14109,990.0,205,6,1,1990,0,1,3,2,133190575,0,52119,0,0,1060,0,0,0,2409,2409,54528,67819,18511,0,0,32304,20027,502,1516,0,0,0,0,0,0,0,0,0,0,0,N,AMER SOC MEDIA PHOTOGRAPHERS,NEW YORK,NY,10003-4767,10003.0,36061,A01,A,,5602.0,5600.0,,,O,O,AR,A,0.9226,,A,IN,,Q,AR,AR,AR,Z99,C,,,199012,199012,1990,NY,10003.0,,A40,A,12,205.0,0.0,0.0,853 BROADWAY STE 803,9.0,0.0,2000.0,,2.0,13.0,0.0,10.0,9167.0,5.0,8803.0,NEW YORK ASMP,PC,O,AR,A,OUT,S,A40,A,710000.0
14151,990.0,000,3,1,1988,7,1,3,3,133206226,66872,0,0,0,3058,15430,0,0,3058,3058,69930,69226,38364,0,0,37704,38448,44,84,0,0,0,0,0,0,0,0,0,0,0,N,UKRAINIAN AMERICAN COORDINATING COUNCIL INC,NEW YORK,NY,10003-8385,10003.0,36061,A23,A,,5602.0,5600.0,,,PC,O,AR,A,0.79379,,A,IN,,Q,AR,AR,AR,Z99,C,,,198910,198910,1989,,,,A23,A,10,0.0,0.0,0.0,142 2ND AVE STE 304,3.0,0.0,2.0,,1.0,1.0,15.0,20.0,0.0,1.0,200103.0,,PC,O,AR,A,OUT,S,A23,A,710000.0
14152,,200,6,0,1990,0,1,0,0,133206933,0,0,0,0,0,0,0,0,0,0,0,0,0,0,0,0,0,0,0,0,0,0,0,0,0,0,0,0,0,0,N,AMER FEDERATION VIOLIN & BOW MAKERS,STATEN ISLAND,NY,10301-1512,10301.0,36085,A01,A,,5602.0,5600.0,,,O,O,AR,A,0.06826,,A,IN,,Q,AR,AR,AR,Z99,C,,,199012,199012,1990,NY,10301.0,,A68,A,12,200.0,205.0,229.0,288 RICHMOND TER,3.0,0.0,1000.0,% JACQUES FRANCAIS,2.0,13.0,0.0,10.0,0.0,1.0,8712.0,,PC,O,AR,A,OUT,S,A68,A,711130.0
14163,990.0,200,6,1,1990,0,1,6,4,133212090,1391849,0,0,0,17315,0,0,0,17315,17315,1409164,2725585,-1810286,142000,0,380824,169727,874689,1980013,0,0,0,0,0,0,0,0,0,0,0,N,TELEVISON MUSIC LICENSE COMM,NEW YORK,NY,10022-5403,10022.0,36061,A01,A,,5602.0,5600.0,,,O,O,AR,A,0.59917,,A,IN,,Q,AR,AR,AR,Z99,C,,,199012,199012,1990,NY,10022.0,,A0368,A,12,200.0,0.0,0.0,515 MADISON AVE STE 912,3.0,0.0,1000.0,,2.0,13.0,0.0,10.0,0.0,5.0,8408.0,ITTEE,PC,O,AR,A,OUT,S,A0368,A,813920.0
14172,,263,5,0,1990,0,1,0,0,133214820,0,0,0,0,0,0,0,0,0,0,0,0,0,0,0,0,0,0,0,0,0,0,0,0,0,0,0,0,0,0,N,AMALGAMATED CLOTHING & TEXTILE WORKERS UNION,NEW YORK,NY,10011-6849,10011.0,36061,A40,A,,5602.0,5600.0,,,O,O,AR,A,0.8464299999999999,,A,IN,,Q,AR,AR,AR,Z99,C,,,199012,199012,1990,NY,10011.0,,A40,A,12,263.0,261.0,279.0,31 W 15TH ST,9.0,,3000.0,,,,0.0,,,,7802.0,,PC,O,AR,A,OUT,S,A40,A,710000.0
14180,,030,5,0,1990,0,1,0,0,133216947,0,0,0,0,0,0,0,0,0,0,0,0,0,0,0,0,0,0,0,0,0,0,0,0,0,0,0,0,0,0,N,ASSOC ADV CREATIVE MUSICIANS NYC CHAPTER,NEW YORK,NY,10108-0187,10108.0,36061,A60,A,,5602.0,5600.0,,,O,O,AR,A,0.3304,,A,IN,,Q,AR,AR,AR,Z99,C,,,199012,199012,1990,NY,10108.0,,A0168,A,12,30.0,0.0,0.0,PO BOX 187 TIMES SQ STA,3.0,0.0,1000.0,,1.0,13.0,15.0,10.0,0.0,1.0,8507.0,ANS NYC CHAPTER INC,PC,O,AR,A,OUT,S,A0168,A,813319.0
14316,990.0,205,6,1,1989,0,1,3,3,133300462,0,85524,0,0,2889,84675,0,0,4389,4389,89913,84676,81783,0,0,84395,82806,47443,1023,9848,0,0,0,0,0,0,0,0,0,0,N,NEW YORK ARTISTS EQUITY ASSOCIATION INC,NEW YORK,NY,10013-2213,10013.0,36061,A03,A,10013.0,5602.0,5600.0,36061.0,,O,O,AR,A,0.29615,,A,IN,,Q,AR,AR,AR,Z99,A,,36061.0,198912,198912,1989,NY,10013.0,NEW YORK,A0340,A,12,200.0,0.0,0.0,498 BROOME ST,3.0,0.0,2000.0,,1.0,13.0,15.0,10.0,0.0,1.0,9201.0,,PC,O,AR,A,IN,,A0340,A,813920.0
14373,,328,4,0,1990,0,1,0,0,133347752,0,0,0,0,0,0,0,0,0,0,0,0,0,0,0,0,0,0,0,0,0,0,0,0,0,0,0,0,0,0,N,STATUS LIBERTY SKATING INST AT GATEWAY,STATEN ISLAND,NY,10304-2921,10304.0,36085,A20,A,,5602.0,5600.0,,,O,O,AR,A,0.0205,,A,IN,,Q,AR,AR,AR,Z99,C,,,199012,199012,1990,NY,10304.0,,A03,A,12,328.0,0.0,0.0,53 ROCHELLE ST,3.0,0.0,3000.0,,2.0,13.0,0.0,20.0,0.0,1.0,8812.0,,PC,O,AR,A,OUT,S,A03,A,813920.0
14404,,089,5,0,1990,0,1,0,0,133357729,0,0,0,0,0,0,0,0,0,0,0,0,0,0,0,0,0,0,0,0,0,0,0,0,0,0,0,0,0,0,N,COOPER OPERA WORKS,NEW YORK,NY,10034-3043,10034.0,36061,A6A,A,,5602.0,5600.0,,,O,O,AR,A,0.5,,A,IN,,Q,AR,AR,AR,Z99,C,,,199106,199106,1991,NY,10034.0,,A6A,A,6,89.0,90.0,0.0,60 COOPER STREET APT 3A,3.0,0.0,1000.0,,1.0,13.0,16.0,20.0,0.0,1.0,8611.0,,PC,O,AR,A,OUT,S,A6A,A,711130.0
14451,,063,5,0,1989,0,1,0,0,133385878,0,0,0,0,0,0,0,0,0,0,0,0,0,0,0,0,0,0,0,0,0,0,0,0,0,0,0,0,0,0,N,ELEANOR ROOSEVELT MONUMENT FUND INC,NEW YORK,NY,10038-4003,10038.0,36061,A80,A,10038.0,5602.0,5600.0,36061.0,,O,O,AR,A,0.2821,,A,IN,,Q,AR,AR,AR,Z99,A,,36061.0,198912,198912,1989,NY,10038.0,NEW YORK,A80,A,12,63.0,0.0,0.0,15 MAIDEN LN 1104,3.0,0.0,2000.0,,1.0,13.0,15.0,10.0,0.0,1.0,9206.0,,PC,O,AR,A,IN,,A80,A,712120.0
14457,,402,5,0,1989,0,1,0,0,133389566,0,0,0,0,0,0,0,0,0,0,0,0,0,0,0,0,0,0,0,0,0,0,0,0,0,0,0,0,0,0,N,THE HISTORIC DISTRICTS COUNCIL INC,NEW YORK,NY,10023-6257,10023.0,36061,A80,A,10023.0,5602.0,5600.0,36061.0,,O,O,AR,A,0.30549,,A,IN,,Q,AR,AR,AR,Z99,A,,36061.0,198912,198912,1989,NY,10023.0,NEW YORK,A82,B,12,602.0,0.0,0.0,45 W 67TH ST,3.0,199003.0,1000.0,,1.0,13.0,15.0,10.0,0.0,1.0,8703.0,,PC,O,AR,A,IN,,A82,A,
14506,990.0,200,6,1,1990,0,1,5,5,133414554,0,691709,0,0,46372,0,20267,11972,82656,62389,774365,744754,737511,104909,0,740435,760312,12268,22801,737511,0,0,0,0,0,0,0,0,0,0,N,THOROUGHBRED RACING COMMUNICATIONS,NEW YORK,NY,10022-5911,10022.0,36061,A30,A,,5602.0,5600.0,,,O,O,AR,A,0.22838000000000003,,A,IN,,Q,AR,AR,AR,Z99,C,,,199012,199012,1990,NY,10022.0,,A30,A,12,200.0,0.0,0.0,40 E 52ND ST,3.0,0.0,1000.0,,2.0,13.0,0.0,10.0,0.0,1.0,8809.0,,PC,O,AR,A,OUT,S,A30,A,510000.0
14527,990.0,000,3,1,1990,0,1,3,1,133422660,0,0,0,0,900,0,0,0,98277,98277,98277,94037,5527,0,0,1287,5527,0,0,0,0,0,0,0,0,0,0,0,0,0,N,E N A C T INC,NEW YORK,NY,10012-2621,10012.0,36061,A65,A,10012.0,5602.0,5600.0,36061.0,,PC,O,AR,A,0.42586999999999997,,A,IN,,Q,AR,AR,AR,Z99,A,,36061.0,199012,199012,1990,NY,10012.0,NEW YORK,A65,A,12,88.0,0.0,0.0,622 BROADWAY - 5A,3.0,0.0,1000.0,% DIANA FELDMAN,1.0,13.0,16.0,10.0,0.0,1.0,8709.0,,PC,O,AR,A,IN,,A65,A,711110.0
14529,,000,3,0,1988,0,1,0,0,133422981,0,0,0,0,0,0,0,0,0,0,0,0,0,0,0,0,0,0,0,0,0,0,0,0,0,0,0,0,0,0,N,ROCKAWAY IRISH CULTURAL COMMITTEE INC,ROCKAWAY PARK,NY,11694-2515,11694.0,36081,A84,A,11694.0,5602.0,5600.0,36081.0,,PC,O,AR,A,0.34693,,A,IN,,Q,AR,AR,AR,Z99,C,,36081.0,198812,198812,1988,NY,11694.0,ROCKAWAY PARK,A23,A,12,602.0,64.0,90.0,108 03 ROCKAWAY BEACH DR,3.0,0.0,1200.0,,1.0,11.0,16.0,10.0,0.0,1.0,9405.0,,PC,O,AR,A,IN,,A23,A,710000.0
14603,990.0,000,0,1,1990,7,1,3,2,133449417,23025,11865,0,0,394,0,0,0,37956,37956,72846,45649,13084,0,0,6369,21787,6470,8703,0,0,0,0,0,0,0,0,0,0,0,N,ARCHITECTS DESIGNERS PLANNERS SOC RESPON,,NY,10010,10010.0,36061,A03,A,,5602.0,5600.0,,,U,O,AR,A,0.5052800000000001,,A,IN,,Q,AR,AR,AR,Z99,A,,,199012,199012,1990,NY,10010.0,,A03,A,12,,,,,,,,,,,,,,,,,PC,O,AR,A,OUT,S,A03,A,813920.0
14659,990.0,000,3,1,1989,10,1,3,3,133471757,650,0,0,0,0,0,0,0,80502,80502,81152,59293,32910,0,0,11050,32910,0,0,0,0,0,0,0,0,0,0,0,0,0,N,HIPS ROAD INC,NEW YORK,NY,10003-6494,10003.0,36061,A12,A,10003.0,5602.0,5600.0,36061.0,,PC,S,ZB,A,0.04782,,A,IN,,Q,AR,AR,AR,Z99,C,,36061.0,198912,198912,1989,NY,10003.0,NEW YORK,A60,A,12,995.0,90.0,119.0,61 E 8TH ST STE 126,3.0,199612.0,2000.0,S NOLE CPA,1.0,13.0,16.0,10.0,0.0,1.0,9303.0,,PC,S,ZB,A,IN,,A60,A,711100.0
14708,990.0,263,5,1,1990,0,1,4,6,133490112,0,0,0,0,92423,0,0,0,382146,382146,382146,375612,1183711,0,0,1177178,1183711,0,0,0,0,0,0,0,0,0,0,0,0,0,N,AMALGAMATED CLOTHING & TEXTILE WORKERS UNION,NEW YORK,NY,10011-6849,10011.0,36061,A40,A,,5602.0,5600.0,,,O,O,AR,A,0.11292,,A,IN,,Q,AR,AR,AR,Z99,C,,,199012,199012,1990,NY,10011.0,,A40,A,12,263.0,261.0,279.0,31 W 15TH ST,9.0,0.0,3000.0,,2.0,13.0,0.0,10.0,3084.0,5.0,7802.0,NY JT BD COMBINED LOC TR,PC,O,AR,A,OUT,S,A40,A,710000.0
14870,,000,3,0,1990,0,1,0,0,133544590,0,0,0,0,0,0,0,0,0,0,0,0,0,0,0,0,0,0,0,0,0,0,0,0,0,0,0,0,0,0,N,BASIC THEATRE INCORPORATED,NEW YORK,NY,10101-0434,10101.0,36061,A65,A,10101.0,5602.0,5600.0,36061.0,,PC,O,AR,A,0.98774,,A,IN,,Q,AR,AR,AR,Z99,B,,36061.0,199012,199012,1990,NY,10101.0,NEW YORK,A65,B,12,88.0,0.0,0.0,RADIO CITY STA BOX 434,3.0,0.0,2000.0,% DELAINE,1.0,13.0,15.0,10.0,0.0,1.0,9004.0,,PC,O,AR,A,IN,,A65,A,711110.0
14883,990.0,000,3,1,1989,7,1,3,3,133547386,50458,0,0,0,0,0,0,0,0,0,50458,56583,-6125,0,0,0,44579,0,50704,0,0,0,0,0,0,0,0,0,0,0,N,TROLLOPE SOCIETY,NEW YORK,NY,10017-1920,10017.0,36061,A70,A,10017.0,5602.0,5600.0,36061.0,,PC,O,AR,A,0.85895,,A,IN,,Q,AR,AR,AR,Z99,A,,36061.0,198912,198912,1989,NY,10017.0,NEW YORK,A70,A,12,92.0,0.0,0.0,17 E 47TH ST,3.0,0.0,2000.0,,1.0,13.0,15.0,10.0,0.0,1.0,9404.0,,PC,O,AR,A,IN,,A70,A,710000.0
14899,990.0,040,4,1,1990,7,1,5,3,133550709,480835,0,0,0,0,0,0,0,68547,68547,549382,567658,-21433,0,0,0,38747,0,60180,0,0,0,0,0,0,0,0,0,0,0,N,ATLED,ARVERNE,NY,11692-1824,11692.0,36081,A70,A,,5602.0,5600.0,,,O,O,AR,A,0.47681,,A,IN,,Q,AR,AR,AR,Z99,B,,,199012,199012,1990,NY,11692.0,,P33,A,12,40.0,0.0,0.0,148 BEACH 59TH ST,3.0,0.0,1000.0,GAIL LAWRENCE,1.0,11.0,15.0,10.0,0.0,1.0,9106.0,LUCILLE ROSE DCC,PC,O,AR,A,OUT,S,P33,P,624410.0
14901,990.0,123,5,1,1990,9,1,3,2,133551716,980,0,0,0,1012,0,0,0,40269,40269,41249,36250,20360,23188,0,16142,20360,781,0,0,0,0,0,0,0,0,0,0,0,0,Y,ARTS CRAFTS AND THEATER SAFETY INC,NEW YORK,NY,10012-2586,10012.0,36061,A65,A,10012.0,5602.0,5600.0,36061.0,,O,O,AR,A,0.75022,,A,IN,,Q,AR,AR,AR,Z99,B,,36061.0,199012,199012,1990,NY,10012.0,NEW YORK,A65,A,12,123.0,0.0,0.0,181 THOMPSON ST APT 23,3.0,0.0,1000.0,% ROSSOL,1.0,13.0,16.0,10.0,0.0,1.0,9310.0,,PC,O,AR,A,IN,,A65,A,711110.0
14912,990.0,000,3,1,1990,7,1,4,1,133553683,400000,0,0,0,554,0,0,0,554,554,400554,400022,532,0,0,0,532,0,0,0,0,0,0,0,0,0,0,0,0,0,N,OPERA DE PARIS FOUNDATION INC,NEW YORK,NY,10022-4611,10022.0,36061,A99,A,10022.0,5602.0,5600.0,36061.0,,PF,O,AR,A,0.24566999999999997,,A,IN,,Q,AR,AR,AR,Z99,C,,36061.0,199012,199012,1990,NY,10022.0,NEW YORK,A6A,A,12,90.0,0.0,0.0,153 E 53RD ST,3.0,0.0,1000.0,% WILLKIE FARR & GALLAGHER,1.0,13.0,4.0,1.0,0.0,1.0,9004.0,,PC,O,AR,A,IN,,A6A,A,711130.0
14921,,000,3,0,1990,0,1,0,0,133557369,0,0,0,0,0,0,0,0,0,0,0,0,0,0,0,0,0,0,0,0,0,0,0,0,0,0,0,0,0,0,N,MARY CASSATT FOUNDATION INC,NEW YORK,NY,10022-1108,10022.0,36061,A70,A,10022.0,5602.0,5600.0,36061.0,,PC,O,AR,A,0.64395,,A,IN,,Q,AR,AR,AR,Z99,B,,36061.0,199012,199012,1990,NY,10022.0,NEW YORK,A70,B,12,92.0,0.0,0.0,502 PARK AVE,3.0,0.0,1000.0,,1.0,13.0,15.0,1.0,0.0,1.0,9007.0,,PC,O,AR,A,IN,,A70,A,710000.0
14932,,000,3,0,1990,0,1,0,0,133560519,0,0,0,0,0,0,0,0,0,0,0,0,0,0,0,0,0,0,0,0,0,0,0,0,0,0,0,0,0,0,N,SHANTI CULTURAL DYNAMICS INC,RIVERDALE,NY,10471-1317,10471.0,36005,A99,A,10471.0,5602.0,5600.0,36005.0,,PC,O,AR,A,0.44536000000000003,,A,IN,,Q,AR,AR,AR,Z99,C,,36005.0,199012,199012,1990,NY,10471.0,RIVERDALE,A23,B,12,560.0,0.0,0.0,5900 ARLINGTON AVE 16-S,3.0,0.0,1000.0,% RAO-SHANTHA,1.0,13.0,15.0,1.0,0.0,1.0,9004.0,,PC,O,AR,A,IN,,A23,A,710000.0
14940,,000,3,0,1990,0,1,0,0,133564146,0,0,0,0,0,0,0,0,0,0,0,0,0,0,0,0,0,0,0,0,0,0,0,0,0,0,0,0,0,0,N,INSTITUTE FOR AFRICAN AMERICAN FOLK CULTURE INC,BRONX,NY,10452-5748,10452.0,36005,A99,A,10452.0,5602.0,5600.0,36005.0,,PC,O,AR,A,0.60748,,A,IN,,Q,AR,AR,AR,Z99,B,,36005.0,199012,199012,1990,NY,10452.0,BRONX,A23,B,12,119.0,124.0,0.0,941 JEROME AVE 11D,3.0,0.0,2000.0,% MARY KAY PENN,1.0,13.0,15.0,10.0,0.0,1.0,9303.0,,PC,O,AR,A,IN,,A23,A,710000.0
14944,990.0,200,6,1,1990,0,1,3,1,133565617,23000,6500,0,0,0,0,0,0,8150,8150,37650,27978,9672,0,0,0,9672,0,0,0,0,0,0,0,0,0,0,0,0,0,N,ITALIAN WINE CNCL,NEW YORK CITY,NY,10020-1300,10020.0,36061,A01,A,,5602.0,5600.0,,,O,O,AR,A,0.32568,,A,IN,,Q,AR,AR,AR,Z99,C,,,199012,199012,1990,NY,10020.0,,A23,A,12,200.0,0.0,0.0,1271 AVE OF THE AMERICAS STE 4341,3.0,0.0,3000.0,,2.0,13.0,0.0,20.0,0.0,1.0,9106.0,,PC,O,AR,A,OUT,S,A23,A,710000.0
14948,,119,6,0,1990,0,1,0,0,133568008,0,0,0,0,0,0,0,0,0,0,0,0,0,0,0,0,0,0,0,0,0,0,0,0,0,0,0,0,0,0,N,PRIVATE ART DEALERS ASSOC,NEW YORK,NY,10022-1304,10022.0,36061,A01,A,,5602.0,5600.0,,,O,O,AR,A,0.50243,,A,IN,,Q,AR,AR,AR,Z99,B,,,199012,199012,1990,NY,10022.0,,A03,A,12,119.0,229.0,0.0,145 E 57TH ST,3.0,0.0,1000.0,% KANTROWITZ & GOLDHAMER PC,2.0,13.0,0.0,10.0,0.0,1.0,9108.0,,PC,O,AR,A,OUT,S,A03,A,813920.0
14975,990.0,000,3,1,1990,7,1,3,1,133576336,23782,0,0,0,0,0,0,0,48199,48199,71981,83533,-10554,0,0,0,2445,0,13000,0,0,0,0,0,0,0,0,0,0,0,N,CONTEMPORARY DANCE ARTS INC,NEW YORK,NY,10036-6311,10036.0,36061,A62,A,10036.0,5602.0,5600.0,36061.0,,PC,O,AR,A,0.15148,,A,IN,,Q,AR,AR,AR,Z99,A,,36061.0,199012,199012,1990,NY,10036.0,NEW YORK,A62,A,12,90.0,0.0,0.0,400 W 43 ST 19B,3.0,0.0,1000.0,BARBARA BARKER DANCE CENTER,1.0,1.0,15.0,10.0,0.0,1.0,9009.0,,PC,O,AR,A,IN,,A62,A,711120.0
15000,,000,3,0,1990,0,1,0,0,133585152,0,0,0,0,0,0,0,0,0,0,0,0,0,0,0,0,0,0,0,0,0,0,0,0,0,0,0,0,0,0,N,WHITE BIRD PRODUCTIONS INC,NEW YORK,NY,10023-1483,10023.0,36061,A65,A,10023.0,5602.0,5600.0,36061.0,,PC,O,AR,A,0.37384,,A,IN,,Q,AR,AR,AR,Z99,A,,36061.0,199012,199012,1990,NY,10023.0,NEW YORK,A65,A,12,88.0,0.0,0.0,PO BOX 20233 COLUMBUS CIR STA,3.0,0.0,1000.0,,1.0,13.0,15.0,20.0,0.0,1.0,9207.0,,PC,O,AR,A,IN,,A65,A,711110.0
15052,,000,3,0,1990,0,1,0,0,133613396,0,0,0,0,0,0,0,0,0,0,0,0,0,0,0,0,0,0,0,0,0,0,0,0,0,0,0,0,0,0,N,INTERNATIONAL COUNCIL FOR MUSIC INCORPORATED,STATEN ISLAND,NY,10314-1969,10314.0,36085,A68,A,10314.0,5602.0,5600.0,36085.0,,PC,O,AR,A,0.31087,,A,IN,,Q,AR,AR,AR,Z99,C,,36085.0,199012,199012,1990,NY,10314.0,STATEN ISLAND,A68,A,12,119.0,90.0,994.0,311 WILLOWBROOK RD,3.0,0.0,1000.0,,1.0,13.0,15.0,10.0,0.0,1.0,9202.0,,PC,O,AR,A,IN,,A68,A,711130.0
15301,990.0,092,6,1,1990,0,1,4,4,135546742,17500,127641,0,0,6770,0,0,0,122238,122238,267379,136763,146422,0,0,102724,146926,586,504,0,0,0,0,0,0,0,0,0,0,0,N,MYSTERY WRITERS AMERICA,NEW YORK,NY,10017-1920,10017.0,36061,A70,A,,5602.0,5600.0,,,O,O,AR,A,0.88494,,A,IN,,Q,AR,AR,AR,Z99,C,,,199012,199012,1990,NY,10017.0,,A0370,A,12,92.0,120.0,123.0,17 E 47TH ST 6TH FLR,3.0,0.0,3000.0,,2.0,13.0,0.0,10.0,0.0,1.0,0.0,,PC,O,AR,A,OUT,S,A0370,A,813920.0
15391,990.0,920,6,1,1990,0,1,6,4,135582856,0,646696,0,0,25810,0,0,0,797122,797122,1443818,1540365,210285,0,0,535497,427430,228665,217145,0,0,0,0,0,0,0,0,0,0,0,Y,AGA ASSOC GRAPHIC ARTS,NEW YORK,NY,10001-0000,10001.0,36061,A01,A,,5602.0,5600.0,,,O,O,AR,A,0.727,,A,IN,,Q,AR,AR,AR,Z99,C,,,199106,199106,1991,NY,10001.0,,A0330,A,6,920.0,59.0,566.0,330 SEVENTH AVE 9TH FLR,3.0,0.0,2000.0,,2.0,13.0,0.0,10.0,0.0,1.0,3903.0,,PC,O,AR,A,OUT,S,A0330,A,813920.0
15451,990.0,065,6,1,1989,0,1,3,3,135614237,595,18007,0,0,3130,0,0,0,18570,18570,37172,26302,26632,0,0,29432,26632,0,0,0,0,0,0,0,0,0,0,0,0,0,N,AMER ARTIST PROFESSIONAL LEAGUE,NEW YORK,NY,10003-4322,10003.0,36061,A01,A,,5602.0,5600.0,,,O,O,AR,A,0.58673,,A,IN,,Q,AR,AR,AR,Z99,C,,,198912,198912,1989,NY,10003.0,,N80,A,12,65.0,207.0,119.0,47 FIFTH AVE,1.0,0.0,2000.0,% SALMAGUNDI CLUB,2.0,13.0,0.0,20.0,0.0,1.0,5503.0,,PC,O,AR,A,OUT,S,N80,N,711211.0
15482,990.0,900,8,1,1990,7,1,4,2,135626389,22938,0,0,0,884,0,0,0,148895,148895,171833,173258,20427,5000,0,21877,21198,25,771,0,0,0,0,0,0,0,0,0,0,0,N,FOLKSBIENE WORKMENS CIRCLE,NEW YORK,NY,10022-3502,10022.0,36061,A23,A,,5602.0,5600.0,,,O,O,AR,A,0.75331,,A,IN,,Q,AR,AR,AR,Z99,A,,,199105,199105,1991,NY,10022.0,,A23,A,5,900.0,30.0,211.0,123 E 55TH ST,9.0,0.0,1000.0,,1.0,13.0,0.0,10.0,804.0,5.0,4504.0,,PC,O,AR,A,OUT,S,A23,A,710000.0
15499,990.0,265,9,1,1989,0,1,6,6,135636174,0,0,1198481,1194207,271615,0,0,0,2613165,1418958,2613165,1541589,3625672,0,0,3859192,3687820,110889,62148,0,0,0,0,0,0,0,0,0,0,0,N,GREATER NEW YORK JOINT BOARD TEXTILE WORKERS WELFARE FND,NEW YORK,NY,10003-9511,10003.0,36061,A40,A,,5602.0,5600.0,,,O,O,AR,A,0.4789,,A,IN,,Q,AR,AR,AR,Z99,C,,,199009,199009,1990,NY,10003.0,,A40,A,9,265.0,0.0,0.0,99 UNIVERSITY PLACE,3.0,0.0,1000.0,,2.0,13.0,0.0,10.0,0.0,2.0,5611.0,FARE FUND,PC,O,AR,A,OUT,S,A40,A,710000.0
15524,990.0,120,6,1,1990,0,1,3,3,135651681,0,93942,0,0,1950,0,0,0,1950,1950,95892,75853,68340,0,0,48301,68340,0,0,0,0,0,0,0,0,0,0,0,0,0,N,COMICS MAGAZINE ASSOC AMERICA,NEW YORK,NY,10017-6672,10017.0,36061,A33,A,,5602.0,5600.0,,,O,O,AR,A,0.37701999999999997,,A,IN,,Q,AR,AR,AR,Z99,C,,,199012,199012,1990,NY,10017.0,,A01,C,12,120.0,328.0,279.0,355 LEXINGTON AVE 17TH FLOOR,1.0,0.0,2000.0,,2.0,13.0,0.0,10.0,0.0,1.0,5909.0,,PC,O,AR,A,OUT,S,A01,A,813319.0
15548,990.0,200,6,1,1990,0,1,6,6,135658426,0,410122,0,0,64178,0,0,0,1024803,1024803,1434925,1377369,606553,85000,0,943381,1131854,394384,525301,606553,0,0,0,0,0,0,0,0,0,0,Y,AMER HOME SEWING & CRAFT ASSOC,NEW YORK,NY,10018-7001,10018.0,36061,A20,A,,5602.0,5600.0,,,O,O,AR,A,0.7127399999999999,,A,IN,,Q,AR,AR,AR,Z99,A,,,199012,199012,1990,NY,10018.0,,A20,A,12,200.0,0.0,0.0,1375 BROADWAY,3.0,0.0,2000.0,,2.0,13.0,0.0,10.0,0.0,1.0,7811.0,,PC,O,AR,A,OUT,S,A20,A,710000.0
15720,,059,6,0,1990,0,1,0,0,136096368,0,0,0,0,0,0,0,0,0,0,0,0,0,0,0,0,0,0,0,0,0,0,0,0,0,0,0,0,0,0,N,AMER WOMEN IN RADIO & TELEVISION NEW YORK CITY CHAPT,NEW YORK,NY,10016-8776,10016.0,36061,A32,A,,5602.0,5600.0,,,O,O,AR,A,0.04728,,A,IN,,Q,AR,AR,AR,Z99,C,,,199012,199012,1990,NY,10016.0,,A32,A,12,59.0,120.0,0.0,245 FIFTH AVE 2103,3.0,0.0,2000.0,,2.0,13.0,0.0,10.0,0.0,5.0,6309.0,CITY CHAPT,PC,O,AR,A,OUT,S,A32,A,513120.0
15789,990.0,920,6,1,1990,0,1,3,3,136117091,0,21250,0,0,6168,0,0,0,6168,6168,27418,34738,77113,0,0,84433,77113,0,0,0,0,0,0,0,0,0,0,0,0,0,N,TEXTILE CONVERTERS ASSOC,NEW YORK,NY,10022-6102,10022.0,36061,A01,A,,5602.0,5600.0,,,O,O,AR,A,0.36511,,A,IN,,Q,AR,AR,AR,Z99,C,,,199012,199012,1990,NY,10022.0,,A40,A,12,920.0,0.0,0.0,575 LEX AVE,3.0,0.0,2000.0,% SOLOMON ROSENBAUM,2.0,13.0,0.0,20.0,0.0,1.0,6008.0,,PC,O,AR,A,OUT,S,A40,A,710000.0
15835,990.0,200,6,1,1990,0,1,4,4,136122376,440,7700,0,0,18501,0,0,0,259794,259794,267934,47078,334276,0,0,328923,347071,16093,12795,0,0,0,0,0,0,0,0,0,0,0,N,NEW YORK FINANCIAL WRITERS ASSOC,SYOSSET,NY,10001-0003,10001.0,36061,A01,A,,5602.0,5600.0,,,O,O,AR,A,0.67145,,A,IN,,Q,AR,AR,AR,Z99,C,,,199101,199101,1991,NY,10001.0,,A70,A,1,200.0,205.0,0.0,PO BOX 21,1.0,0.0,2000.0,,2.0,11.0,0.0,10.0,0.0,1.0,7901.0,,PC,O,AR,A,OUT,S,A70,A,710000.0
15933,,125,4,0,1989,0,1,0,0,136139744,0,0,0,0,0,0,0,0,0,0,0,0,0,0,0,0,0,0,0,0,0,0,0,0,0,0,0,0,0,0,N,BOLIVARIAN SOC UNITED STATES,NEW YORK,NY,10022-5903,10022.0,36061,A70,A,,5602.0,5600.0,,,O,O,AR,A,0.66367,,A,IN,,Q,AR,AR,AR,Z99,C,,,198912,198912,1989,NY,10022.0,,S03,C,12,125.0,93.0,0.0,680 PARK AVE,3.0,0.0,2000.0,,2.0,13.0,0.0,20.0,0.0,1.0,7609.0,,PC,O,AR,A,OUT,S,S03,S,813920.0
15949,990.0,264,9,1,1990,0,1,5,4,136142804,0,0,0,0,34967,0,0,0,892531,892531,892531,1080564,363478,0,0,553141,374998,3436,11520,363478,0,0,0,0,0,0,0,0,0,0,N,PUBLISHERS PAPER HANDLERS WELFARE FND,NEW YORK,NY,10003-1503,10003.0,36061,A33,A,,5602.0,5600.0,,,O,O,AR,A,0.44728999999999997,,A,IN,,Q,AR,AR,AR,Z99,C,,,199103,199103,1991,NY,10003.0,,A33,A,3,264.0,0.0,0.0,200 PARK AVE S,3.0,0.0,1000.0,,2.0,13.0,0.0,20.0,0.0,2.0,5503.0,,PC,O,AR,A,OUT,S,A33,A,511100.0
15969,990.0,119,6,1,1989,0,1,5,5,136149730,0,111500,0,0,29175,0,0,0,438385,438385,549885,379505,738838,0,0,568458,738838,0,0,738838,0,0,0,0,0,0,0,0,0,0,N,ART DEALERS ASSOC AMERICA,NEW YORK,NY,10022-2511,10022.0,36061,A01,A,,5602.0,5600.0,,,O,O,AR,A,0.6533100000000001,,A,IN,,Q,AR,AR,AR,Z99,B,,,199010,199010,1990,NY,10022.0,,A03,A,10,119.0,0.0,0.0,575 MADISON AVE 16TH FL,3.0,0.0,2000.0,,2.0,13.0,0.0,10.0,0.0,1.0,6307.0,,PC,O,AR,A,OUT,S,A03,A,813920.0
16030,,061,4,0,1990,0,1,0,0,136162016,0,0,0,0,0,0,0,0,0,0,0,0,0,0,0,0,0,0,0,0,0,0,0,0,0,0,0,0,0,0,N,AUSTRIAN AMER FEDERATION,NEW YORK,NY,10021-4906,10021.0,36061,A23,A,,5602.0,5600.0,,,O,O,AR,A,0.43451000000000006,,A,IN,,Q,AR,AR,AR,Z99,C,,,199012,199012,1990,NY,10021.0,,A23,A,12,61.0,279.0,319.0,6 E 69TH ST,3.0,0.0,1000.0,% AUSTRIAN GASOLATE GENERAL,2.0,13.0,0.0,20.0,0.0,1.0,5908.0,,PC,O,AR,A,OUT,S,A23,A,710000.0
16344,990.0,264,9,1,1989,0,1,8,7,136227399,0,201279,19915976,19903282,392764,0,0,0,20308740,405458,20510019,647318,4863924,0,0,4956850,5202916,171815,338992,4863924,0,0,0,0,0,0,0,0,0,0,N,PRINTERS LEAGUE LOCAL 43 WELFARE FND,NEW YORK,NY,10003-0000,10003.0,36061,A33,A,,5602.0,5600.0,,,O,O,AR,A,0.50716,,A,IN,,Q,AR,AR,AR,Z99,C,,,199003,199003,1990,NY,10003.0,,A33,A,3,264.0,279.0,0.0,27 UNION SQ,3.0,0.0,1000.0,% BASIL CASTROVINCI ASSOCIATES,2.0,13.0,0.0,10.0,0.0,2.0,6811.0,,PC,O,AR,A,OUT,S,A33,A,511100.0
16475,990.0,267,17,1,1990,0,1,4,6,136686323,0,0,0,0,112746,0,0,0,203145,179547,203145,453209,1696774,0,0,2086910,1722208,8450,25434,1696774,0,0,0,0,0,0,0,0,0,0,N,PRINTERS LEAGUE-LOCAL 23 RELOCATION DISPLACEMENT &,NEW YORK,NY,10011-6501,10011,36061.0,A33,A,,5602.0,5600.0,,,O,O,AR,A,0.99198,,A,IN,,Q,AR,AR,AR,Z99,C,,,199012,199012,1990,NY,10011,,A33,A,12,267.0,279.0,0.0,212 W 15TH ST,3.0,,1000.0,,,,0.0,,,,7509.0,SUPPL UNEMP BEN FD,PC,O,AR,A,OUT,S,A33,A,511100.0
24470,,205,6,0,1989,0,1,0,0,222608583,0,0,0,0,0,0,0,0,0,0,0,0,0,0,0,0,0,0,0,0,0,0,0,0,0,0,0,0,0,0,N,AMER PODIATRIC MED WRITERS ASSOC,FOREST HILLS,NY,11375-0129,11375,36081.0,A01,A,,5602.0,5600.0,,,O,O,AR,A,0.71177,,A,IN,,Q,AR,AR,AR,Z99,C,,,198912,198912,1989,NY,11375,,E1121,A,12,205.0,120.0,0.0,PO BOX 750129,1.0,0.0,2000.0,,2.0,11.0,0.0,20.0,0.0,5.0,8605.0,,PC,O,AR,A,OUT,S,A70,A,710000.0
25316,,119,4,0,1990,0,1,0,0,222805952,0,0,0,0,0,0,0,0,0,0,0,0,0,0,0,0,0,0,0,0,0,0,0,0,0,0,0,0,0,0,N,JAPANESE HERITAGE FND,FORESTBURG,NY,10016-3317,10016.0,36061.0,A23,A,,5602.0,5600.0,,,O,O,AR,A,0.45037,,A,IN,,Q,AR,AR,AR,Z99,B,,,199012,199012,1990,NY,10016.0,,A23,A,12,119.0,0.0,0.0,RT 42,3.0,0.0,3000.0,,2.0,13.0,0.0,10.0,0.0,1.0,9001.0,,PC,O,AR,A,OUT,S,A23,A,710000.0
25855,,000,3,0,1990,0,1,0,0,222924432,0,0,0,0,0,0,0,0,0,0,0,0,0,0,0,0,0,0,0,0,0,0,0,0,0,0,0,0,0,0,N,NYC EXPERIMENTAL VIDEO & FILM,NEW YORK,NY,10013-2607,10013.0,36061.0,A31,A,10013.0,5602.0,5600.0,36061.0,,PC,O,AR,A,0.84908,,A,IN,,Q,AR,AR,AR,Z99,C,,36061.0,199012,199012,1990,NY,10013.0,NEW YORK,A31,A,12,89.0,0.0,0.0,465 W BWAY,9.0,0.0,1000.0,,1.0,13.0,15.0,20.0,9249.0,5.0,8904.0,SOHO BAROQUE OPERA CO INC,PC,O,AR,A,IN,,A6A,A,711130.0
26828,,120,4,0,1990,0,1,0,0,223055332,0,0,0,0,0,0,0,0,0,0,0,0,0,0,0,0,0,0,0,0,0,0,0,0,0,0,0,0,0,0,N,UKRAINIAN NAT WOMENS LEAGUE AMERICA,NEW YORK,NY,10003-8410,10003.0,36061.0,A33,A,,5602.0,5600.0,,,O,O,AR,A,0.26881,,A,IN,,Q,AR,AR,AR,Z99,C,,,199012,199012,1990,NY,10003.0,,S81,C,12,120.0,0.0,0.0,108 SECOND AVE,9.0,0.0,3000.0,% LIDIA BILOUS,2.0,6.0,0.0,20.0,1874.0,5.0,6706.0,BRANCH 113,PC,O,AR,A,OUT,S,S81,S,813410.0
27802,990.0,119,6,1,1989,0,1,3,3,226067322,0,12185,0,0,689,0,0,0,34251,34251,46436,30160,55507,300,0,39831,57978,600,2471,0,0,0,0,0,0,0,0,0,0,0,N,DANCE MASTERS AMERICA NEW YORK CITY CHAPTER,BAYSIDE,NY,11361-0533,11361.0,36081.0,A62,A,,5602.0,5600.0,,,O,O,AR,A,0.22694,,A,IN,,Q,AR,AR,AR,Z99,A,,,199008,199008,1990,NY,11361.0,,A62,A,8,119.0,59.0,205.0,PO BOX 610533,3.0,0.0,2000.0,% ROBERT MANN,2.0,11.0,0.0,10.0,0.0,1.0,6406.0,,PC,O,AR,A,OUT,S,A62,A,711120.0
34808,990.0,205,6,1,1990,0,1,3,1,237029109,0,18900,0,0,82,0,0,0,21150,21150,40050,46165,5704,0,0,12748,7926,929,2222,0,0,0,0,0,0,0,0,0,0,0,N,SOC PHOTOGRAPHERS & ARTISTS REPRESENTATIVES,NEW YORK,NY,10165-0005,10165.0,36061.0,A01,A,,5602.0,5600.0,,,O,O,AR,A,0.52263,,A,IN,,Q,AR,AR,AR,Z99,C,,,199012,199012,1990,NY,10165.0,,A0340,A,12,205.0,0.0,0.0,60 E 42ND STREET SUITE 1166,3.0,0.0,2000.0,,2.0,13.0,0.0,10.0,0.0,1.0,6906.0,ES INC,PC,O,AR,A,OUT,S,A0340,A,813920.0
37684,,200,6,0,1990,0,1,0,0,237096387,0,0,0,0,0,0,0,0,0,0,0,0,0,0,0,0,0,0,0,0,0,0,0,0,0,0,0,0,0,0,N,LAWYERS ASSOC TEXTILE INDUSTRY,NEW YORK,NY,10018-7606,10018.0,36061.0,A40,A,,5602.0,5600.0,,,O,O,AR,A,0.78397,,A,IN,,Q,AR,AR,AR,Z99,C,,,199012,199012,1990,NY,10018.0,,I03,A,12,200.0,0.0,0.0,462 SEVENTH AVE 23RD FLR,3.0,0.0,2000.0,% ERNST & WHINNEY,2.0,13.0,0.0,20.0,0.0,1.0,7201.0,,PC,O,AR,A,OUT,S,I03,I,813920.0
37949,,200,6,0,1988,0,1,0,0,237101741,0,0,0,0,0,0,0,0,0,0,0,0,0,0,0,0,0,0,0,0,0,0,0,0,0,0,0,0,0,0,N,NEW YORK BUSINESS PRESS EDITORS INC,NEW YORK,NY,10017-0000,10017.0,36061.0,A01,A,,5602.0,5600.0,,,O,O,AR,A,0.36563,,A,IN,,Q,AR,AR,AR,Z99,C,,,198906,198906,1989,NY,10017.0,,A33,A,6,200.0,59.0,0.0,P O BOX 5771 GRAND CENTRAL STATION,3.0,0.0,2000.0,,2.0,13.0,0.0,20.0,0.0,1.0,7109.0,,PC,O,AR,A,OUT,S,A33,A,511100.0
42610,990.0,920,6,1,1990,0,1,4,4,237164969,750,206800,0,0,11036,0,7464,207,78657,71193,286207,224429,121279,0,0,110938,165380,43973,44101,121279,0,0,0,0,0,0,0,0,0,0,N,ASSOC ART MUS DIRECTORS,NEW YORK,NY,10017-6705,10017.0,36061.0,A01,A,,5602.0,5600.0,,,O,O,AR,A,0.14973,,A,IN,,Q,AR,AR,AR,Z99,C,,,199106,199106,1991,NY,10017.0,,A50,A,6,920.0,59.0,119.0,1290 AVE OF THE AMERICAS,3.0,0.0,2000.0,% CORNICK GARBER & SANDLER,2.0,13.0,0.0,10.0,0.0,1.0,7203.0,INC,PC,O,AR,A,OUT,S,A0351,A,813920.0
43404,990.0,920,6,1,1990,0,1,5,5,237179226,0,520250,0,0,21490,61349,0,0,21490,21490,541740,134638,599601,0,46571,192499,599601,0,0,0,0,0,0,0,0,0,0,0,0,0,N,RADIO MUSIC LICENSE,NEW YORK,NY,10153-0001,10153.0,36061.0,A01,A,,5602.0,5600.0,,,O,O,AR,A,0.46973000000000004,,A,IN,,Q,AR,AR,AR,Z99,C,,,199012,199012,1990,NY,10153.0,,A34,A,12,920.0,0.0,0.0,767 FIFTH AVE,3.0,0.0,2000.0,% WEIL GOTSHAL & MANGES,2.0,13.0,0.0,10.0,0.0,5.0,7209.0,,PC,O,AR,A,OUT,S,A34,A,513110.0
48126,,119,5,0,1989,0,1,0,0,237323039,0,0,0,0,0,0,0,0,0,0,0,0,0,0,0,0,0,0,0,0,0,0,0,0,0,0,0,0,0,0,N,KATHRYN POSIN DANCE FND,NEW YORK,NY,10012-2406,10012.0,36061.0,A63,A,,5602.0,5600.0,,,O,O,AR,A,0.85501,,A,IN,,Q,AR,AR,AR,Z99,A,,,199006,199006,1990,NY,10012.0,,A63,A,6,119.0,59.0,0.0,20 BOND ST,3.0,0.0,1000.0,% TREAS,1.0,13.0,16.0,10.0,0.0,1.0,7310.0,,PC,O,AR,A,OUT,S,A63,A,711120.0
48340,990.0,059,8,1,1989,0,1,4,3,237328225,0,574,0,0,4447,0,0,0,135993,135993,136567,112338,43617,0,0,69184,43617,0,0,0,0,0,0,0,0,0,0,0,0,0,N,BNAI BRITH 5258 MUSIC & PERFORMING ARTS LODGE,NEW YORK,NY,10023-5882,10023.0,36061.0,A99,A,,5602.0,5600.0,,,O,O,AR,A,0.3925,,A,IN,,Q,AR,AR,AR,Z99,C,,,198912,198912,1989,NY,10023.0,,A60,A,12,59.0,29.0,349.0,1995 BROADWAY 603,9.0,0.0,1000.0,% MURRAY FROIKIN,1.0,13.0,0.0,10.0,947.0,5.0,4606.0,,PC,O,AR,A,OUT,S,A60,A,711100.0
51412,990.0,200,6,1,1990,0,1,5,5,237411166,0,448570,0,0,68720,0,0,0,68720,68720,517290,586119,29210,0,0,803764,697005,705725,667795,29210,0,0,0,0,0,0,0,0,0,0,N,LIBERIAN SHIPOWNERS COUNCIL LTD,NEW YORK,NY,10170-2656,10170.0,36061.0,A01,A,,5602.0,5600.0,,,O,O,AR,A,0.10245,,A,IN,,Q,AR,AR,AR,Z99,C,,,199012,199012,1990,NY,10170.0,,A23,A,12,200.0,914.0,480.0,99 PARK AVE RM 1700,3.0,0.0,2.0,,2.0,1.0,0.0,10.0,0.0,1.0,197612.0,,PC,O,AR,A,OUT,S,A23,A,710000.0
52664,,000,3,0,1990,0,1,0,0,237449111,0,0,0,0,0,0,0,0,0,0,0,0,0,0,0,0,0,0,0,0,0,0,0,0,0,0,0,0,0,0,N,INTERNATIONAL ONE WORLD CRUSADE INC,NEW YORK,NY,10116-7594,10116.0,36061.0,A34,A,10116.0,5602.0,5600.0,36061.0,,PC,O,AR,A,0.68593,,A,IN,,Q,AR,AR,AR,Z99,A,,36061.0,199012,199012,1990,NY,10116.0,NEW YORK,A34,A,12,4.0,8.0,29.0,G P O BOX 7594,3.0,0.0,7000.0,,1.0,23.0,15.0,10.0,0.0,1.0,9407.0,,PC,O,AR,A,IN,,A34,A,513110.0
67985,,200,6,0,1989,0,1,0,0,330274349,0,0,0,0,0,0,0,0,0,0,0,0,0,0,0,0,0,0,0,0,0,0,0,0,0,0,0,0,0,0,N,THEATRICAL DEALERS ASSOC,NEW YORK,NY,10025-0000,10025.0,36061.0,A01,A,,5602.0,5600.0,,,O,O,AR,A,0.99992,,A,IN,,Q,AR,AR,AR,Z99,C,,,198912,198912,1989,NY,10025.0,,A65,B,12,200.0,0.0,0.0,755 W END AVE 9B,3.0,0.0,1000.0,,2.0,13.0,0.0,10.0,0.0,1.0,8809.0,,PC,O,AR,A,OUT,S,A65,A,711110.0
78518,990.0,065,6,1,1990,0,1,3,2,356048417,4900,29250,0,0,735,0,0,0,735,735,34885,33778,16501,0,0,15935,17101,541,600,0,0,0,0,0,0,0,0,0,0,0,N,NAT ASSOC BAND INSTRUMENT MANUFACTURERS INCORPORA,NEW YORK,NY,10010-6906,10010.0,36061.0,A01,A,,5602.0,5600.0,,,O,O,AR,A,0.08504,,A,IN,,Q,AR,AR,AR,Z99,C,,,199012,199012,1990,NY,10010.0,,A6C,A,12,65.0,207.0,200.0,38 W 21ST ST 5TH FLR,1.0,0.0,2000.0,,2.0,13.0,0.0,10.0,0.0,1.0,3505.0,ERS INCORPORA,PC,O,AR,A,OUT,S,A6C,A,711130.0
85614,990.0,200,6,1,1990,0,1,3,3,366126873,0,60152,0,0,1287,0,0,0,30570,30570,90722,77310,41608,0,0,29096,52858,900,11250,0,0,0,0,0,0,0,0,0,0,0,N,MUSIC DISTRIBUTORS ASSOC,NEW YORK,NY,10010-6906,10010.0,36061.0,A01,A,,5602.0,5600.0,,,O,O,AR,A,0.36732,,A,IN,,Q,AR,AR,AR,Z99,C,,,199012,199012,1990,NY,10010.0,,A68,A,12,200.0,205.0,279.0,38 44 W 21ST ST,3.0,0.0,2000.0,,2.0,13.0,0.0,10.0,0.0,1.0,6512.0,,PC,O,AR,A,OUT,S,A68,A,711130.0
87369,990.0,059,6,1,1989,0,1,4,4,370789523,0,87751,4590,4508,10723,0,0,0,100056,95548,187807,130768,198687,10417,0,163168,199532,387,845,0,0,0,0,0,0,0,0,0,0,0,Y,ASSOC BUSINESS COMMUNICATION,NEW YORK,NY,10010-5518,10010.0,36061.0,A01,A,,5602.0,5600.0,,,O,O,AR,A,0.76435,,A,IN,,Q,AR,AR,AR,Z99,C,,,198912,198912,1989,NY,10010.0,,A30,A,12,59.0,0.0,0.0,17 LEXINGTON AVE PO BOX 343,3.0,0.0,2000.0,% ROBERT J MYERS DEPT SPEECH RM1403,2.0,13.0,0.0,10.0,0.0,5.0,5811.0,BARUCH COLLEGE CUNY,PC,O,AR,A,OUT,S,A30,A,510000.0
121538,990.0,064,4,1,1990,0,1,3,1,510163940,29425,0,0,0,0,0,0,0,0,0,29425,30230,328,0,0,1133,328,0,0,0,0,0,0,0,0,0,0,0,0,0,N,AFRICAN AMER DAY PARADE,,NY,10030-0501,10030.0,36061.0,A23,A,,5602.0,5600.0,,,O,O,AR,A,0.05501,,A,IN,,Q,AR,AR,AR,Z99,C,,,199012,199012,1990,NY,10030.0,,A23,A,12,,,,,,,,,,,,,,,,,PC,O,AR,A,OUT,S,A23,A,710000.0
122063,990.0,200,6,1,1990,0,1,3,3,510180605,0,67441,0,0,2702,0,0,0,2702,2702,70143,91924,26821,0,0,49902,28121,1300,1300,26821,0,0,0,0,0,0,0,0,0,0,N,NAT ANTIQUE & ART DEALERS ASSOC AMERICA,NEW YORK,NY,10022-3105,10022.0,36061.0,A01,A,,5602.0,5600.0,,,O,O,AR,A,0.5473899999999999,,A,IN,,Q,AR,AR,AR,Z99,C,,,199104,199104,1991,NY,10022.0,,A0326,A,4,200.0,0.0,0.0,15 E 57TH ST,3.0,0.0,2000.0,,2.0,13.0,0.0,10.0,0.0,1.0,7602.0,ERICA INC,PC,O,AR,A,OUT,S,A0326,A,813920.0
122480,990.0,205,6,1,1990,0,1,3,2,510192888,15854,30068,0,0,485,0,0,0,485,485,46407,46475,14227,0,0,14295,14227,0,0,0,0,0,0,0,0,0,0,0,0,0,N,NEW YORK OBSTETRICAL SOC,BRONX,NY,10461-1924,10461.0,36005.0,A69,A,,5602.0,5600.0,,,O,O,AR,A,0.67953,,A,IN,,Q,AR,AR,AR,Z99,A,,,199104,199104,1991,NY,10461.0,,A69,A,4,205.0,199.0,0.0,1300 MORRIS PARK AVE BELFER 502,3.0,0.0,2000.0,% ROBERT C POST MD,2.0,13.0,0.0,10.0,0.0,1.0,8407.0,,PC,O,AR,A,OUT,S,A69,A,711130.0
128514,990.0,205,6,1,1990,0,1,4,4,521513915,0,65125,0,0,8376,0,0,0,36880,36880,102005,121857,91070,0,0,138376,157457,27454,66387,0,0,0,0,0,0,0,0,0,0,0,N,PRINTING INDUSTRY CREDIT EXECUTIVES,WASHINGTON,NY,10038-4302,10038.0,36061,A03,A,,5602.0,5600.0,,,O,O,AR,A,0.30403,,A,IN,,Q,AR,AR,AR,Z99,A,,,199012,199012,1990,NY,10038.0,,A0333,A,12,205.0,0.0,0.0,1518 K ST NW STE 503,3.0,0.0,2000.0,,2.0,52.0,0.0,10.0,0.0,1.0,8707.0,,PC,O,AR,A,OUT,S,A0333,A,813920.0
202905,,200,6,0,1990,0,1,0,0,942661960,0,0,0,0,0,0,0,0,0,0,0,0,0,0,0,0,0,0,0,0,0,0,0,0,0,0,0,0,0,0,N,BROADCAST DESIGNERS ASSOC,NEW YORK,NY,10036-4008,10036.0,36061,A30,A,,5602.0,5600.0,,,O,O,AR,A,0.85867,,A,IN,,Q,AR,AR,AR,Z99,C,,,199012,199012,1990,NY,10036.0,,A30,A,12,200.0,0.0,0.0,470 PARK AVE SO 9TH FL,3.0,0.0,1000.0,,2.0,13.0,0.0,10.0,0.0,5.0,8202.0,,PC,O,AR,A,OUT,S,A30,A,510000.0
209804,990.0,919,6,1,1989,0,1,4,4,952786905,0,37845,0,0,5358,0,0,0,132805,132805,170650,70363,123612,0,0,82132,123612,0,0,123612,0,0,0,0,0,0,0,0,0,0,N,THEATRE EQUIPMENT ASSOC,NEW YORK,NY,10019-7411,10019.0,36061,A30,A,,5602.0,5600.0,,,O,O,AR,A,0.6472100000000001,,A,IN,,Q,AR,AR,AR,Z99,C,,,198912,198912,1989,NY,10019.0,,A65,B,12,919.0,205.0,0.0,244 W 49TH ST 200,3.0,0.0,2000.0,,2.0,13.0,0.0,10.0,0.0,1.0,7306.0,,PC,O,AR,A,OUT,S,A65,A,711110.0
