,CODE990,P6EXMPF,P6DOMORG,P7POLIT,P7LIQUID,P7POFCLM,P7DISSAL,P7DISBOR,P7DISSER,P7DISPAY,P7DISTRA,P7PAYGVT,P7UNDINC,P7BUSINT,P7JEOINV,P7PROPAG,P7ELECT,P7INDGRT,P7ORGGRT,P7OTHPUR,EIN,FisYr,STYEAR,ASCD,INCCD,ACTIV1,P1TCONT,P1INTREV,P1DIVID,P1NGASTS,P1NLASTS,P1GINVPF,P1OTHINC,P1OFCOMP,P1CONTPD,P1TOTREV,P1TOTEXP,P1EXCREV,P1TEXMEX,P1NETINV,P1TEXCTX,P1NADINC,P2TOTAST,P2GVTINV,P2CRPSTK,P2CRPBND,P2TINVSC,P2TLIABL,P2TASFMV,P13UNDST,P10MIR,NAME,CITY,STATE,ZIP,ntee1,nteecc,RandNum,FIPS,zipnew,ZIP5,MSA_NECH,PMSA,fipsold,fndncd,v_errorCd,RuleDate,estTAXPER,TAXPER,stateOld1,zip5Old1,cityOld1,LEVEL1,LEVEL2,LEVEL3,LEVEL4,OUTNCCS,OUTREAS,ACCPER,ACTIV2,ACTIV3,ADDRESS,AFCD,ARED,CLASSCD,CONTACT,DEDUCTCD,DISTRICT,FRCD,GEN,ORGCD,SEC_NAME,MAJGRPB,ntmaj12,ntmaj10,ntmaj5,SUBSECCD,LEVEL1old20090616,LEVEL2old20090616,LEVEL3old20090616,LEVEL4old20090616,OUTNCCSold20090616,OUTREASold20090616,nteeFinal,nteeFinal1,P2CASHBV,P2MORTG
102,3,N,Y,N,N,Y,N,N,N,N,N,N,N,N,N,N,N,N,N,N,10485254,1995,1995,3,4,998,41635,0,359,0,0,13388,49593,0,586,110744,101572,9172,48210,42025,420,24305,30757,0,0,0,0,8992,30757,0,1409,WILHELM REICH INFANT TRUST,FOREST HILLS,NY,11375-6133,Z,Z99,0.836527,36081.0,11375.0,11375.0,5602.0,5600.0,36081.0,15.0,,199409.0,199512,199512,NY,11375.0,FOREST HILLS,PC,O,UN,Z,IN,,12,0.0,0.0,PO BOX 687,3.0,0.0,1000.0,% MARY BOYD HIGGINS TREAS,1.0,1.0,1.0,0.0,1.0,,Z,UN,UN,OT,3.0,,,,,,,A1156,A,,
2133,3,N,N,N,N,N,N,N,N,N,N,N,N,N,N,N,N,N,N,N,46124122,1995,1995,5,4,602,0,1644,38400,0,-46261,0,0,0,50000,-6217,58893,-65110,52652,33045,661,34063,619827,199086,203435,63938,466459,0,800494,0,36017,NATHANIEL SALTONSTALL ARTS FND,NEW YORK,NY,10017-2415,Z,Z99,0.749846,36061.0,10017.0,10017.0,5602.0,5600.0,36061.0,4.0,,196101.0,199512,199512,NY,10017.0,NEW YORK,PF,O,UN,Z,IN,,12,0.0,0.0,17 E 45TH ST,3.0,0.0,1000.0,% BETHAN LING & RUTA,1.0,13.0,1.0,0.0,2.0,,Z,UN,UN,OT,3.0,,,,,,,A12,A,,
2147,3,N,N,N,N,N,N,N,Y,Y,N,N,N,N,N,N,N,N,N,N,46128361,1996,1995,6,4,119,0,53867,50966,0,-28099,0,390,3000,87000,77125,105013,-27888,104096,104308,2086,0,2173763,0,0,0,0,0,2213835,0,105378,KOUSSEVITZKY MUSIC FND,NEW YORK,NY,10048-0203,Z,Z99,0.7326550000000001,36061.0,10048.0,10048.0,5602.0,5600.0,36061.0,4.0,,194206.0,199603,199603,NY,10048.0,NEW YORK,PF,O,UN,Z,IN,,3,40.0,0.0,RR 2 BOX 224,3.0,0.0,1200.0,% NEWLIN,1.0,14.0,1.0,0.0,1.0,,Z,UN,UN,OT,3.0,,,,,,,A68,A,,
2906,3,N,Y,N,N,Y,N,N,N,N,N,N,N,N,N,N,N,N,N,N,60742976,1995,1994,4,4,59,129480,253,0,0,0,0,26775,0,0,156508,184167,-27659,152349,3,0,3,214280,0,0,0,0,951,214280,0,2241,WHITE BARN THEATRE FND,NEW YORK,NY,10022-1012,Z,Z99,0.654487,36061.0,10022.0,10022.0,5602.0,5600.0,36061.0,3.0,,195207.0,199506,199506,NY,10022.0,NEW YORK,PF,O,UN,Z,IN,,6,0.0,0.0,111 W 40TH ST 20TH FL,3.0,0.0,2000.0,HECHT AND COMPANY P C,1.0,13.0,1.0,0.0,1.0,,Z,UN,UN,OT,3.0,,,,,,,A65,A,,
3137,2,N,Y,N,N,Y,N,N,N,N,N,N,N,N,N,N,N,N,N,N,61286112,1995,1994,2,1,92,0,308,0,0,0,0,91,0,10000,399,15638,-15239,15541,211,2,91,17133,0,0,0,0,0,17133,0,1218,FREUD LITERARY HERITAGE FND,NEW YORK,NY,10024-1513,Z,Z99,0.5514180000000001,36061.0,10024.0,10024.0,5602.0,5600.0,36061.0,3.0,,9006.0,199511,199511,NY,10024.0,NEW YORK,PF,O,UN,Z,IN,,11,0.0,0.0,300 CENTRAL PARK WEST,3.0,0.0,1000.0,% K R EISSLER,1.0,13.0,1.0,0.0,1.0,,Z,UN,UN,OT,3.0,,,,,,,A70,A,,
3145,2,N,N,N,N,Y,N,N,N,N,N,N,N,Y,N,N,N,N,N,N,61301161,1993,1993,7,4,91,244999,0,0,0,0,0,0,0,0,244999,302529,-57530,0,0,0,0,5948063,0,5948063,0,5948063,0,5948063,0,292942,KOURI FND ARTS,NEW YORK,NY,10017-2426,Z,Z99,0.452367,36061.0,10017.0,10017.0,5602.0,5600.0,36061.0,3.0,,9107.0,199312,199312,NY,10017.0,NEW YORK,PF,O,UN,Z,IN,,12,0.0,0.0,565 FIFTH AVE 15TH FLR,3.0,0.0,2000.0,,1.0,13.0,1.0,0.0,1.0,,Z,UN,UN,OT,3.0,,,,,,,A12,A,,
3773,3,N,N,N,N,N,N,N,N,N,N,N,N,N,N,N,N,N,N,N,112444997,1995,1995,0,0,400,0,0,0,0,0,0,0,0,0,0,0,0,0,0,0,0,0,0,0,0,0,0,0,0,0,CLINTON HILL RESTORATION & DEV,BROOKLYN,NY,11238-1804,Z,Z99,0.362214,36047.0,11238.0,11238.0,5602.0,5600.0,36047.0,4.0,,7909.0,199512,199512,NY,11238.0,BROOKLYN,PF,O,UN,Z,IN,,12,402.0,404.0,431 WASHINGTON AVE,3.0,0.0,1000.0,,1.0,11.0,1.0,0.0,1.0,,Z,UN,UN,OT,3.0,,,,,,,A82,A,,
3803,3,N,N,N,N,N,N,N,N,N,N,N,N,N,N,N,N,N,N,N,112538932,1995,1995,0,3,40,5750,0,5659,0,-2211,0,0,0,29745,9198,30517,-21319,29745,5659,113,4887,0,68068,0,0,68068,0,66234,0,3581,RICHARD H GOLDMAN MEM FOUNDA TION,NEW YORK,NY,10021-5704,Z,Z99,0.549659,36061.0,10021.0,10021.0,5602.0,5600.0,36061.0,4.0,,198107.0,199512,199512,NY,10021.0,NEW YORK,PF,O,UN,Z,IN,,12,0.0,0.0,40 TIFFANY CIR,3.0,0.0,1000.0,,1.0,11.0,1.0,0.0,2.0,,Z,UN,UN,OT,3.0,,,,,,,A80,A,,
3807,3,N,N,N,N,N,N,N,N,N,N,N,N,N,N,N,N,N,N,N,112545501,1996,1995,1,1,40,5000,75,0,0,0,0,0,0,5600,5075,6051,-976,6051,75,1,75,9511,0,0,0,0,0,9511,0,492,EDDIE BARNES MEM MUSIC SCHOLAR SHIP FND,QUEENS VILLAGE,NY,11427-1824,Z,Z99,0.580009,36081.0,11427.0,11427.0,5602.0,5600.0,36081.0,4.0,,8110.0,199605,199605,NY,11427.0,QUEENS VILLAGE,PF,O,UN,Z,IN,,5,0.0,0.0,212 75 WHITEHALL TER,3.0,0.0,1000.0,,1.0,11.0,1.0,0.0,1.0,,Z,UN,UN,OT,3.0,,,,,,,A68,A,,
3861,3,N,N,N,N,N,N,N,N,N,N,N,N,N,N,N,N,N,N,N,112634917,1996,1995,1,3,349,0,125,0,0,0,0,42508,9020,0,42633,44133,-1500,0,125,3,42333,6772,0,0,0,0,2394,6772,0,0,INST THEATRE LEARNING,FRESH MEADOWS,NY,11365-1634,Z,Z99,0.916525,36081.0,11365.0,11365.0,5602.0,5600.0,36081.0,4.0,,198305.0,199606,199606,NY,11365.0,FRESH MEADOWS,PF,O,UN,Z,IN,,6,0.0,0.0,56 15A UTOPIA PKY,3.0,0.0,1000.0,,1.0,11.0,1.0,0.0,1.0,,Z,UN,UN,OT,3.0,,,,,,,A6E,A,,
3965,3,N,N,N,N,N,N,N,N,N,N,N,N,N,N,N,N,N,N,N,112801382,1995,1994,0,0,124,0,0,0,0,0,0,0,0,0,0,0,0,0,0,0,0,0,0,0,0,0,0,0,0,0,MOVEMENT INTERFACE RES INST,BROOKLYN,NY,11206-3040,Z,Z99,0.275717,36047.0,11206.0,11206.0,5602.0,5600.0,36047.0,4.0,,198702.0,199506,199506,NY,11206.0,BROOKLYN,PF,O,UN,Z,IN,,6,209.0,0.0,31 LEONARD ST 1M,3.0,0.0,1000.0,,1.0,11.0,1.0,0.0,1.0,,Z,UN,UN,OT,3.0,,,,,,,A70,A,,
4034,3,N,N,N,N,N,N,N,N,N,N,N,N,N,N,N,N,N,N,N,112879579,1995,1995,1,0,90,0,0,0,0,0,0,0,0,0,0,82,-82,0,0,0,0,8704,0,0,0,0,0,8704,0,0,ASIAN AMER FND ARTS,NEW YORK,NY,10025-8052,Z,Z99,0.41545699999999997,36061.0,10025.0,10025.0,5602.0,5600.0,36061.0,4.0,,198810.0,199512,199512,NY,10025.0,NEW YORK,PF,O,UN,Z,IN,,12,0.0,0.0,517 W 113TH ST STE 54,3.0,0.0,1000.0,,1.0,13.0,1.0,0.0,1.0,,Z,UN,UN,OT,3.0,,,,,,,A23,A,,
4058,3,N,N,N,N,N,N,N,N,N,N,N,N,N,N,N,N,N,N,N,112918759,1993,1993,0,3,29,31407,0,0,0,0,0,0,0,1129,31407,56113,-24706,0,0,0,0,0,0,0,0,0,0,0,0,0,AMER FRIENDS MUS MIKVEH,BROOKLYN,NY,11219-2130,Z,Z99,0.813592,36047.0,11219.0,11219.0,5602.0,5600.0,36047.0,4.0,,8901.0,199312,199312,NY,11219.0,BROOKLYN,PF,O,UN,Z,IN,,12,0.0,0.0,1360 44TH ST,3.0,0.0,1000.0,,1.0,11.0,1.0,0.0,1.0,,Z,UN,UN,OT,3.0,,,,,,,A1150,A,,
4069,3,N,N,N,N,N,N,N,N,N,N,N,N,N,N,N,N,N,N,N,112942428,1995,1995,1,2,90,16900,0,0,0,0,0,0,0,0,16900,15843,1057,15843,0,0,0,5464,0,0,0,0,0,5464,0,0,PODVAL ARTS & POETRY GALLERIES,BROOKLYN,NY,11235-5841,Z,Z99,0.49590500000000004,36047.0,11235.0,11235.0,5602.0,5600.0,36047.0,4.0,,198903.0,199512,199512,NY,11235.0,BROOKLYN,PF,O,UN,Z,IN,,12,0.0,0.0,150 BRIGHTON 15TH ST,3.0,0.0,1000.0,V MOLOT ESQ,1.0,11.0,1.0,0.0,1.0,,Z,UN,UN,OT,3.0,,,,,,,A70,A,,
4077,3,N,N,N,N,N,N,N,Y,N,N,N,N,N,N,N,N,N,N,N,112948645,1995,1994,4,4,602,0,3193,0,0,0,0,0,0,44000,122776,175680,-52904,105451,52547,1051,0,191943,0,0,0,0,0,191943,0,10564,WORLD JOURNAL CULTURE FND,FLUSHING,NY,11354-0000,Z,Z99,0.328288,36081.0,11354.0,11354.0,5602.0,5600.0,36081.0,4.0,,198909.0,199506,199506,NY,11354.0,FLUSHING,PF,O,UN,Z,IN,,6,0.0,0.0,141 07 20TH AVE,3.0,0.0,1000.0,,1.0,11.0,1.0,0.0,1.0,,Z,UN,UN,OT,3.0,,,,,,,A33,A,,
4085,3,N,N,N,N,Y,N,N,N,N,N,N,N,N,N,N,N,N,N,N,112964287,1994,1994,1,3,120,36500,0,0,0,0,0,11124,0,0,47624,50171,-2547,0,0,0,0,3043,0,0,0,0,0,11,0,0,INTL COMMENTARY SERVICE,BROOKLYN,NY,11201-1808,A,A32,0.939358,36047.0,11201.0,11201.0,5602.0,5600.0,36047.0,4.0,,9104.0,199412,199412,NY,11201.0,BROOKLYN,PF,O,AR,A,IN,,12,0.0,0.0,195 ADAMS ST - STE 6H,3.0,0.0,1000.0,% GUPTE,1.0,11.0,1.0,0.0,1.0,,A,AR,AR,AR,3.0,,,,,,,A32,A,,
4091,3,N,N,N,N,N,N,N,N,N,N,N,N,N,N,N,N,N,N,N,112976829,1995,1994,1,1,91,8015,0,0,0,0,0,0,0,0,8015,10938,-2923,0,0,0,0,4117,0,0,0,0,0,4117,0,0,AMER MEDALLIC SCULPTURE ASSOC,NEW YORK,NY,10021-0467,Z,Z99,0.20286099999999999,36061.0,10021.0,10021.0,5602.0,5600.0,36061.0,4.0,,199003.0,199506,199506,NY,10021.0,NEW YORK,PF,O,UN,Z,IN,,6,0.0,0.0,1394 3RD AVE,3.0,0.0,1000.0,% GANZ HOLLINGER & TOWE,1.0,13.0,1.0,0.0,1.0,,Z,UN,UN,OT,3.0,,,,,,,A40,A,,
4105,3,N,N,N,N,N,N,N,N,N,N,N,N,N,N,N,N,N,N,N,112994852,1995,1995,0,0,602,0,0,0,0,0,0,0,0,0,0,0,0,0,0,0,0,0,0,0,0,0,0,0,0,0,JUDAICA FND RES & PUBLICATION,NEW YORK,NY,10038-2400,Z,Z99,0.329801,36061.0,10038.0,10038.0,5602.0,5600.0,36061.0,4.0,,9106.0,199512,199512,NY,10038.0,NEW YORK,PF,O,UN,Z,IN,,12,0.0,0.0,132 NASSAU ST 812,3.0,0.0,1000.0,% HAVAZELET,1.0,13.0,1.0,0.0,1.0,,Z,UN,UN,OT,3.0,,,,,,,A33,A,,
4107,3,N,Y,N,N,Y,N,N,N,N,N,N,N,N,N,N,N,Y,N,N,112995688,1995,1994,1,1,90,3900,162,0,0,0,0,4725,0,2500,8787,21704,-12917,16817,162,2,0,86,0,0,0,0,4439,86,0,0,MERANOFEST,NEW YORK,NY,10006-1705,A,A68,0.458334,36061.0,10006.0,10006.0,5602.0,5600.0,36061.0,3.0,,199003.0,199510,199510,NY,10006.0,NEW YORK,PF,O,AR,A,IN,,10,,,,,,,,,,,,,,A,AR,AR,AR,,,,,,,,A68,A,,
4120,3,N,N,N,N,N,N,N,N,N,N,N,N,N,N,N,N,N,N,N,113005761,1995,1995,0,0,125,0,0,0,0,0,0,0,0,0,0,0,0,0,0,0,0,0,0,0,0,0,0,0,0,0,POSITIVE MEDIA YOUTH,NEW YORK,NY,10272-1063,B,B99,0.00686464,36061.0,10272.0,10272.0,5602.0,5600.0,36061.0,4.0,,199005.0,199512,199512,NY,10272.0,NEW YORK,PF,O,ED,B,IN,,12,0.0,0.0,PO BOX 1063 PECK SLIP STA,3.0,0.0,1000.0,% CHARLES G THOMAS,1.0,11.0,1.0,0.0,1.0,,B,ED,ED,ED,3.0,,,,,,,A30,A,,
4131,3,N,N,N,N,N,N,N,N,N,N,N,N,N,N,N,N,N,N,N,113028110,1995,1995,2,3,429,0,0,0,0,0,0,47570,0,0,47570,36559,11011,0,0,0,0,22131,0,0,0,0,0,22131,0,0,LAC HONG MAGAZINE,BROOKLYN,NY,11218-1754,Z,Z99,0.7751170000000001,36047.0,11218.0,11218.0,5602.0,5600.0,36047.0,4.0,,199203.0,199512,199512,NY,11218.0,BROOKLYN,PF,O,UN,Z,IN,,12,120.0,408.0,81 OCEAN PKY RM 3G,3.0,0.0,2000.0,% DIEN THOAI,1.0,11.0,1.0,0.0,1.0,,Z,UN,UN,OT,3.0,,,,,,,A33,A,,
4138,3,N,N,N,N,N,N,N,N,N,N,N,N,N,N,N,N,N,N,N,113038143,1995,1994,4,4,200,200000,0,25523,16289,0,0,0,0,218350,241812,219191,22621,218400,41812,836,0,256546,0,72222,168343,240565,0,279068,0,12078,NOSSEN FND,BROOKLYN,NY,11230-5102,Z,Z99,0.020176200000000002,36047.0,11230.0,11230.0,5602.0,5600.0,36047.0,4.0,,199104.0,199511,199511,NY,11230.0,BROOKLYN,PF,O,UN,Z,IN,,11,0.0,0.0,1280 OCEAN PKY,3.0,0.0,1000.0,,1.0,11.0,1.0,0.0,1.0,,Z,UN,UN,OT,3.0,,,,,,,A33,A,,
4170,3,N,N,N,N,N,N,N,N,N,N,N,N,N,N,N,N,N,N,N,113081355,1995,1995,0,0,91,0,0,0,0,0,0,0,0,0,0,0,0,0,0,0,0,0,0,0,0,0,0,0,0,0,DAN FLAVIN ART FND,NEW YORK,NY,10017-3140,Z,Z99,0.411739,36061.0,10017.0,10017.0,5602.0,5600.0,36061.0,4.0,,199209.0,199512,199512,NY,10017.0,NEW YORK,PF,O,UN,Z,IN,,12,92.0,0.0,237 PARK AVE 21ST FL,3.0,0.0,1000.0,% THOMAS J KOVARCIK,1.0,13.0,1.0,0.0,1.0,,Z,UN,UN,OT,3.0,,,,,,,A12,A,,
4209,3,N,Y,N,N,N,N,N,N,N,N,N,N,N,N,N,N,N,N,N,113137086,1995,1995,4,3,560,30000,9521,0,0,0,0,0,0,86945,39521,89624,-50103,88285,8182,82,8182,300828,0,0,0,0,0,300828,0,16054,J Z L FND,HOLLISWOOD,NY,11423-0000,A,A99,0.447841,36081.0,11423.0,11423.0,5602.0,5600.0,36081.0,4.0,,199508.0,199512,199512,NY,11423.0,HOLLISWOOD,PF,O,AR,A,IN,,12,0.0,0.0,87 09 CLIO ST,3.0,0.0,1000.0,% MICKEY WOHL,1.0,11.0,1.0,0.0,2.0,,A,AR,AR,AR,3.0,,,,,,,A99,A,,
4294,3,N,N,N,N,N,N,N,N,N,N,N,N,N,N,N,N,N,N,N,113227149,1995,1994,2,3,0,4000,0,0,0,0,339,32099,0,0,36439,35089,1350,35089,0,0,0,10500,0,0,0,0,0,9908,0,0,CLAYWORKS COLUMBIA,BROOKLYN,NY,11231-0000,A,A47,0.847776,36047.0,11231.0,11231.0,5602.0,5600.0,36047.0,4.0,,199612.0,199506,199506,NY,11231.0,BROOKLYN,PF,O,AR,A,IN,,6,149.0,59.0,195 COLUMBIA ST,3.0,0.0,3.0,,1.0,1.0,1.0,0.0,1.0,,A,AR,AR,AR,3.0,,,,,,,A40,A,,
4504,2,N,N,N,N,Y,N,N,N,N,N,N,N,N,N,N,N,N,N,N,116036776,1996,1995,5,3,60,37848,0,0,0,0,0,0,0,0,37848,14725,23123,7867,0,0,0,512119,0,0,0,0,6558,512119,0,1113,ANONYMOUS ARTS RECOVERY SOC,NEW YORK,NY,10012-5115,Z,Z99,0.058418899999999996,36061.0,10012.0,10012.0,5602.0,5600.0,36061.0,3.0,,196311.0,199603,199603,NY,10012.0,NEW YORK,PF,O,UN,Z,IN,,3,91.0,0.0,380 W BROADWAY,3.0,0.0,1000.0,,1.0,13.0,1.0,0.0,1.0,,Z,UN,UN,OT,3.0,,,,,,,A03,A,,
4608,3,N,N,N,N,Y,N,N,N,N,N,N,N,N,N,N,N,N,N,N,116101563,1995,1994,1,1,119,500,0,0,0,0,0,0,0,0,500,770,-270,0,0,0,0,165,0,0,0,0,0,165,0,16,FND CLASSIC THEATRE & ACAD,NEW YORK,NY,10036-7211,Z,Z99,0.516484,36061.0,10036.0,10036.0,5602.0,5600.0,36061.0,4.0,,196805.0,199506,199506,NY,10036.0,NEW YORK,PF,O,UN,Z,IN,,6,59.0,0.0,220 W 42ND ST,3.0,0.0,2300.0,% N J STATHIS,1.0,13.0,1.0,0.0,1.0,,Z,UN,UN,OT,3.0,,,,,,,A6E,A,,
4688,2,Y,N,N,N,Y,N,N,N,N,N,N,N,N,N,N,N,N,N,N,130429640,1995,1995,8,6,65,299426,0,1836446,1762539,0,0,388131,90000,702160,4286542,2503557,1782985,2383024,3821934,0,2059395,31574028,31542091,0,0,31542091,1485,34471706,0,1511187,AMER ACAD ARTS & LETTERS,NEW YORK,NY,10032-7501,Z,Z99,0.0636991,36061.0,10032.0,10032.0,5602.0,5600.0,36061.0,2.0,,193503.0,199512,199512,NY,10032.0,NEW YORK,PF,O,UN,Z,IN,,12,207.0,60.0,633 W 155TH ST,3.0,0.0,2300.0,,1.0,13.0,1.0,0.0,1.0,,Z,UN,UN,OT,3.0,,,,,,,A25,A,,
4701,2,N,N,N,N,Y,N,N,N,N,N,N,N,N,N,N,N,N,N,N,131624012,1995,1995,9,9,119,2528993,180913,6122316,10518466,0,448468,1730501,407073,0,21529657,9762978,11766679,8491024,16265530,325311,9916583,145629796,14989473,67297403,39079069,121365945,4717672,174080819,0,7187445,FRICK COLLECTION,NEW YORK,NY,10021-4907,Z,Z99,0.997604,36061.0,10021.0,10021.0,5602.0,5600.0,36061.0,3.0,,193910.0,199512,199512,NY,10021.0,NEW YORK,PF,O,UN,Z,IN,,12,59.0,60.0,1 E 70TH ST,3.0,0.0,1200.0,,1.0,13.0,1.0,0.0,3.0,,Z,UN,UN,OT,3.0,,,,,,,A51,A,,
4719,2,N,Y,N,N,Y,N,N,N,N,N,N,N,N,N,N,N,N,N,N,131656673,1995,1994,6,5,119,91946,9347,35706,132768,0,11100,161564,41275,23132,442431,411591,30840,341012,144185,1442,184777,1039145,151130,653657,0,804787,113650,1584057,0,74099,NAT SCULPTURE SOC,NEW YORK,NY,10036-2714,Z,Z99,0.26462800000000003,36061.0,10036.0,10036.0,5602.0,5600.0,36061.0,3.0,,193901.0,199509,199509,NY,10036.0,NEW YORK,PF,O,UN,Z,IN,,9,59.0,40.0,1177 AVE OF THE AMERICAS,3.0,0.0,2000.0,,1.0,13.0,1.0,0.0,1.0,,Z,UN,UN,OT,3.0,,,,,,,A40,A,,
4747,3,N,N,N,N,N,N,N,N,Y,N,N,N,N,N,N,N,N,N,N,131790739,1995,1994,6,4,561,115133,7914,93099,0,-17298,0,0,30000,99690,198848,164606,34242,132635,70707,1414,0,1647637,849532,473305,49775,1372612,0,1768995,0,83752,MUSICIANS FND,NEW YORK,NY,10001-3507,Z,Z99,0.9793290000000001,36061.0,10001.0,10001.0,5602.0,5600.0,36061.0,4.0,,195305.0,199504,199504,NY,10001.0,NEW YORK,PF,O,UN,Z,IN,,4,0.0,0.0,200 W 55TH ST,3.0,0.0,1000.0,,1.0,13.0,1.0,0.0,1.0,,Z,UN,UN,OT,3.0,,,,,,,A68,A,,
4767,3,N,N,N,N,N,N,N,N,N,N,N,N,N,N,N,N,Y,N,N,131873289,1995,1995,6,5,119,13775,160,61141,50541,0,0,0,0,39054,125619,96867,28752,81396,96483,1930,0,1197298,387409,684775,100801,1172985,320,1549160,0,71316,BAGBY FND MUSICAL ARTS,NEW YORK,NY,10017-6103,A,A50,0.860915,36061.0,10017.0,10017.0,5602.0,5600.0,36061.0,4.0,,194211.0,199512,199512,NY,10017.0,NEW YORK,PF,O,AR,A,IN,,12,0.0,0.0,501 FIFTH AVE,3.0,0.0,1000.0,,1.0,13.0,1.0,0.0,1.0,,A,AR,AR,AR,3.0,,,,,,,A68,A,,
4780,3,N,Y,N,N,N,N,N,N,Y,N,N,N,N,N,N,N,N,N,N,131926551,1995,1995,7,6,119,0,5860,462711,866061,0,0,300,109650,669375,1334932,962860,372072,814259,1345726,13457,0,9762826,0,4549208,899175,5448383,26890,12587322,0,571022,HARKNESS FND DANCE,NEW YORK,NY,10017-1259,Z,Z99,0.804728,36061.0,10017.0,10017.0,5602.0,5600.0,36061.0,4.0,,197903.0,199512,199512,NY,10017.0,NEW YORK,PF,O,UN,Z,IN,,12,0.0,0.0,145 E 48TH ST SUITE 26C,3.0,0.0,1000.0,,1.0,13.0,1.0,0.0,1.0,,Z,UN,UN,OT,3.0,,,,,,,A62,A,,
4787,2,N,N,N,N,Y,N,Y,N,N,N,N,N,N,N,N,N,N,N,N,131947036,1995,1994,1,3,119,23760,1,47,0,0,0,57085,0,0,80893,83331,-2438,26197,47,1,48,504,0,180,0,180,13600,504,0,279,AMOR ARTIS,NEW YORK,NY,10028-0040,Z,Z99,0.820031,36061.0,10028.0,10028.0,5602.0,5600.0,36061.0,3.0,,196311.0,199504,199504,NY,10028.0,NEW YORK,PF,O,UN,Z,IN,,4,59.0,0.0,175 RIVERSIDE DR,3.0,0.0,1200.0,% JEAN CANNON APT 5H,1.0,13.0,1.0,0.0,1.0,,Z,UN,UN,OT,3.0,,,,,,,A99,A,,
4859,3,N,Y,N,N,N,N,N,N,N,N,N,N,N,N,N,N,N,N,N,132621140,1995,1995,4,5,161,0,0,3240,92040,0,0,0,0,210000,95280,216761,-121481,210633,89152,892,0,283665,0,0,0,0,0,283665,0,21782,VIOLA W BERNARD FND,NEW YORK,NY,10021-2651,Z,Z99,0.39217399999999997,36061.0,10021.0,10021.0,5602.0,5600.0,36061.0,4.0,,196812.0,199512,199512,NY,10021.0,NEW YORK,PF,O,UN,Z,IN,,12,180.0,602.0,930 FIFTH AVE,3.0,0.0,1000.0,% HARRY GOODKIN & CO,1.0,13.0,1.0,0.0,1.0,,Z,UN,UN,OT,3.0,,,,,,,A68,A,,
4919,2,N,N,N,N,Y,N,N,N,Y,N,N,N,N,N,N,N,N,N,N,132760185,1995,1994,4,3,8,40000,0,0,0,0,36342,0,0,0,76342,95199,-18857,0,0,0,0,165784,0,0,0,0,2995,165784,0,7983,EAKINS PRESS FND,NEW YORK,NY,10023-6226,Z,Z99,0.170131,36061.0,10023.0,10023.0,5602.0,5600.0,36061.0,4.0,,197404.0,199506,199506,NY,10023.0,NEW YORK,PF,O,UN,Z,IN,,6,0.0,0.0,15 W 67TH ST,3.0,0.0,1000.0,%LESLIE KATZ,1.0,13.0,1.0,0.0,1.0,,Z,UN,UN,OT,3.0,,,,,,,A33,A,,
4950,3,N,Y,N,N,Y,N,N,Y,Y,N,N,N,N,N,N,N,N,N,N,132874843,1995,1995,1,2,995,12238,0,0,0,0,0,0,0,0,12238,15389,-3151,0,0,0,0,3622,0,0,0,0,0,3622,0,191,LAURA PAWEL DANCE COMPANY,NEW YORK,NY,10023-3402,Z,Z99,0.38443299999999997,36061.0,10023.0,10023.0,5602.0,5600.0,36061.0,4.0,,197701.0,199512,199512,NY,10023.0,NEW YORK,PF,O,UN,Z,IN,,12,119.0,0.0,15 W 72ND ST,3.0,0.0,2000.0,,1.0,13.0,1.0,0.0,1.0,,Z,UN,UN,OT,3.0,,,,,,,A62,A,,
4971,3,N,N,N,N,N,N,N,N,N,N,N,N,N,N,N,N,N,N,N,132893085,1994,1993,2,1,92,0,27,1697,0,0,0,995,0,1000,2719,3125,-406,3088,1724,34,0,21340,0,20440,0,20440,0,20150,0,1048,NEW YORK DRAMA CRITIC CIRCLE,NEW YORK,NY,10017-5617,Z,Z99,0.887668,36061.0,10017.0,10017.0,5602.0,5600.0,36061.0,4.0,,197710.0,199409,199409,NY,10017.0,NEW YORK,PF,O,UN,Z,IN,,9,0.0,0.0,655 THIRD AVE,3.0,0.0,2000.0,% ROSENZWEIG & CO,1.0,13.0,1.0,0.0,1.0,,Z,UN,UN,OT,3.0,,,,,,,A65,A,,
4976,3,N,N,N,N,N,N,N,N,N,N,N,N,N,N,N,N,Y,N,N,132896424,1995,1994,3,4,122,142800,1776,0,0,0,0,5407,0,163026,149983,176353,-26370,163026,0,0,0,53459,0,0,0,0,19689,53459,680,680,LIVING ARCHIVES,NEW YORK,NY,10024-1125,Z,Z99,0.647783,36061.0,10024.0,10024.0,5602.0,5600.0,36061.0,15.0,,197710.0,199510,199510,NY,10024.0,NEW YORK,PC,O,UN,Z,IN,,10,0.0,0.0,262 W 91ST ST,3.0,0.0,2000.0,,1.0,13.0,1.0,0.0,1.0,,Z,UN,UN,OT,3.0,,,,,,,A31,A,,
4982,2,N,Y,N,N,Y,N,N,N,N,N,N,N,N,N,N,N,N,N,N,132898805,1995,1994,6,5,119,427912,25,41980,16797,0,0,144986,0,0,631700,695188,-63488,687316,58802,588,179119,1042925,159869,0,0,159869,165277,1042154,0,41896,PUBLIC ART FND,NEW YORK,NY,10022-4201,Z,Z99,0.43872,36061.0,10022.0,10022.0,5602.0,5600.0,36061.0,15.0,,197707.0,199506,199506,NY,10022.0,NEW YORK,PC,O,UN,Z,IN,,6,123.0,429.0,1 E 53RD ST 11TH FL,3.0,0.0,2000.0,,1.0,13.0,1.0,0.0,5.0,,Z,UN,UN,OT,3.0,,,,,,,A1240,A,,
5010,3,N,N,N,Y,N,N,N,N,N,N,N,N,N,N,N,N,N,N,N,132925873,1994,1994,2,3,62,63133,581,38,0,0,0,0,13244,116838,63752,155515,-91763,143233,619,12,0,13425,0,0,0,0,13425,13425,0,2580,AMER MERCHANT MARINERS MEM,NEW YORK,NY,10028-7964,A,A99,0.905194,36061.0,10028.0,10028.0,5602.0,5600.0,36061.0,,,,199412,199412,NY,10028.0,NEW YORK,U,O,AR,A,IN,,12,,,,,,,,,,,,,,A,AR,AR,AR,,,,,,,,A99,A,,
5048,3,N,N,N,N,Y,N,N,N,N,N,N,N,N,N,N,N,N,N,N,132958531,1995,1994,0,0,995,0,0,0,0,0,0,0,0,0,0,0,0,0,0,0,0,0,0,0,0,0,0,0,0,0,CHAMBER PLAYERS LIMITED,NEW YORK,NY,10108-0346,Z,Z99,0.00422294,36061.0,10108.0,10108.0,5602.0,5600.0,36061.0,4.0,,7810.0,199511,199511,NY,10108.0,NEW YORK,PF,O,UN,Z,IN,,11,90.0,0.0,PO BOX 346 TIMES SQ STA,3.0,198311.0,1200.0,% CHRIS EREDE,1.0,13.0,1.0,0.0,1.0,,Z,UN,UN,OT,3.0,,,,,,,A65,A,,
5085,3,N,N,N,N,N,N,N,N,N,N,N,N,N,N,N,N,N,N,N,132982575,1995,1995,2,1,91,0,213,0,0,0,0,0,0,2000,213,2928,-2715,2928,213,0,0,17059,0,0,0,0,0,0,0,706,ROBERT C SCULL FND ARTS,NEW YORK,NY,10029-4316,Z,Z99,0.901159,36061.0,10029.0,10029.0,5602.0,5600.0,36061.0,4.0,,8207.0,199512,199512,NY,10029.0,NEW YORK,PF,O,UN,Z,IN,,12,0.0,0.0,2065 FIRST AVE,3.0,0.0,1000.0,,1.0,13.0,1.0,0.0,1.0,,Z,UN,UN,OT,3.0,,,,,,,A12,A,,
5111,3,N,Y,N,N,N,N,N,N,Y,N,N,N,N,N,N,N,N,N,N,133002233,1996,1995,4,1,60,0,203,1690,0,0,0,0,0,0,1893,4909,-3016,1525,1893,19,1893,294874,0,0,0,0,10300,294874,0,1377,STEDAWILL ART FND,NEW YORK,NY,10123-0599,Z,Z99,0.22963699999999998,36061.0,10123.0,10123.0,5602.0,5600.0,36061.0,4.0,,197911.0,199606,199606,NY,10123.0,NEW YORK,PF,O,UN,Z,IN,,6,0.0,0.0,450 SEVENTH AVE 500,3.0,0.0,1000.0,L WOLLIN,1.0,13.0,1.0,0.0,1.0,,Z,UN,UN,OT,3.0,,,,,,,A12,A,,
5125,2,N,Y,N,N,Y,N,N,N,N,N,N,N,N,N,N,N,N,N,N,133009550,1994,1994,1,1,90,473,0,16,0,0,0,0,0,0,489,470,19,470,16,0,16,447,0,0,0,0,0,447,0,22,INTL MEDIA STUDIES FND,NEW YORK,NY,10168-0002,Z,Z99,0.17863099999999998,36061.0,10168.0,10168.0,5602.0,5600.0,36061.0,3.0,,8002.0,199412,199412,NY,10168.0,NEW YORK,PF,O,UN,Z,IN,,12,119.0,0.0,122 E 42ND ST 3206,3.0,0.0,2000.0,% WILLIAM B OBOYLE,1.0,13.0,1.0,0.0,1.0,,Z,UN,UN,OT,3.0,,,,,,,A30,A,,
5166,3,N,N,N,N,Y,N,Y,N,N,N,N,N,N,N,N,N,N,N,N,133031485,1996,1995,4,1,119,0,0,1580,0,0,0,0,0,6525,1580,6575,-4995,6525,1580,32,1530,125603,0,0,0,0,100006,125603,0,6148,BARISHNIKOV DANCE FND,NEW YORK,NY,10019-3800,Z,Z99,0.565539,36061.0,10019.0,10019.0,5602.0,5600.0,36061.0,4.0,,197911.0,199601,199601,NY,10019.0,NEW YORK,PF,O,UN,Z,IN,,1,0.0,0.0,156 W 56TH ST,3.0,0.0,1000.0,% PADELL NADELL FINE & WEINBERGER,1.0,13.0,1.0,0.0,1.0,,Z,UN,UN,OT,3.0,,,,,,,A62,A,,
5190,3,N,N,N,N,N,N,N,N,N,N,N,N,N,N,N,N,N,N,N,133042386,1995,1995,3,1,119,0,1740,0,0,0,0,0,0,0,1740,44,1696,0,1696,34,0,44475,0,0,0,0,0,44475,2115,2149,FND NAT PERFORMING ARTS CTR INDIAINC,NEW YORK,NY,10178-0002,Z,Z99,0.023486,36061.0,10178.0,10178.0,5602.0,5600.0,36061.0,4.0,,198011.0,199512,199512,NY,10178.0,NEW YORK,PF,O,UN,Z,IN,,12,93.0,0.0,101 PARK AVE 28TH FLOOR,3.0,0.0,1000.0,% TATA INCORPORATED,1.0,13.0,1.0,0.0,1.0,,Z,UN,UN,OT,3.0,,,,,,,A1260,A,,
5196,3,N,N,N,N,N,N,N,N,N,N,N,N,N,N,N,N,N,N,N,133047538,1994,1994,3,4,402,183001,0,0,0,0,0,0,0,0,183001,172449,10552,0,0,0,0,30063,0,0,0,0,0,30063,0,1546,SEPHARDIC HERITAGE FND,NEW YORK,NY,10120-0101,Z,Z99,0.159219,36061.0,10120.0,10120.0,5602.0,5600.0,36061.0,4.0,,198012.0,199412,199412,NY,10120.0,NEW YORK,PF,O,UN,Z,IN,,12,994.0,400.0,1969 E 1ST ST,3.0,198212.0,1.0,SAM CATTON,1.0,1.0,1.0,0.0,1.0,,Z,UN,UN,OT,3.0,,,,,,,A82,A,,
5246,3,N,N,N,N,N,N,N,N,N,N,N,N,N,N,N,N,N,N,N,133062489,1995,1994,3,1,119,0,342,1176,0,0,0,0,0,4175,1518,5112,-3594,4175,1518,30,0,43333,0,20647,3000,23647,3833,43048,2203,2233,LIVING ARTS FND,NEW YORK,NY,10029-5208,Z,Z99,0.269058,36061.0,10029.0,10029.0,5602.0,5600.0,36061.0,4.0,,5703.0,199510,199510,NY,10029.0,NEW YORK,PF,O,UN,Z,IN,,10,602.0,0.0,1200 FIFTH AVE,3.0,0.0,1000.0,% DAVID A TEICHMAN,1.0,13.0,1.0,0.0,1.0,,Z,UN,UN,OT,3.0,,,,,,,A12,A,,
5265,3,N,N,N,N,N,N,N,N,N,N,N,N,N,N,N,N,N,N,N,133072403,1996,1995,0,0,90,0,0,0,0,0,0,0,0,0,0,0,0,50,0,0,0,0,0,0,0,0,0,501,0,26,PLAYWRIGHTS FORUM,NEW YORK,NY,10023-5958,Z,Z99,0.0967054,36061.0,10023.0,10023.0,5602.0,5600.0,36061.0,4.0,,8208.0,199602,199602,NY,10023.0,NEW YORK,PF,O,UN,Z,IN,,2,909.0,0.0,111 W 67TH ST 30C,3.0,0.0,2000.0,% TRAUM,1.0,13.0,1.0,0.0,1.0,,Z,UN,UN,OT,3.0,,,,,,,A65,A,,
5284,3,N,N,N,N,N,N,N,N,N,N,N,N,N,N,N,N,N,N,N,133082489,1995,1994,2,1,90,2500,0,26,0,0,0,0,0,4000,2526,4097,-1571,4070,0,0,0,12710,0,0,0,0,476,12710,0,665,TONY RANDALL THEATRICAL FND,NEW YORK,NY,10122-0008,Z,Z99,0.505209,36061.0,10122.0,10122.0,5602.0,5600.0,36061.0,4.0,,198210.0,199506,199506,NY,10122.0,NEW YORK,PF,O,UN,Z,IN,,6,995.0,0.0,225 W 34TH ST,3.0,198306.0,2000.0,% A GOLDFINE CPA,1.0,13.0,1.0,0.0,1.0,,Z,UN,UN,OT,3.0,,,,,,,A65,A,,
5293,3,N,Y,N,N,Y,N,N,N,N,N,N,N,N,N,N,N,N,N,N,133085960,1995,1994,1,2,90,15000,0,0,0,0,0,45,0,0,15045,13055,1990,13055,0,0,0,3876,0,0,0,0,0,3876,0,159,FRIENDS YOUNG MUSICIANS,NEW YORK,NY,10022-5493,Z,Z99,0.74774,36061.0,10022.0,10022.0,5602.0,5600.0,36061.0,4.0,,198109.0,199511,199511,NY,10022.0,NEW YORK,PF,O,UN,Z,IN,,11,0.0,0.0,515 MADISON AVE 15TH FLOOR,3.0,0.0,2000.0,,1.0,13.0,1.0,0.0,1.0,,Z,UN,UN,OT,3.0,,,,,,,A1168,A,,
5307,3,N,N,N,N,N,N,N,N,N,N,N,N,N,N,N,N,N,N,N,133093638,1995,1995,6,4,91,0,925,295883,18740,0,0,5439,0,195200,320987,211326,109661,195200,304861,6097,286121,4058058,0,234946,3431570,3666516,0,4248888,0,197155,MILTON & SALLY AVERY ARTS FND,NEW YORK,NY,10022-7572,Z,Z99,0.42294499999999996,36061.0,10022.0,10022.0,5602.0,5600.0,36061.0,4.0,,198311.0,199512,199512,NY,10022.0,NEW YORK,PF,O,UN,Z,IN,,12,123.0,561.0,805 THIRD AVE 21ST FLR,3.0,0.0,1000.0,% FINLEY KUMBLE ET AL,1.0,13.0,1.0,0.0,1.0,FELDMAN RADIN & CO PC,Z,UN,UN,OT,3.0,,,,,,,A1261,A,,
5390,3,N,N,N,N,Y,N,N,N,N,N,N,N,N,N,N,N,N,N,N,133124565,1995,1995,6,3,119,25000,0,0,0,0,0,0,0,0,25000,29,24971,0,0,0,0,1060661,0,0,0,0,0,1060661,0,0,AMER FRIENDS CANADIAN CTR ARCHITECTURE,NEW YORK,NY,10017-3903,Z,Z99,0.9661719999999999,36061.0,10017.0,10017.0,5602.0,5600.0,36061.0,4.0,,198206.0,199512,199512,NY,10017.0,NEW YORK,PF,O,UN,Z,IN,,12,0.0,0.0,425 LEXINGTON AVE,3.0,0.0,2000.0,DAVIES WARD PHILLIPS&VINEBERG LLP,1.0,13.0,1.0,0.0,1.0,,Z,UN,UN,OT,3.0,,,,,,,A1140,A,,
5399,3,N,N,N,N,Y,N,N,Y,N,N,N,N,N,N,N,N,N,N,N,133127149,1996,1995,3,4,119,177030,0,0,0,0,0,0,0,21710,177030,156283,20747,137258,0,0,0,50720,0,0,0,0,291,50720,0,0,MUSICAL THEATRE PROJECT,NEW YORK,NY,10122-0039,Z,Z99,0.12850799999999998,36061.0,10122.0,10122.0,5602.0,5600.0,36061.0,4.0,,198310.0,199606,199606,NY,10122.0,NEW YORK,PF,O,UN,Z,IN,,6,0.0,0.0,225 W 34TH ST RM 1200,3.0,0.0,1000.0,,1.0,13.0,1.0,0.0,1.0,,Z,UN,UN,OT,3.0,,,,,,,A65,A,,
5511,2,N,N,N,N,Y,N,Y,N,N,N,N,N,N,N,N,N,N,N,N,133171936,1996,1995,5,4,90,517,2282,38339,698,0,0,493,0,41058,42329,127885,-85556,126664,41319,826,40621,702453,0,372781,27200,399981,0,884120,0,45229,HERRICK THEATRE FND,NEW YORK,NY,10021-7055,Z,Z99,0.6574260000000001,36061.0,10021.0,10021.0,5602.0,5600.0,36061.0,3.0,,198310.0,199605,199605,NY,10021.0,NEW YORK,PF,O,UN,Z,IN,,5,994.0,0.0,605 PARK AVE 7A,3.0,198405.0,2000.0,% ROSENBERG NEUWIRTH & KUCHNER,1.0,13.0,1.0,0.0,1.0,LUCKY VENTURE CO,Z,UN,UN,OT,3.0,,,,,,,A65,A,,
5525,3,N,N,N,N,N,N,N,N,N,N,N,N,N,N,N,N,N,N,N,133180628,1995,1995,6,4,90,2100,0,75616,20132,0,0,0,0,109209,97848,165817,-67969,109259,39191,784,19059,1569366,498858,636252,0,1135110,0,1689229,0,80892,GEORGE BALANCHINE FND,NEW YORK,NY,10023-0000,Z,Z99,0.9769329999999999,36061.0,10023.0,10023.0,5602.0,5600.0,36061.0,15.0,,198404.0,199512,199512,NY,10023.0,NEW YORK,PC,O,UN,Z,IN,,12,0.0,0.0,LINCOLN CTR,3.0,0.0,1000.0,% MS BARBARA HORGAN,1.0,13.0,1.0,0.0,1.0,,Z,UN,UN,OT,3.0,,,,,,,A99,A,,
5531,3,N,N,N,N,N,N,N,N,N,N,N,Y,N,N,N,N,N,N,N,133182985,1995,1995,1,1,998,0,3,0,0,0,0,0,0,0,3,304,-301,0,0,0,3,151,0,0,0,0,0,151,7,7,FRIENDS CHINESE DERMATOLOGY,NEW YORK,NY,10016-6402,Z,Z99,0.0312315,36061.0,10016.0,10016.0,5602.0,5600.0,36061.0,,,,199512,199512,NY,10016.0,NEW YORK,U,O,UN,Z,IN,,12,,,,,,,,,,,,,,Z,UN,UN,OT,,,,,,,,A1123,A,,
5576,3,N,Y,N,N,N,N,N,N,N,N,N,N,N,N,N,N,N,N,N,133200329,1996,1995,8,7,602,440000,0,2924225,0,-57832,0,0,65000,2396052,3306393,2784384,522009,2406745,2917241,29172,0,35836474,15570414,458200,18300310,34328924,0,37856974,0,1811668,LIZ CLAIBORNE & ART ORTENBERG FND,NEW YORK,NY,10006-3201,Z,Z99,0.578577,36061.0,10006.0,10006.0,5602.0,5600.0,36061.0,4.0,,198508.0,199601,199601,NY,10006.0,NEW YORK,PF,O,UN,Z,IN,,1,0.0,0.0,650 FIFTH AVE,3.0,0.0,1000.0,GRAF REPETTI & CO LLP,1.0,13.0,1.0,0.0,2.0,,Z,UN,UN,OT,3.0,,,,,,,A12,A,,
5579,3,N,N,N,N,N,N,N,N,N,N,N,N,N,N,N,N,N,N,N,133201819,1996,1995,5,3,119,0,250,52726,0,0,0,0,500,2345,52976,18244,34732,17184,52976,1060,0,846477,0,0,0,0,185994,846477,0,33801,PERSIAN HERITAGE FND,NEW YORK,NY,10027-6821,Z,Z99,0.889977,36061.0,10027.0,10027.0,5602.0,5600.0,36061.0,4.0,,198406.0,199606,199606,NY,10027.0,NEW YORK,PF,O,UN,Z,IN,,6,602.0,0.0,450 RIVERSIDE DRIVE,3.0,0.0,1000.0,,1.0,13.0,1.0,0.0,1.0,,Z,UN,UN,OT,3.0,,,,,,,A23,A,,
5606,3,N,N,N,N,N,N,N,N,N,N,N,N,N,N,N,N,N,N,N,133210017,1996,1995,1,0,160,0,0,0,0,0,0,0,0,0,0,50,-50,0,0,0,0,1421,0,0,0,0,0,1421,0,0,PROGRAMMING PLANNING & PLACEMENT ALTERNATIVES,BRONX,NY,10469-4905,Z,Z99,0.210689,36005.0,10469.0,10469.0,5602.0,5600.0,36005.0,4.0,,198501.0,199606,199606,NY,10469.0,BRONX,PF,O,UN,Z,IN,,6,0.0,0.0,999 PELHAM PKY,3.0,0.0,1000.0,,1.0,13.0,1.0,0.0,1.0,,Z,UN,UN,OT,3.0,,,,,,,A61,A,,
5633,3,N,N,N,N,N,N,Y,N,N,N,N,N,N,N,N,N,N,N,N,133224878,1995,1995,2,2,0,7600,128,0,0,0,134,0,0,0,7862,7767,95,7767,128,0,0,11814,0,0,0,0,8632,11814,0,0,CHILDRENS MUSIC WORKSHOP,NEW YORK,NY,10025-4100,Z,Z99,0.7500319999999999,36061.0,10025.0,10025.0,5602.0,5600.0,36061.0,3.0,,199112.0,199512,199512,NY,10025.0,NEW YORK,PF,O,UN,Z,IN,,12,0.0,0.0,315 RIVERSIDE DRIVE SUITE 7C,3.0,0.0,1000.0,,1.0,13.0,1.0,0.0,5.0,,Z,UN,UN,OT,3.0,,,,,,,A20,A,,
5647,3,N,N,N,N,N,N,N,N,N,N,N,N,N,N,N,N,N,N,N,133229829,1995,1994,1,3,46,43382,0,0,0,0,0,0,0,0,43382,49603,-6221,0,0,0,0,5542,0,0,0,0,0,5542,0,0,KOREAN LANGUAGE & CULTURAL INST,NEW YORK,NY,10001-7603,A,A23,0.474196,36061.0,10001.0,10001.0,5602.0,5600.0,36061.0,4.0,,199101.0,199504,199504,NY,10001.0,NEW YORK,PF,O,AR,A,IN,,4,0.0,0.0,246 5TH AVE 500,3.0,0.0,1000.0,,1.0,13.0,1.0,0.0,1.0,,A,AR,AR,AR,3.0,,,,,,,A23,A,,
5658,3,N,Y,N,N,N,N,N,N,N,N,N,N,N,N,N,N,N,N,N,133236892,1995,1994,6,6,93,930000,4535,0,0,0,0,452606,0,14000,1387141,139009,1248132,139009,457141,4571,0,1278547,0,0,0,0,0,1278547,0,0,HARA MUS FND,NEW YORK,NY,10004-2616,Z,Z99,0.8366969999999999,36061.0,10004.0,10004.0,5602.0,5600.0,36061.0,4.0,,198509.0,199506,199506,NY,10004.0,NEW YORK,PF,O,UN,Z,IN,,6,0.0,0.0,420 LEXINGTON AVE 335,3.0,0.0,1000.0,% KO-YUNG TUNG OMELVENY & MYERS,1.0,13.0,1.0,0.0,1.0,,Z,UN,UN,OT,3.0,,,,,,,A50,A,,
5665,2,N,N,N,N,Y,N,N,N,N,N,N,N,N,N,N,N,N,N,N,133243285,1994,1993,5,3,602,321045,4042,0,0,-279781,0,0,0,5180,45306,112315,-67009,94648,4042,0,4042,670205,0,0,25000,25000,6910,667705,0,1479,BLACK RIVER ENVIRONMENTAL IMPROV ASSOC,NEW YORL,NY,10153-0001,T,T99,0.183185,36061.0,10153.0,10153.0,5602.0,5600.0,36061.0,17.0,,198503.0,199404,199404,NY,10153.0,NEW YORL,PC,S,ZF,T,IN,,4,0.0,0.0,RR 3 BOX 50A 50,3.0,0.0,1000.0,% ACCOUNTING SERVICES OF BOONVILLE,1.0,16.0,1.0,0.0,1.0,,T,PU,PU,OT,3.0,,,,,,,A23,A,,
5710,3,N,N,N,N,N,N,N,N,N,N,N,N,N,N,N,N,N,N,N,133253712,1996,1995,1,1,995,0,23,0,0,0,0,0,0,0,23,0,23,0,23,0,0,835,0,0,0,0,0,835,0,41,RADIO DRAMA NETWORK,NEW YORK,NY,10024-3006,Z,Z99,0.0481041,36061.0,10024.0,10024.0,5602.0,5600.0,36061.0,4.0,,198503.0,199606,199606,NY,10024.0,NEW YORK,PF,O,UN,Z,IN,,6,90.0,0.0,285 CENTRAL PARK WEST,3.0,198906.0,1000.0,% HIMAN BROWN,1.0,13.0,1.0,0.0,1.0,,Z,UN,UN,OT,3.0,,,,,,,A34,A,,
5717,2,N,N,N,N,Y,N,N,N,N,N,N,N,N,N,N,N,N,N,N,133255361,1995,1994,2,4,90,46954,0,0,0,0,0,98295,36110,0,145249,130353,14896,0,0,0,0,16264,0,0,0,0,0,16264,0,66,LIVING THEATRE,NEW YORK,NY,10025-5467,Z,Z99,0.57485,36061.0,10025.0,10025.0,5602.0,5600.0,36061.0,2.0,,198504.0,199506,199506,NY,10025.0,NEW YORK,PF,O,UN,Z,IN,,6,0.0,0.0,800 W END AVE STE 5A,3.0,0.0,1000.0,,1.0,13.0,1.0,0.0,1.0,,Z,UN,UN,OT,3.0,,,,,,,A65,A,,
5755,3,N,Y,N,N,N,N,N,N,Y,N,N,N,N,N,N,N,N,N,N,133271577,1995,1995,5,6,561,176944,5880,86521,75896,0,-677666,0,112572,248200,-332425,783340,-1115765,702077,87034,870,0,645499,143023,0,48958,191981,71009,678438,0,52669,ART MATTERS,NEW YORK,NY,10113-1815,Z,Z99,0.071158,36061.0,10113.0,10113.0,5602.0,5600.0,36061.0,4.0,,198510.0,199512,199512,NY,10113.0,NEW YORK,PF,O,UN,Z,IN,,12,0.0,0.0,440 PARK AVE S,3.0,0.0,2000.0,,1.0,13.0,1.0,0.0,1.0,,Z,UN,UN,OT,3.0,,,,,,,A99,A,,
5788,3,N,Y,N,N,N,N,N,N,Y,N,N,N,N,N,N,N,N,N,N,133305823,1996,1995,6,5,602,0,703,90205,111630,0,0,0,11359,78509,202538,91627,110911,84488,196149,1961,0,1583083,0,0,0,0,0,1697850,0,82381,DOROTHY B MELVILLE TR MUSEUMS AT STONY BROOK,NEW YORK,NY,10008-0829,Z,Z99,0.538007,36061.0,10008.0,10008.0,5602.0,5600.0,36061.0,4.0,,198703.0,199604,199604,NY,10008.0,NEW YORK,PF,O,UN,Z,IN,,4,0.0,0.0,PO BOX 829 CHURCH ST STA,3.0,0.0,1000.0,% BANKERS TR CO,1.0,13.0,1.0,0.0,2.0,,Z,UN,UN,OT,3.0,,,,,,,A50,A,,
5828,3,N,Y,N,N,Y,N,Y,N,N,N,N,N,Y,N,N,N,N,N,N,133317928,1995,1994,8,4,91,0,0,0,0,-53822,0,0,0,500,-53822,128115,-181937,119848,0,0,0,26319124,0,0,0,0,1888809,12019728,0,42,IAN WOODNER FAMILY COLLECTION,NEW YORK,NY,10151-0099,Z,Z99,0.8464520000000001,36061.0,10151.0,10151.0,5602.0,5600.0,36061.0,3.0,,198605.0,199506,199506,NY,10151.0,NEW YORK,PF,O,UN,Z,IN,,6,119.0,0.0,745 FIFTH AVE,3.0,0.0,2000.0,,1.0,13.0,1.0,0.0,1.0,,Z,UN,UN,OT,3.0,,,,,,,A99,A,,
5866,3,N,N,N,N,N,N,N,N,N,N,N,N,N,N,N,N,N,N,N,133320806,1993,1993,0,1,64,0,17,0,0,0,0,0,0,0,17,0,17,0,0,0,0,0,0,0,0,0,0,0,0,0,FUNDACION CULTURA HISPANICA,STATEN ISLAND,NY,10314-5350,Z,Z99,0.100687,36085.0,10314.0,10314.0,5602.0,5600.0,36085.0,4.0,,199306.0,199312,199312,NY,10314.0,STATEN ISLAND,PF,O,UN,Z,IN,,12,90.0,0.0,125 QUEEN STREET,3.0,0.0,1000.0,,1.0,13.0,1.0,0.0,1.0,,Z,UN,UN,OT,3.0,,,,,,,A23,A,,
5884,3,N,N,N,N,N,N,N,N,N,N,N,N,N,N,N,N,N,N,N,133327907,1995,1995,0,0,88,0,0,0,0,0,0,0,0,0,0,0,0,0,0,0,0,0,0,0,0,0,0,0,0,0,J MICHAEL BLOOM THEATRE FUNDATION,NEW YORK,NY,10003-1683,Z,Z99,0.48416400000000004,36061.0,10003.0,10003.0,5602.0,5600.0,36061.0,4.0,,198605.0,199512,199512,NY,10003.0,NEW YORK,PF,O,UN,Z,IN,,12,602.0,0.0,233 PARK AVE S FLOOR 10,3.0,0.0,1000.0,% J MICHAEL BLOOM LTD,1.0,13.0,1.0,0.0,1.0,,Z,UN,UN,OT,3.0,,,,,,,A65,A,,
5886,3,N,Y,N,N,N,N,N,Y,Y,N,N,N,N,N,N,N,N,N,N,133328723,1995,1994,6,4,602,0,1736,179729,1602,0,0,1198,0,164000,184265,236837,-52572,183452,155478,1555,0,2690610,2573313,0,0,2573313,23205,2699109,59798,136141,MEX AM CULTURAL FND,NEW YORK,NY,10022-1010,Z,Z99,0.354073,36061.0,10022.0,10022.0,5602.0,5600.0,36061.0,4.0,,198610.0,199509,199509,NY,10022.0,NEW YORK,PF,O,UN,Z,IN,,9,600.0,603.0,645 MADISON AVE,3.0,0.0,1000.0,GRANT HERRMANN SCHWARTZ & KLINGER,1.0,13.0,1.0,0.0,1.0,,Z,UN,UN,OT,3.0,,,,,,,A1220,A,,
5928,2,N,Y,N,N,Y,N,N,N,N,N,N,N,N,N,N,N,N,N,N,133347776,1995,1995,4,3,120,63500,4141,531,0,0,0,0,0,0,68172,61026,7146,45545,4672,47,4672,472695,0,206976,0,206976,29766,543815,0,16807,BURLINGTON MAGAZINE FND,NEW YORK,NY,10004-2400,Z,Z99,0.681655,36061.0,10004.0,10004.0,5602.0,5600.0,36061.0,3.0,,198609.0,199512,199512,NY,10004.0,NEW YORK,PF,O,UN,Z,IN,,12,0.0,0.0,250 PARK AVE,3.0,0.0,1000.0,SULLIVAN AND CROMWELL,1.0,13.0,1.0,0.0,1.0,,Z,UN,UN,OT,3.0,,,,,,,A33,A,,
5948,3,N,Y,N,N,N,N,N,N,N,N,N,N,N,N,N,N,N,N,N,133354167,1995,1995,6,3,602,1567,12764,594,9236,0,0,0,3500,0,24161,49110,-24949,49459,22594,226,12707,1095131,0,11938,0,11938,0,1092057,0,14073,GREENWICH COLLECTION,NEW YORK,NY,10012-5902,Z,Z99,0.501853,36061.0,10012.0,10012.0,5602.0,5600.0,36061.0,4.0,,198703.0,199512,199512,NY,10012.0,NEW YORK,PF,O,UN,Z,IN,,12,0.0,0.0,435 W BROADWAY,3.0,0.0,1000.0,% CHADBOURNE & PARKE,1.0,13.0,1.0,0.0,1.0,,Z,UN,UN,OT,3.0,,,,,,,A99,A,,
5981,3,N,N,N,N,N,N,N,N,N,N,N,N,N,N,N,N,N,N,N,133367820,1993,1993,0,0,91,0,0,0,0,0,0,0,0,0,0,0,0,0,0,0,0,0,0,0,0,0,0,0,0,0,ATW COMMUNICATIONS,NEW YORK,NY,10003-7118,Z,Z99,0.860836,36061.0,10003.0,10003.0,5602.0,5600.0,36061.0,4.0,,,199312,199312,NY,10003.0,NEW YORK,PF,O,UN,Z,IN,,12,,,,,,,,,,,,,,Z,UN,UN,OT,,,,,,,,A30,A,,
6195,3,N,Y,N,N,N,N,N,N,N,N,N,N,N,N,N,N,Y,N,N,133396112,1995,1995,2,1,119,5200,209,0,0,0,0,0,0,6976,5409,7408,-1999,7408,209,2,0,15424,0,0,0,0,0,15424,0,808,INST ICE AGE STUDIES,NEW YORK,NY,10003-6759,Z,Z99,0.994073,36061.0,10003.0,10003.0,5602.0,5600.0,36061.0,4.0,,198704.0,199512,199512,NY,10003.0,NEW YORK,PF,O,UN,Z,IN,,12,149.0,0.0,25 WAVERLY PLACE,3.0,0.0,1000.0,,1.0,11.0,1.0,0.0,1.0,,Z,UN,UN,OT,3.0,,,,,,,A99,A,,
6198,3,N,N,N,N,N,N,N,N,N,N,N,N,N,N,N,N,N,N,N,133398045,1995,1995,6,6,602,422338,1355,199640,19304,0,0,0,0,488051,642637,535417,107220,10796,606067,12121,0,2750737,0,2715931,0,2715931,0,2863644,0,127777,ABBY & MITCH LEIGH FND,NEW YORK,NY,10021-4951,Z,Z99,0.688171,36061.0,10021.0,10021.0,5602.0,5600.0,36061.0,4.0,,198705.0,199512,199512,NY,10021.0,NEW YORK,PF,O,UN,Z,IN,,12,0.0,0.0,880 FIFTH AVENUE,3.0,0.0,1000.0,% MITCH & MRS LEIGH,1.0,13.0,1.0,0.0,1.0,LEIGH ABBY AND MITCH TRUSTEES,Z,UN,UN,OT,3.0,,,,,,,A68,A,,
6222,3,N,N,N,Y,N,N,N,N,N,N,N,N,N,N,N,N,N,N,N,133404008,1994,1994,0,0,602,0,0,0,0,0,0,0,0,0,0,0,0,0,0,0,0,0,0,0,0,0,0,0,0,0,FRIENDS THYSSEN BORNEMISZA ART COLLECTIONS,NEW YORK,NY,10005-1401,Z,Z99,0.977036,36061.0,10005.0,10005.0,5602.0,5600.0,36061.0,4.0,,,199412,199412,NY,10005.0,NEW YORK,PF,O,UN,Z,IN,,12,,,,,,,,,,,,,,Z,UN,UN,OT,,,,,,,,A1140,A,,
6245,3,N,Y,N,N,N,N,N,N,Y,N,N,N,N,N,N,N,N,Y,N,133410749,1995,1994,9,7,119,733310,7306,336467,3931126,0,0,484953,426583,782270,5493162,8395561,-2902399,8118584,277554,2776,0,109667091,0,0,0,0,415000,94548013,0,3433481,ANDY WARHOL FND VISUAL ARTS,NEW YORK,NY,10012-0000,Z,Z99,0.266846,36061.0,10012.0,10012.0,5602.0,5600.0,36061.0,4.0,,198801.0,199504,199504,NY,10012.0,NEW YORK,PF,O,UN,Z,IN,,4,91.0,0.0,65 BLEEKER ST 7TH FLR,3.0,0.0,1000.0,% GOTTFRIED,1.0,13.0,1.0,0.0,1.0,,Z,UN,UN,OT,3.0,,,,,,,A40,A,,
6352,3,N,N,N,N,N,N,N,N,N,N,N,N,N,N,N,N,N,N,N,133442712,1994,1994,3,3,122,93800,0,0,0,0,0,158,0,0,93958,248742,-154784,0,0,0,0,46234,0,0,0,0,1316,46234,0,0,OUTSIDE IN JULY,NEW YORK,NY,10019-3700,A,A31,0.44584300000000004,36061.0,10019.0,10019.0,5602.0,5600.0,36061.0,4.0,,198810.0,199412,199412,NY,10019.0,NEW YORK,PF,O,AR,A,IN,,12,0.0,0.0,59 BARROW ST,3.0,0.0,1000.0,% J L ROSENHOUSE CPA INC,1.0,13.0,1.0,0.0,1.0,GARRISON,A,AR,AR,AR,3.0,,,,,,,A31,A,,
6354,3,N,N,N,N,N,N,N,N,N,N,N,Y,N,N,N,N,N,N,N,133442953,1995,1995,2,2,121,22320,289,0,0,0,0,0,0,0,22609,39685,-17076,0,289,6,289,17035,0,0,0,0,0,17035,79,85,VIDEO INFORMATION NETWORK,NEW YORK,NY,10024-3105,A,A31,0.221967,36061.0,10024.0,10024.0,5602.0,5600.0,36061.0,4.0,,198802.0,199512,199512,NY,10024.0,NEW YORK,PF,O,AR,A,IN,,12,0.0,0.0,145 W 86TH ST APT 3A,3.0,0.0,1000.0,,1.0,13.0,1.0,0.0,1.0,,A,AR,AR,AR,3.0,,,,,,,A31,A,,
6370,3,N,N,N,N,Y,N,N,N,N,N,N,N,N,N,N,N,N,N,N,133447662,1995,1995,1,1,90,7251,0,0,0,0,0,0,0,0,7251,7320,-69,7320,0,0,0,3061,0,0,0,0,0,3061,0,153,CNCL LIVING MUSIC,NEW YORK,NY,10036-1308,Z,Z99,0.915643,36061.0,10036.0,10036.0,5602.0,5600.0,36061.0,4.0,,198808.0,199512,199512,NY,10036.0,NEW YORK,PF,O,UN,Z,IN,,12,119.0,0.0,322 W 48TH ST,3.0,0.0,1000.0,% LOCAL 802 AF OF MUSICIANS LOCAL,1.0,13.0,1.0,0.0,1.0,802,Z,UN,UN,OT,3.0,,,,,,,A68,A,,
6402,2,N,Y,N,N,Y,N,N,N,N,N,N,N,N,N,N,N,N,N,N,133458208,1995,1994,8,8,0,2248575,0,912292,0,-490381,0,14502,0,750000,2684988,877809,1807179,750000,853906,8539,798985,19054664,0,16860027,0,16860027,778431,20321610,0,845740,DAHESH MUS,NEW YORK,NY,10017-1024,Z,Z99,0.427176,36061.0,10017.0,10017.0,5602.0,5600.0,36061.0,3.0,,198807.0,199505,199505,NY,10017.0,NEW YORK,PF,O,UN,Z,IN,,5,0.0,0.0,601 5TH AVENUE 2ND FLOOR,3.0,0.0,5000.0,,1.0,13.0,1.0,0.0,1.0,,Z,UN,UN,OT,3.0,,,,,,,A50,A,,
6417,3,N,N,N,Y,N,N,N,N,N,N,N,N,N,N,N,N,N,N,N,133465520,1994,1994,0,0,602,0,0,0,0,0,0,0,0,5094,0,5313,-5313,5313,0,0,0,0,0,0,0,0,0,0,0,245,SOUTHERN AFRICAN ADVANCED EDUC & TRAINI,NEW YORK,NY,10112-0002,Z,Z99,0.842151,36061.0,10112.0,10112.0,5602.0,5600.0,36061.0,4.0,,,199412,199412,NY,10112.0,NEW YORK,PF,O,UN,Z,IN,,12,,,,,,,,,,,,,,Z,UN,UN,OT,,,,,,,,A23,A,,
6427,3,N,N,N,Y,N,N,N,N,N,N,N,N,N,N,N,N,N,N,N,133469715,1995,1995,0,0,90,0,0,0,0,0,0,0,0,0,0,0,0,0,0,0,0,0,0,0,0,0,0,0,0,0,HARPSICHORD SOC,NEW YORK,NY,10010-2023,Z,Z99,0.150409,36061.0,10010.0,10010.0,5602.0,5600.0,36061.0,4.0,,8902.0,199512,199512,NY,10010.0,NEW YORK,PF,O,UN,Z,IN,,12,0.0,0.0,22 W 26TH ST,3.0,0.0,1000.0,% ANN BURACK-WEISS,1.0,13.0,1.0,0.0,1.0,,Z,UN,UN,OT,3.0,,,,,,,A68,A,,
6448,3,N,N,N,N,N,N,N,N,N,N,N,N,N,N,N,N,N,N,N,133476571,1995,1994,1,1,122,775,0,0,0,0,0,0,0,0,775,1184,-409,0,0,0,0,642,0,0,0,0,0,642,0,0,ETHNOLOGY CINEMA PROJECT,NEW YORK,NY,10014-5207,Z,Z99,0.621424,36061.0,10014.0,10014.0,5602.0,5600.0,36061.0,4.0,,8904.0,199509,199509,NY,10014.0,NEW YORK,PF,O,UN,Z,IN,,9,0.0,0.0,30 BANK ST,3.0,0.0,2000.0,,1.0,13.0,1.0,0.0,1.0,,Z,UN,UN,OT,3.0,,,,,,,A31,A,,
6465,3,N,N,N,Y,N,N,N,N,N,N,N,N,N,N,N,N,N,N,N,133483365,1993,1993,0,1,602,0,40,0,0,0,0,0,0,5206,40,5206,-5166,0,0,0,0,0,0,0,0,0,0,0,0,0,ANTONIA MASTROCRISTINO SIRENA CULTURAL FND,NEW YORK,NY,10028-0135,Z,Z99,0.836203,36061.0,10028.0,10028.0,5602.0,5600.0,36061.0,,,,199312,199312,NY,10028.0,NEW YORK,U,O,UN,Z,IN,,12,,,,,,,,,,,,,,Z,UN,UN,OT,,,,,,,,A1220,A,,
6474,3,N,N,N,N,N,N,N,N,N,N,N,N,N,N,N,N,N,N,N,133486646,1995,1995,4,1,123,0,2442,1805,0,0,0,0,0,0,4247,12,4235,0,4235,85,0,133026,0,133002,0,133002,0,142966,4654,7040,RONALD WILFORD FND CONDUCTORS,NEW YORK,NY,10019-2201,A,A60,0.50083,36061.0,10019.0,10019.0,5602.0,5600.0,36061.0,4.0,,198906.0,199512,199512,NY,10019.0,NEW YORK,PF,O,AR,A,IN,,12,0.0,0.0,165 W 57TH ST,3.0,0.0,1000.0,US TRUST CO OF NY,1.0,13.0,1.0,0.0,1.0,,A,AR,AR,AR,3.0,,,,,,,A60,A,,
6475,3,N,N,N,N,N,N,N,N,N,N,N,N,N,N,N,N,N,N,N,133487704,1994,1994,0,0,602,0,0,0,0,0,0,0,0,0,0,2167,-2167,2167,0,0,0,0,0,0,0,0,34351,0,0,0,MUSIC PROJECT,NEW YORK,NY,10021-1202,Z,Z99,0.24109699999999998,36061.0,10021.0,10021.0,5602.0,5600.0,36061.0,4.0,,8907.0,199412,199412,NY,10021.0,NEW YORK,PF,O,UN,Z,IN,,12,0.0,0.0,226 E 79TH ST,3.0,0.0,1000.0,% ILANA VERED,1.0,13.0,1.0,0.0,1.0,,Z,UN,UN,OT,3.0,,,,,,,A68,A,,
6506,3,N,N,N,Y,N,N,N,N,N,N,N,N,N,N,N,N,N,N,N,133498740,1993,1993,0,0,90,0,0,0,0,0,0,0,0,4280,0,6047,-6047,6047,0,0,0,0,0,0,0,0,0,0,0,149,SARAH GAMBLE DANCE GROUP,NEW YORK,NY,10011-6804,Z,Z99,0.341887,36061.0,10011.0,10011.0,5602.0,5600.0,36061.0,,,,199312,199312,NY,10011.0,NEW YORK,U,O,UN,Z,IN,,12,,,,,,,,,,,,,,Z,UN,UN,OT,,,,,,,,A62,A,,
6573,3,N,N,N,N,N,N,N,N,N,N,N,Y,N,N,N,N,N,N,N,133525999,1995,1995,5,6,200,0,7,43924,0,-59008,0,0,0,122000,-15077,126108,-141185,122550,43851,877,0,804318,0,152792,327019,479811,0,859623,0,28831,RALPH C MARCOVE INTL UNDRSTDG THROUGH ARTS & CRAFTS FNDTN,NEW YORK,NY,10021-4871,Z,Z99,0.307987,36061.0,10021.0,10021.0,5602.0,5600.0,36061.0,4.0,,198304.0,199512,199512,NY,10021.0,NEW YORK,PF,O,UN,Z,IN,,12,0.0,0.0,517 E 71ST ST,3.0,0.0,1000.0,MARCOVE,1.0,13.0,1.0,0.0,1.0,,Z,UN,UN,OT,3.0,,,,,,,A40,A,,
6585,3,N,N,N,N,Y,N,N,N,N,N,N,N,N,N,N,N,N,N,N,133527874,1995,1994,1,4,432,125450,5,0,0,0,0,0,23302,14438,125455,125150,305,125150,5,0,5,1803,0,0,0,0,11023,1803,0,90,FND ETHNIC UNDERSTANDING,NEW YORK,NY,10017-2415,Z,Z99,0.34785,36061.0,10017.0,10017.0,5602.0,5600.0,36061.0,4.0,,199010.0,199505,199505,NY,10017.0,NEW YORK,PF,O,UN,Z,IN,,5,0.0,0.0,17 E 45TH ST,3.0,0.0,1000.0,% C MARTIN GOLDENBERG,1.0,13.0,1.0,0.0,1.0,,Z,UN,UN,OT,3.0,,,,,,,A23,A,,
6627,2,N,N,N,N,Y,N,N,N,N,N,N,N,N,N,N,N,N,N,N,133536258,1995,1994,1,4,120,101102,0,0,0,0,0,21051,0,1000,122153,119991,2162,119649,0,0,0,7804,0,0,0,0,0,7804,0,385,DANCE INK,NEW YORK,NY,10023-1487,Z,Z99,0.606316,36061.0,10023.0,10023.0,5602.0,5600.0,36061.0,4.0,,199005.0,199507,199507,NY,10023.0,NEW YORK,PF,O,UN,Z,IN,,7,0.0,0.0,PO BOX 20719 COLUMBUS CIR STA,3.0,0.0,1000.0,% PATRICIA TARR,1.0,13.0,1.0,0.0,1.0,,Z,UN,UN,OT,3.0,,,,,,,A1261,A,,
6641,2,N,Y,N,N,Y,N,N,N,N,N,N,N,N,N,N,N,N,N,N,133540880,1994,1993,6,4,602,264255,3153,0,8287,0,0,48020,0,0,323715,195803,127912,72847,11440,114,0,1398928,0,12250,0,12250,3445,1398928,0,5007,MUS AMER FINANCIAL HISTORY,NEW YORK,NY,10004-1703,Z,Z99,0.099788,36061.0,10004.0,10004.0,5602.0,5600.0,36061.0,3.0,,199201.0,199408,199408,NY,10004.0,NEW YORK,PF,O,UN,Z,IN,,8,0.0,0.0,26 BROADWAY,3.0,0.0,1000.0,,1.0,13.0,1.0,0.0,1.0,,Z,UN,UN,OT,3.0,,,,,,,A50,A,,
6643,3,N,N,N,N,N,N,N,N,N,N,N,N,N,N,N,N,N,N,N,133541596,1995,1995,6,6,561,0,0,163078,283666,0,0,-10133,0,119150,436611,149832,286779,119150,441715,8834,0,2388950,0,2004010,0,2004010,0,2295877,0,115403,TIERNEY FAMILY FND,NEW YORK,NY,10128-0123,Z,Z99,0.407616,36061.0,10128.0,10128.0,5602.0,5600.0,36061.0,4.0,,198912.0,199512,199512,NY,10128.0,NEW YORK,PF,O,UN,Z,IN,,12,0.0,0.0,1133 FIFTH AVE,3.0,0.0,1000.0,% PAUL E TIERNEY JR,1.0,13.0,1.0,0.0,1.0,,Z,UN,UN,OT,3.0,,,,,,,A12,A,,
6680,3,N,N,N,N,N,N,N,N,N,N,N,N,N,N,N,N,N,N,N,133553683,1995,1995,1,1,90,148,0,0,0,0,0,0,0,0,148,30,118,0,0,0,0,94,0,0,0,0,0,94,0,0,OPERA DE PARIS FND,NEW YORK,NY,10022-4611,A,A99,0.11694700000000001,36061.0,10022.0,10022.0,5602.0,5600.0,36061.0,4.0,,199004.0,199512,199512,NY,10022.0,NEW YORK,PF,O,AR,A,IN,,12,0.0,0.0,153 E 53RD ST,3.0,0.0,1000.0,% WILLKIE FARR & GALLAGHER,1.0,13.0,1.0,0.0,1.0,,A,AR,AR,AR,3.0,,,,,,,A6A,A,,
6687,3,N,N,N,N,N,N,N,N,N,N,N,N,N,N,N,N,N,N,N,133556699,1995,1995,1,1,60,0,0,0,0,0,0,0,0,0,1,1,0,0,1,0,1,1,0,0,0,0,1,1,0,0,CHAIM GROSS MUS,NEW YORK,NY,10012-1401,A,A50,0.551458,36061.0,10012.0,10012.0,5602.0,5600.0,36061.0,4.0,,199008.0,199512,199512,NY,10012.0,NEW YORK,PF,O,AR,A,IN,,12,0.0,0.0,526 LA GUARDIA PL,3.0,0.0,1000.0,% ADFEL LEVY ZLOTNICK & CO,1.0,13.0,1.0,0.0,1.0,,A,AR,AR,AR,3.0,,,,,,,A50,A,,
6699,2,N,N,N,N,Y,N,N,N,N,N,N,N,N,N,N,N,N,N,N,133557369,1996,1995,1,2,92,22500,0,0,0,0,0,0,0,0,22500,18497,4003,18724,0,0,22550,8711,0,0,0,0,0,4126,0,0,MARY CASSATT FND,NEW YORK,NY,10022-3205,A,A76,0.040188699999999994,36061.0,10022.0,10022.0,5602.0,5600.0,36061.0,3.0,,9007.0,199603,199603,NY,10022.0,NEW YORK,PF,O,AR,A,IN,,3,0.0,0.0,502 PARK AVE,3.0,0.0,1000.0,,1.0,13.0,1.0,0.0,1.0,,A,AR,AR,AR,3.0,,,,,,,A70,A,,
6706,3,N,N,N,N,N,N,N,N,N,N,N,N,N,N,N,N,N,N,N,133560519,1994,1994,1,1,560,2050,0,0,0,0,0,0,0,0,2050,2050,0,0,0,0,0,500,0,0,0,0,0,500,0,0,SHANTI CULTURAL DYNAMICS,RIVERDALE,NY,10471-1317,Z,Z99,0.8951459999999999,36005.0,10471.0,10471.0,5602.0,5600.0,36005.0,4.0,,199004.0,199412,199412,NY,10471.0,RIVERDALE,PF,O,UN,Z,IN,,12,0.0,0.0,5900 ARLINGTON AVE 16-S,3.0,0.0,1000.0,% RAO-SHANTHA,1.0,13.0,1.0,0.0,1.0,,Z,UN,UN,OT,3.0,,,,,,,A23,A,,
6737,3,N,Y,N,N,N,N,N,N,N,N,N,N,N,N,N,N,N,Y,N,133572353,1995,1995,6,5,602,879931,64499,0,0,0,0,1406,146848,11500,945836,918818,27018,926241,64499,645,0,1686231,0,0,0,0,904250,1686231,0,35855,NAT VIDEO RESOURCES,NEW YORK,NY,10012-5802,Z,Z99,0.448089,36061.0,10012.0,10012.0,5602.0,5600.0,36061.0,4.0,,199010.0,199512,199512,NY,10012.0,NEW YORK,PF,O,UN,Z,IN,,12,0.0,0.0,73 SPRING ST STE 606,3.0,0.0,1000.0,,1.0,13.0,1.0,0.0,1.0,,Z,UN,UN,OT,3.0,,,,,,,A31,A,,
6740,3,N,N,N,N,N,N,N,N,N,N,N,N,N,N,N,N,N,N,N,133573140,1995,1995,1,1,561,350,7,0,0,0,0,0,0,250,357,1463,-1106,250,6,0,0,1833,0,0,0,0,0,517,0,25,JACK GALEF ARTS FND,NEW YORK,NY,10016-4325,Z,Z99,0.7363569999999999,36061.0,10016.0,10016.0,5602.0,5600.0,36061.0,4.0,,199205.0,199512,199512,NY,10016.0,NEW YORK,PF,O,UN,Z,IN,,12,914.0,119.0,185 MADISON AVE STE 1600,3.0,0.0,2000.0,% GOLOMB SINDEL AND DIBLE,1.0,13.0,1.0,0.0,1.0,,Z,UN,UN,OT,3.0,,,,,,,A12,A,,
6742,3,N,N,N,N,N,N,N,N,N,N,N,N,N,N,N,N,N,N,N,133574289,1994,1993,1,1,90,1550,0,149,0,0,0,0,0,500,1699,502,1197,0,147,1,147,7005,0,0,0,0,492,12867,0,493,MUSIC & DANCE FND,NEW YORK,NY,10016-5010,Z,Z99,0.712626,36061.0,10016.0,10016.0,5602.0,5600.0,36061.0,4.0,,199102.0,199406,199406,NY,10016.0,NEW YORK,PF,O,UN,Z,IN,,6,119.0,0.0,347 FIFTH AVE 1305,3.0,0.0,1000.0,% R BELONSKY,1.0,13.0,1.0,0.0,1.0,,Z,UN,UN,OT,3.0,,,,,,,A62,A,,
6748,2,N,N,N,N,Y,N,N,N,N,N,N,N,N,N,N,N,N,N,N,133576913,1994,1994,1,1,119,8642,0,0,0,0,0,0,0,0,8642,8928,-286,8928,0,0,0,32,0,0,0,0,0,32,0,0,ART KALEIDOSCOPE FND,NEW YORK,NY,10122-1899,Z,Z99,0.405877,36061.0,10122.0,10122.0,5602.0,5600.0,36061.0,3.0,,199205.0,199412,199412,NY,10122.0,NEW YORK,PF,O,UN,Z,IN,,12,91.0,0.0,225 W 34TH ST STE 1800,3.0,0.0,2000.0,% GOTTFRIED,1.0,13.0,1.0,0.0,1.0,,Z,UN,UN,OT,3.0,,,,,,,A12,A,,
6781,3,N,N,N,N,Y,N,N,N,N,N,N,N,N,N,N,N,N,N,N,133591637,1995,1995,4,2,90,0,16925,0,0,0,0,0,0,0,16925,62616,-45691,56731,12714,254,16415,318089,0,0,0,0,0,318089,0,16303,ROBERT CRAFT MUSIC FND,NEW YORK,NY,10021-8029,Z,Z99,0.906266,36061.0,10021.0,10021.0,5602.0,5600.0,36061.0,4.0,,199012.0,199512,199512,NY,10021.0,NEW YORK,PF,O,UN,Z,IN,,12,119.0,0.0,667 MADISON AVE 20TH FLR,3.0,0.0,2000.0,% KELLEY DRYE & WARREN,1.0,13.0,1.0,0.0,1.0,,Z,UN,UN,OT,3.0,,,,,,,A40,A,,
6787,3,N,Y,N,N,N,N,N,N,N,N,N,N,N,N,N,N,N,N,N,133593706,1995,1995,4,4,602,0,12095,4625,176,0,0,0,0,55750,16896,57260,-40364,55750,15386,154,15210,301457,99799,0,0,99799,0,302596,0,15838,BARBARA & HOWARD WISE ENDOWMENT ARTS,NEW YORK,NY,10011-7802,Z,Z99,0.9653729999999999,36061.0,10011.0,10011.0,5602.0,5600.0,36061.0,4.0,,199202.0,199512,199512,NY,10011.0,NEW YORK,PF,O,UN,Z,IN,,12,561.0,0.0,110 W 13TH ST,3.0,0.0,2000.0,,1.0,13.0,1.0,0.0,1.0,,Z,UN,UN,OT,3.0,,,,,,,A12,A,,
6845,3,N,Y,N,N,Y,N,N,N,N,N,N,Y,N,N,N,N,N,N,N,133614414,1995,1995,4,4,92,76372,5540,19329,0,0,0,2648,0,14439,103889,17494,86395,14439,24462,245,27517,425034,0,0,0,0,2304,0,20013,20258,ATHANASIADES CULTURAL FND,ASTORIA,NY,11103-3031,Z,Z99,0.551301,36081.0,11103.0,11103.0,5602.0,5600.0,36081.0,4.0,,199302.0,199512,199512,NY,11103.0,ASTORIA,PF,O,UN,Z,IN,,12,0.0,0.0,30 96 42ND ST,3.0,0.0,1000.0,,1.0,11.0,1.0,0.0,1.0,,Z,UN,UN,OT,3.0,,,,,,,A1220,A,,
6846,2,N,Y,N,N,Y,N,N,N,N,N,N,N,N,N,N,N,N,N,N,133614971,1995,1994,8,7,123,9790000,0,0,0,0,0,0,0,2000,9790000,9241,9780759,8594,0,0,0,15372459,0,0,0,0,0,15372459,0,389,SOLOW ART & ARCHITECTURE FND,NEW YORK,NY,10019-2600,Z,Z99,0.38254299999999997,36061.0,10019.0,10019.0,5602.0,5600.0,36061.0,3.0,,199108.0,199511,199511,NY,10019.0,NEW YORK,PF,O,UN,Z,IN,,11,124.0,0.0,9 W 57TH ST,3.0,0.0,2000.0,SHELDON H SOLOW,1.0,13.0,1.0,0.0,1.0,,Z,UN,UN,OT,3.0,,,,,,,A40,A,,
6863,3,N,Y,N,N,N,N,N,N,Y,N,N,N,N,N,N,N,N,N,N,133620909,1995,1994,7,6,602,0,21380,294684,6275,0,0,1577625,0,895500,1899965,1252637,647328,1086659,1738320,17383,0,8338423,3616420,3836065,0,7452485,0,9151333,0,391165,AARON COPLAND FND MUSIC,NEW YORK,NY,10048-3998,Z,Z99,0.6035229999999999,36061.0,10048.0,10048.0,5602.0,5600.0,36061.0,4.0,,199108.0,199506,199506,NY,10048.0,NEW YORK,PF,O,UN,Z,IN,,6,119.0,0.0,200 PARK AVE,3.0,0.0,2000.0,% ELLIS J FREEDMAN,1.0,13.0,1.0,0.0,1.0,,Z,UN,UN,OT,3.0,,,,,,,A68,A,,
6872,2,N,N,N,N,Y,N,N,N,N,N,N,N,N,N,N,N,N,N,N,133626727,1995,1995,5,4,123,150030,372,31018,0,0,0,0,10000,116000,181420,143043,38377,143043,31390,0,31390,664668,389684,150030,0,539714,2541,665184,0,35510,JOHN CONLEY FND ETHICS & PHILOSOPHY IN MEDICINE,STATEN ISLAND,NY,10304-1520,Z,Z99,0.73885,36085.0,10304.0,10304.0,5602.0,5600.0,36085.0,3.0,,199112.0,199512,199512,NY,10304.0,STATEN ISLAND,PF,O,UN,Z,IN,,12,162.0,0.0,41 WILSON VIEW PLACE,3.0,0.0,1000.0,% HARRY T FORLENZA TREASURER,1.0,13.0,1.0,0.0,1.0,,Z,UN,UN,OT,3.0,,,,,,,A70,A,,
6889,3,N,N,N,N,N,N,N,N,N,N,N,N,N,N,N,N,N,N,N,133632295,1995,1995,0,0,460,0,0,0,0,0,0,0,0,0,0,0,0,0,0,0,0,0,0,0,0,0,0,0,0,0,AFRICAN CENTERED EDUCATIONAL PROJECT,NEW YORK,NY,10031-2819,I,I83,0.41991000000000006,36061.0,10031.0,10031.0,5602.0,5600.0,36061.0,4.0,,199007.0,199512,199512,NY,10031.0,NEW YORK,PF,O,HS,I,IN,,12,0.0,0.0,400 W 149TH ST STE 1,3.0,0.0,1000.0,% LAMPTEY ACCOUNTING ASSOC,1.0,13.0,1.0,0.0,1.0,,I,HU,HU,HU,3.0,,,,,,,A23,A,,
6949,3,N,N,N,N,Y,N,N,N,N,N,N,N,N,N,N,N,N,N,N,133641609,1995,1995,3,1,321,0,635,0,0,0,0,0,0,1500,635,1651,-1016,1651,636,13,485,82539,0,0,0,0,0,383564,0,1363,ALEXANDER JEROME WILLOWS GREENBURGER MEM FIELDS,NEW YORK,NY,10003-4301,Z,Z99,0.607187,36061.0,10003.0,10003.0,5602.0,5600.0,36061.0,4.0,,199302.0,199512,199512,NY,10003.0,NEW YORK,PF,O,UN,Z,IN,,12,349.0,0.0,55 FIFTH AVE,3.0,0.0,1000.0,% TIME EQUITIES INC,1.0,13.0,1.0,0.0,1.0,,Z,UN,UN,OT,3.0,,,,,,,A80,A,,
6967,3,N,N,N,N,N,N,N,N,N,N,N,N,N,N,N,N,N,N,N,133649656,1994,1993,1,1,119,3000,0,0,0,0,0,0,0,2460,3000,2900,100,2900,0,0,0,259,0,0,0,0,0,259,2900,0,IRVING CAESAR MUSIC CHILDREN FND,NEW YORK,NY,10022-6437,Z,Z99,0.9769200000000001,36061.0,10022.0,10022.0,5602.0,5600.0,36061.0,4.0,,199308.0,199408,199408,NY,10022.0,NEW YORK,PF,O,UN,Z,IN,,8,561.0,149.0,429 E 52ND ST APT 31G,3.0,0.0,1000.0,,1.0,13.0,1.0,0.0,1.0,,Z,UN,UN,OT,3.0,,,,,,,A68,A,,
6989,2,N,N,N,N,Y,N,N,N,N,N,N,N,N,N,N,N,N,N,N,133666164,1995,1995,0,3,40,84326,0,0,0,0,0,0,0,0,84326,84326,0,84326,0,0,0,0,0,0,0,0,0,0,0,346,VOLPI FND PERFORMING ARTS,NEW YORK,NY,10027-5011,Z,Z99,0.06837069999999999,36061.0,10027.0,10027.0,5602.0,5600.0,36061.0,3.0,,199208.0,199512,199512,NY,10027.0,NEW YORK,PF,O,UN,Z,IN,,12,149.0,0.0,919 3RD AVE,3.0,0.0,1000.0,% J DAVID JACOBS,1.0,13.0,1.0,0.0,1.0,,Z,UN,UN,OT,3.0,,,,,,,A1260,A,,
7008,3,N,N,N,N,Y,N,N,N,Y,N,N,N,N,N,N,N,Y,N,N,133674360,1995,1995,6,6,90,637738,20497,71660,1979735,0,0,0,7952,0,2716670,1011112,1705558,452615,2075651,41513,0,3039137,0,1265761,0,1265761,0,5489399,0,140186,CIVITELLA RANIERI FND,NEW YORK,NY,10016-0301,Z,Z99,0.572608,36061.0,10016.0,10016.0,5602.0,5600.0,36061.0,4.0,,199302.0,199512,199512,NY,10016.0,NEW YORK,PF,O,UN,Z,IN,,12,62.0,93.0,10 E 40TH ST 3807,3.0,0.0,1000.0,% GERALD E RUPP TTEE,1.0,13.0,1.0,0.0,2.0,,Z,UN,UN,OT,3.0,,,,,,,A20,A,,
7013,3,N,N,N,N,N,N,N,Y,N,Y,N,N,N,N,N,N,N,N,N,133676158,1995,1994,3,1,88,0,340,0,0,0,0,0,0,0,340,10136,-9796,6486,340,7,340,34911,0,0,0,0,159299,22451,6486,0,BASINGSTOKE PRODUCTIONS,NEW YORK,NY,10036-4305,Z,Z99,0.38979600000000003,36061.0,10036.0,10036.0,5602.0,5600.0,36061.0,4.0,,199212.0,199506,199506,NY,10036.0,NEW YORK,PF,O,UN,Z,IN,,6,90.0,0.0,543 WEST 43RD STREET 8015,3.0,0.0,1000.0,,1.0,13.0,1.0,0.0,1.0,,Z,UN,UN,OT,3.0,,,,,,,A60,A,,
7021,2,N,N,N,N,Y,N,N,N,N,N,N,N,N,N,N,N,N,N,N,133680271,1995,1994,2,3,60,33583,550,0,0,0,0,4170,16500,0,38303,32596,5707,28426,550,0,0,13205,0,0,0,0,0,13205,0,1261,MUS VIEWS,NEW YORK,NY,10010-6723,Z,Z99,0.218606,36061.0,10010.0,10010.0,5602.0,5600.0,36061.0,4.0,,199301.0,199507,199507,NY,10010.0,NEW YORK,PF,O,UN,Z,IN,,7,0.0,0.0,2 PETER COOPER RD,3.0,0.0,1000.0,% LILA A SHERMAN,1.0,13.0,1.0,0.0,1.0,MUSEUM VIEWS,Z,UN,UN,OT,3.0,,,,,,,A50,A,,
7048,3,N,N,N,N,N,N,N,N,N,N,N,N,N,N,N,N,N,N,N,133690790,1995,1994,6,6,29,870,1935,28318,999149,0,0,0,0,39000,1030272,49309,980963,46528,1019093,20382,0,1126205,988594,0,0,988594,0,1135121,0,55936,PRESERVATION FND,NEW YORK,NY,10022-4219,Z,Z99,0.35630300000000004,36061.0,10022.0,10022.0,5602.0,5600.0,36061.0,4.0,,199308.0,199510,199510,NY,10022.0,NEW YORK,PF,O,UN,Z,IN,,10,560.0,602.0,545 MADISON AVE 801,3.0,0.0,1000.0,% JULIUS PAIGE,1.0,13.0,1.0,0.0,1.0,,Z,UN,UN,OT,3.0,,,,,,,A82,A,,
7081,3,N,N,N,N,N,N,N,N,N,N,N,Y,N,N,N,N,N,N,N,133699100,1995,1995,1,0,602,0,0,0,0,0,0,0,0,0,0,0,0,0,0,0,0,100,0,0,0,0,0,100,5,5,MR & MRS RAYMOND J HOROWITZ FND ARTS,NEW YORK,NY,10016-0000,Z,Z99,0.9621360000000001,36061.0,10016.0,10016.0,5602.0,5600.0,36061.0,4.0,,199305.0,199512,199512,NY,10016.0,NEW YORK,PF,O,UN,Z,IN,,12,0.0,0.0,600 3RD AVE 31ST FLR,3.0,0.0,1000.0,% RAYMOND J HOROWITZ,1.0,13.0,1.0,0.0,1.0,,Z,UN,UN,OT,3.0,,,,,,,A12,A,,
7121,2,N,N,N,N,Y,N,N,N,N,N,N,N,N,N,N,N,N,N,N,133719303,1995,1994,1,3,914,24000,0,0,0,0,0,4255,0,0,28255,24902,3353,24902,0,0,0,314,0,0,0,0,12625,314,0,25,KAWAMURA CULTURAL FND,NEW YORK,NY,10170-2199,A,A75,0.7397630000000001,36061.0,10170.0,10170.0,5602.0,5600.0,36061.0,3.0,,199504.0,199503,199503,NY,10170.0,NEW YORK,PF,O,AR,A,IN,,3,119.0,0.0,90 PARK AVE 17TH FLR,3.0,0.0,2000.0,KISO & TANAKA,1.0,13.0,1.0,0.0,1.0,,A,AR,AR,AR,3.0,,,,,,,A1220,A,,
7126,3,N,Y,N,N,N,N,N,N,N,N,N,N,N,N,N,N,N,N,N,133721844,1995,1995,4,3,40,9118,1326,9421,4058,0,0,0,0,12100,23923,15720,8203,15720,14805,148,0,234613,0,121228,51259,172487,0,238905,0,11197,MICHAEL HAUSMAN FILMHAUS FND,NEW YORK,NY,10003-9519,Z,Z99,0.726036,36061.0,10003.0,10003.0,5602.0,5600.0,36061.0,4.0,,199311.0,199512,199512,NY,10003.0,NEW YORK,PF,O,UN,Z,IN,,12,0.0,0.0,736 BROADWAY,3.0,0.0,1000.0,% MICHAEL HAUSMAN,1.0,11.0,1.0,0.0,1.0,,Z,UN,UN,OT,3.0,,,,,,,A31,A,,
7138,3,N,N,N,N,N,N,N,N,N,N,N,N,N,N,N,N,N,N,N,133729495,1995,1994,6,2,60,0,15746,0,0,0,0,4413,0,15800,20159,168856,-148697,815199,0,0,0,3399353,0,0,0,0,8465,3399353,0,0,ERIC & SALOME ESTORICK FND,NEW YORK,NY,10004-1403,A,A51,0.851482,36061.0,10004.0,10004.0,5602.0,5600.0,36061.0,4.0,,199501.0,199506,199506,NY,10004.0,NEW YORK,PF,O,AR,A,IN,,6,91.0,0.0,ONE BATTERY PARK PLZ,3.0,0.0,2000.0,% WINTHROP STIMSON PUTNAM & ROBERT,1.0,13.0,1.0,0.0,1.0,,A,AR,AR,AR,3.0,,,,,,,A51,A,,
7216,2,N,N,N,N,Y,N,N,N,N,N,N,N,N,N,N,N,N,N,N,133747036,1995,1994,6,4,62,395460,0,0,0,0,0,19730,0,0,415190,165075,250115,91360,0,0,0,3410958,0,0,0,0,0,3410958,0,0,CLASSICAL AMER HOMES PRESERVATION TR,NEW YORK,NY,10172-0003,Z,Z99,0.045990699999999995,36061.0,10172.0,10172.0,5602.0,5600.0,36061.0,3.0,,199409.0,199511,199511,NY,10172.0,NEW YORK,PF,O,UN,Z,IN,,11,0.0,0.0,PO BOX 18,3.0,0.0,1000.0,% DAVIS POLK & WARDWELL,1.0,13.0,1.0,0.0,1.0,,Z,UN,UN,OT,3.0,,,,,,,A82,A,,
7221,3,N,N,N,N,N,N,N,N,N,N,N,N,N,N,N,N,N,N,N,133747492,1994,1993,0,0,994,0,0,0,0,0,0,0,0,0,0,0,0,0,0,0,0,0,0,0,0,0,0,0,0,0,INTL CTR DESIGN ART TO GOD TO WORLD & TO MAN,NEW YORK,NY,10022-6601,A,A20,0.869142,36061.0,10022.0,10022.0,5602.0,5600.0,36061.0,4.0,,199505.0,199406,199406,NY,10022.0,NEW YORK,PF,O,AR,A,IN,,6,119.0,63.0,845 THIRD AVE 12TH FL,3.0,199806.0,1000.0,WOLF POPPER LLP,1.0,13.0,10.0,0.0,1.0,,A,AR,AR,AR,3.0,,,,,,,A20,A,,
7264,3,N,N,N,N,N,N,N,N,N,N,N,N,N,N,N,N,N,N,N,133753037,1995,1995,1,0,124,0,0,0,0,0,0,0,0,0,0,258,-258,258,0,0,0,1111,0,0,0,0,1500,1111,0,0,PUBLIC OPINION,NEW YORK,NY,10022-4168,Z,Z99,0.695121,36061.0,10022.0,10022.0,5602.0,5600.0,36061.0,4.0,,199408.0,199512,199512,NY,10022.0,NEW YORK,PF,O,UN,Z,IN,,12,125.0,0.0,60 SUTTON PL S STE 3DS,3.0,0.0,1000.0,% MICHAEL BARNETT,1.0,13.0,1.0,0.0,1.0,,Z,UN,UN,OT,3.0,,,,,,,A70,A,,
7320,3,N,N,N,N,N,N,N,N,N,N,N,N,N,N,N,N,N,N,N,133781874,1995,1995,3,3,60,62500,0,2038,0,0,0,0,0,5000,64538,5600,58938,0,2038,41,2038,61438,0,0,57400,57400,0,61438,0,3179,COBY FND,NEW YORK,NY,10021-7032,A,A51,0.6520100000000001,36061.0,10021.0,10021.0,5602.0,5600.0,36061.0,4.0,,199503.0,199512,199512,NY,10021.0,NEW YORK,PF,O,AR,A,IN,,12,0.0,0.0,20 E 65TH ST,3.0,0.0,1000.0,MILBANK TWEED HADLEY & MCCLOY,1.0,13.0,1.0,0.0,1.0,,A,AR,AR,AR,3.0,,,,,,,A51,A,,
7334,3,N,N,N,N,N,N,N,N,N,N,N,N,N,N,N,N,N,N,N,133787051,1995,1995,1,1,350,0,0,0,0,0,0,0,0,0,1,1,0,0,1,0,1,6036,0,0,0,0,6036,6036,0,0,FELISSIMO FND,NEW YORK,NY,10019-3801,Z,Z99,0.028405200000000002,36061.0,10019.0,10019.0,5602.0,5600.0,36061.0,4.0,,199409.0,199512,199512,NY,10019.0,NEW YORK,PF,O,UN,Z,IN,,12,0.0,0.0,10 W 56TH ST,3.0,0.0,1000.0,,1.0,13.0,1.0,0.0,1.0,,Z,UN,UN,OT,3.0,,,,,,,A12,A,,
7355,3,N,Y,N,N,N,N,N,N,N,N,N,N,N,N,N,N,N,N,N,133794021,1995,1995,4,4,602,108000,0,0,0,0,0,0,0,136306,108000,136323,-28323,136306,0,0,0,128530,0,0,0,0,0,128530,0,3165,GOTTLIEB SCHWARTZ FAMILY FND,STATEN ISLAND,NY,10314-4253,A,A60,0.8506,36085.0,10314.0,10314.0,5602.0,5600.0,36085.0,4.0,,199505.0,199512,199512,NY,10314.0,STATEN ISLAND,PF,O,AR,A,IN,,12,0.0,0.0,724 COLLFIELD AVE,3.0,0.0,1000.0,% WEISS & COMPANY,1.0,13.0,1.0,0.0,1.0,,A,AR,AR,AR,3.0,,,,,,,A60,A,,
7362,2,N,N,N,N,Y,N,N,N,N,N,N,N,Y,N,N,N,N,N,N,133795843,1995,1994,3,3,559,28055,209,0,0,0,0,0,0,0,28264,120,28144,67,209,4,209,31724,0,0,0,0,3580,173900,0,6698,DEANE & SUSAN PENN ART FND,NEW YORK,NY,10123-0101,A,A51,0.572291,36061.0,10123.0,10123.0,5602.0,5600.0,36061.0,3.0,,199507.0,199509,199509,NY,10123.0,NEW YORK,PF,O,AR,A,IN,,9,0.0,0.0,450 7TH AVE RM 500,3.0,0.0,1000.0,% WOLLIN,1.0,11.0,1.0,0.0,1.0,,A,AR,AR,AR,3.0,,,,,,,A12,A,,
7434,3,N,N,N,N,N,N,N,N,N,N,N,N,N,N,N,N,N,N,N,133801734,1996,1995,4,1,119,0,0,0,0,0,0,496,0,0,496,13113,-12617,13113,0,0,0,414608,0,0,0,0,25000,414608,0,830,HARRY M STEVENS FAMILY FND,NEW YORK,NY,10024-1007,A,A99,0.853324,36061.0,10024.0,10024.0,5602.0,5600.0,36061.0,4.0,,199601.0,199606,199606,NY,10024.0,NEW YORK,PF,O,AR,A,IN,,6,0.0,0.0,186 RIVERSIDE DR APT 16D,3.0,0.0,1000.0,% WILLIAM M HUNT,1.0,13.0,1.0,0.0,1.0,,A,AR,AR,AR,3.0,,,,,,,A99,A,,
7436,2,N,N,N,N,Y,N,N,N,N,N,N,N,N,N,N,N,N,N,N,133802490,1995,1995,4,4,93,340440,0,0,0,0,0,928,54303,0,341368,355601,-14233,0,0,0,0,402654,0,0,0,0,39039,402654,0,0,FND HELLENIC CULTURE,NEW YORK,NY,10019-3402,A,A76,0.154368,36061.0,10019.0,10019.0,5602.0,5600.0,36061.0,3.0,,199504.0,199512,199512,NY,10019.0,NEW YORK,PF,O,AR,A,IN,,12,0.0,0.0,7 W 57TH ST,3.0,0.0,1000.0,% GREGORY A SIORIS,1.0,13.0,1.0,0.0,1.0,,A,AR,AR,AR,3.0,,,,,,,A12,A,,
7452,3,N,N,N,N,N,N,N,N,N,N,N,N,N,N,N,N,N,N,N,133808182,1994,1994,0,0,561,0,0,0,0,0,0,0,0,0,0,0,0,0,0,0,0,0,0,0,0,0,0,0,0,0,SUSAN W ROSE FND MUSIC,NEW YORK,NY,10016-3903,B,B82,0.726242,36061.0,10016.0,10016.0,5602.0,5600.0,36061.0,4.0,,199509.0,199412,199412,NY,10016.0,NEW YORK,PF,O,ED,B,IN,,12,90.0,602.0,380 MADISON AVE 4TH FLR,3.0,0.0,1000.0,% MORRIS MANSFIELD,1.0,13.0,1.0,0.0,1.0,,B,ED,ED,ED,3.0,,,,,,,A68,A,,
7453,3,N,N,N,N,N,N,N,N,Y,Y,N,N,N,N,N,N,N,N,N,133809561,1995,1995,2,3,90,25837,409,38,454,0,0,0,0,0,26740,13605,13135,13055,0,0,0,14335,0,5985,0,5985,0,14912,0,367,ARTUR BALSAM FND CHAMBER MUSIC,NEW YORK,NY,10025-5349,A,A50,0.8904719999999999,36061.0,10025.0,10025.0,5602.0,5600.0,36061.0,4.0,,199505.0,199512,199512,NY,10025.0,NEW YORK,PF,O,AR,A,IN,,12,0.0,0.0,551 5TH AVE,3.0,0.0,1000.0,% MOSHE MIRSKY,1.0,13.0,1.0,0.0,1.0,,A,AR,AR,AR,3.0,,,,,,,A6C,A,,
7461,3,N,N,N,N,N,N,N,N,N,N,N,N,N,N,N,N,N,N,N,133830526,1995,1995,6,6,602,2021898,5,0,0,0,0,0,0,68000,2021903,70326,1951577,70326,5,0,0,1964927,0,0,0,0,0,1964927,0,41153,DOROTHY DEHNER FND VISUAL ARTS,NEW YORK,NY,10006-2701,T,T20,0.692812,36061.0,10006.0,10006.0,5602.0,5600.0,36061.0,4.0,,199506.0,199512,199512,NY,10006.0,NEW YORK,PF,S,ZC,T,IN,,12,0.0,0.0,61 BROADWAY 18TH FLR,3.0,0.0,1000.0,% BRAUNER BARON ROSENZWEIG & KLEIN,1.0,13.0,1.0,0.0,1.0,,T,PU,PU,OT,3.0,,,,,,,A40,A,,
7465,2,N,N,N,N,Y,N,N,N,N,N,N,N,N,N,N,N,N,N,N,133832587,1995,1994,4,4,60,100000,0,0,0,0,0,0,0,0,100000,0,100000,0,0,0,0,100000,0,0,0,0,0,100000,0,4,INST AEGEAN PREHISTORY STUDY CTR EAST CRETE,NEW YORK,NY,10020-1700,A,A56,0.493091,36061.0,10020.0,10020.0,5602.0,5600.0,36061.0,3.0,,199508.0,199506,199506,NY,10020.0,NEW YORK,PF,O,AR,A,IN,,6,199.0,119.0,1270 AVE OF THE AMERICAS,3.0,0.0,1200.0,% MILLBURN CORPORATION,1.0,13.0,1.0,0.0,1.0,,A,AR,AR,AR,3.0,,,,,,,A70,A,,
7534,3,N,Y,N,N,Y,N,N,N,N,N,N,N,N,N,N,N,N,N,N,135635801,1994,1994,8,6,200,1646827,36794,46705,337860,0,0,930261,61800,0,2998447,2215280,783167,2091884,296288,2963,894337,16737984,0,4620561,0,4620561,307970,17312501,0,323367,ADIRONDACK HIST ASSOC,NEW YORK,NY,10022-5802,Z,Z99,0.144974,36061.0,10022.0,10022.0,5602.0,5600.0,36061.0,15.0,,199210.0,199412,199412,NY,10022.0,NEW YORK,PC,O,UN,Z,IN,,12,0.0,0.0,477 MADISON AVE,3.0,199612.0,1000.0,% YOHALEM GILLMAN & CO,1.0,13.0,1.0,0.0,1.0,,Z,UN,UN,OT,3.0,,,,,,,A54,A,,
7548,3,N,N,N,N,N,N,N,N,N,N,N,N,N,N,N,N,N,N,N,136000245,1996,1995,2,3,119,94046,0,0,0,0,0,0,0,0,94046,85015,9031,83365,0,0,0,13620,0,0,0,0,21609,13620,0,622,BALLET SOC,NEW YORK,NY,10023-3101,Z,Z99,0.386536,36061.0,10023.0,10023.0,5602.0,5600.0,36061.0,4.0,,194710.0,199606,199606,NY,10023.0,NEW YORK,PF,O,UN,Z,IN,,6,59.0,927.0,5 W 73RD ST,3.0,0.0,2000.0,,1.0,13.0,1.0,0.0,1.0,,Z,UN,UN,OT,3.0,,,,,,,A63,A,,
7564,3,N,N,N,N,Y,N,N,N,Y,N,N,N,N,N,N,N,N,N,N,136019220,1995,1994,4,4,119,243507,0,13604,0,0,0,96899,41250,10366,354010,355137,-1127,244372,7688,154,16606,450870,117482,0,0,117482,292856,457601,0,6867,POETRY SOC AMERICA,NEW YORK,NY,10003-1705,Z,Z99,0.798638,36061.0,10003.0,10003.0,5602.0,5600.0,36061.0,4.0,,193705.0,199509,199509,NY,10003.0,NEW YORK,PF,O,UN,Z,IN,,9,0.0,0.0,15 GRAMERCY PARK,3.0,0.0,3000.0,,1.0,13.0,1.0,0.0,5.0,,Z,UN,UN,OT,3.0,,,,,,,A0370,A,,
7605,3,N,N,N,N,N,N,N,N,Y,N,N,N,N,N,N,N,N,N,N,136031962,1995,1995,5,3,602,0,0,39087,41915,0,0,1080,11022,32164,82082,43303,38779,33383,72077,1441,0,842356,0,0,0,0,0,1057246,0,47822,AL CROWLEY TRUST FBO NEIGHBORHOOD PLAYHOUSE,NEW YORK,NY,10017-2014,Z,Z99,0.791986,36061.0,10017.0,10017.0,5602.0,5600.0,36061.0,4.0,,197302.0,199512,199512,NY,10017.0,NEW YORK,PF,O,UN,Z,IN,,12,0.0,0.0,270 PARK AVE 27TH FL,3.0,0.0,1000.0,% CHEMICAL BANK ADMIN SERV DEPT,1.0,13.0,1.0,0.0,2.0,T-15246,Z,UN,UN,OT,3.0,,,,,,,A61,A,,
7686,3,N,Y,N,N,N,N,N,N,N,N,N,N,N,N,N,N,N,N,N,136059836,1995,1995,5,4,161,321,947,36774,40341,0,0,0,0,133510,78385,148775,-70390,148547,66880,669,0,656333,331159,178073,125653,634885,0,775967,0,38262,HIST RES FND,NEW YORK,NY,10036-2501,Z,Z99,0.00482324,36061.0,10036.0,10036.0,5602.0,5600.0,36061.0,4.0,,196204.0,199512,199512,NY,10036.0,NEW YORK,PF,O,UN,Z,IN,,12,180.0,59.0,1185 AVE OF THE AMERICAS,3.0,0.0,2000.0,% ARTHUR ANDERSON,1.0,13.0,1.0,0.0,1.0,,Z,UN,UN,OT,3.0,,,,,,,A1282,A,,
7747,3,N,N,N,N,N,N,N,N,N,N,N,N,N,N,N,N,N,N,N,136066414,1995,1995,1,1,602,0,3,0,0,0,0,0,0,0,3,0,3,0,3,0,0,162,0,0,0,0,0,0,0,8,JOSEPH M MAY MEM ASSOC,NEW YORK,NY,10170-0000,Z,Z99,0.795669,36061.0,10170.0,10170.0,5602.0,5600.0,36061.0,4.0,,195508.0,199512,199512,NY,10170.0,NEW YORK,PF,O,UN,Z,IN,,12,0.0,0.0,420 LEXINGTON AVE RM 2817-20,3.0,0.0,1000.0,% JACOBS EVALL & BLUMENFELD,1.0,13.0,1.0,0.0,1.0,,Z,UN,UN,OT,3.0,,,,,,,A80,A,,
7941,3,N,N,N,N,N,N,N,N,N,N,N,N,N,N,N,N,N,N,N,136085361,1995,1994,5,3,602,0,0,30610,52447,0,0,0,0,0,83057,0,83057,0,83057,1661,0,506789,0,23554,0,23554,0,564111,0,26725,WARNER COMMUNICATIONS FND,NEW YORK,NY,10020-1401,Z,Z99,0.901782,36061.0,10020.0,10020.0,5602.0,5600.0,36061.0,4.0,,6012.0,199505,199505,NY,10020.0,NEW YORK,PF,O,UN,Z,IN,,5,0.0,0.0,1271 AVE OF THE AMERICAS 41ST FL,3.0,0.0,1000.0,,1.0,13.0,1.0,0.0,1.0,,Z,UN,UN,OT,3.0,,,,,,,A30,A,,
7983,3,N,N,N,N,N,N,N,N,Y,N,N,N,Y,N,N,N,Y,N,N,136086859,1995,1995,9,9,602,48056,1457696,32438839,17093638,0,0,0,382852,28547920,51038229,35112321,15925908,32877009,49666524,993330,0,824564249,46390462,610758378,124202110,781350950,10294734,824564249,0,37305474,LILA WALLACE READERS DIGEST FND,NEW YORK,NY,10016-5603,Z,Z99,0.566809,36061.0,10016.0,10016.0,5602.0,5600.0,36061.0,4.0,,196004.0,199512,199512,NY,10016.0,NEW YORK,PF,O,UN,Z,IN,,12,0.0,0.0,2 PARK AVE 23RD FLR,3.0,0.0,1000.0,% CFO,1.0,13.0,1.0,0.0,1.0,,Z,UN,UN,OT,3.0,,,,,,,A33,A,,
8027,3,N,Y,N,N,N,N,N,N,N,N,N,N,N,N,N,N,N,N,N,136089816,1995,1994,1,3,602,15647,6677,0,0,0,0,7765,0,392530,30089,392530,-362441,392530,0,0,0,1,0,0,0,0,1,1,0,1003,VIACOM FND,NEW YORK,NY,10036-5701,Z,Z99,0.0472718,36061.0,10036.0,10036.0,5602.0,5600.0,36061.0,4.0,,195508.0,199510,199510,NY,10036.0,NEW YORK,PF,O,UN,Z,IN,,10,0.0,0.0,1515 BROADWAY,3.0,0.0,1000.0,VIACOM INTERNATIONAL INC,1.0,13.0,1.0,0.0,1.0,,Z,UN,UN,OT,3.0,,,,,,,A68,A,,
8130,3,N,N,N,N,N,N,N,N,N,N,N,N,N,N,N,N,Y,N,N,136096069,1995,1995,6,5,908,39600,0,58710,79918,0,0,48650,0,40350,226878,158212,68666,109673,138628,2773,58821,1336527,0,0,0,0,25,1658377,37063,75383,DAUGHTERS CINCINNATI,NEW YORK,NY,10022-1909,Z,Z99,0.24329299999999998,36061.0,10022.0,10022.0,5602.0,5600.0,36061.0,4.0,,194308.0,199512,199512,NY,10022.0,NEW YORK,PF,O,UN,Z,IN,,12,40.0,0.0,122 E 58TH ST,3.0,0.0,1200.0,,1.0,13.0,1.0,0.0,1.0,,Z,UN,UN,OT,3.0,,,,,,,A80,A,,
8440,3,N,N,N,N,N,N,N,N,N,N,N,N,N,N,N,N,N,N,N,136115059,1994,1994,4,3,59,0,0,30453,0,0,0,0,0,23710,30453,24902,5551,23863,29759,595,0,402300,0,244380,50001,294381,0,705417,35254,35849,LITERARY SOC FND,NEW YORK,NY,10028-0002,Z,Z99,0.8115359999999999,36061.0,10028.0,10028.0,5602.0,5600.0,36061.0,4.0,,194705.0,199412,199412,NY,10028.0,NEW YORK,PF,O,UN,Z,IN,,12,0.0,0.0,PO BOX 155 GRACIE STA,3.0,0.0,2000.0,HANS SCHUMACHER,1.0,13.0,1.0,0.0,1.0,,Z,UN,UN,OT,3.0,,,,,,,A70,A,,
8505,3,N,N,N,N,Y,N,N,N,N,N,N,N,N,N,N,N,N,N,N,136118881,1995,1995,2,1,561,0,502,0,0,0,0,0,0,440,502,493,9,440,449,4,449,16884,0,0,0,0,0,16884,0,839,BELGIAN SOC BENEVOLENCE,NEW YORK,NY,10024-1719,Z,Z99,0.58454,36061.0,10024.0,10024.0,5602.0,5600.0,36061.0,4.0,,194208.0,199512,199512,NY,10024.0,NEW YORK,PF,O,UN,Z,IN,,12,0.0,0.0,767 FIFTH AVE 28TH FL,3.0,0.0,1000.0,% SOCFIN US INC,1.0,13.0,1.0,0.0,1.0,,Z,UN,UN,OT,3.0,,,,,,,A23,A,,
8540,3,N,N,N,N,N,N,N,N,N,N,N,Y,N,N,N,N,N,N,N,136121046,1995,1995,3,1,119,0,1182,0,0,0,0,0,0,0,1182,857,325,0,547,5,325,58089,0,0,0,0,3000,58089,1279,1284,NAT ARTS FND,NEW YORK,NY,10166-0005,Z,Z99,0.984908,36061.0,10166.0,10166.0,5602.0,5600.0,36061.0,4.0,,195204.0,199512,199512,NY,10166.0,NEW YORK,PF,O,UN,Z,IN,,12,59.0,561.0,200 PARK AVE KIESEL,1.0,0.0,2100.0,% WHITMAN & RANSOM,1.0,13.0,1.0,0.0,1.0,,Z,UN,UN,OT,3.0,,,,,,,A26,A,,
8624,3,N,N,N,N,N,N,N,N,N,N,N,N,N,N,N,N,N,N,N,136127858,1996,1995,1,1,119,75,0,0,0,0,0,0,0,0,75,75,0,75,0,0,0,153,0,0,0,0,0,153,0,0,BELGIAN ART FND IN UNITED STATES,NEW YORK,NY,10019-3323,Z,Z99,0.659029,36061.0,10019.0,10019.0,5602.0,5600.0,36061.0,4.0,,196202.0,199605,199605,NY,10019.0,NEW YORK,PF,O,UN,Z,IN,,5,0.0,0.0,146 W 57TH ST APT 43 A,3.0,0.0,2000.0,,1.0,13.0,1.0,0.0,1.0,,Z,UN,UN,OT,3.0,,,,,,,A23,A,,
8674,3,N,N,N,N,N,N,N,N,N,N,N,N,N,N,N,N,N,N,N,136133259,1994,1994,1,1,602,0,43,0,0,0,0,0,0,0,43,25,18,0,18,1,18,1773,0,0,0,0,0,1773,0,87,IRISH EMIGRANT SOC NEW YORK,NEW YORK,NY,10017-6904,Z,Z99,0.123748,36061.0,10017.0,10017.0,5602.0,5600.0,36061.0,4.0,,194503.0,199412,199412,NY,10017.0,NEW YORK,PF,O,UN,Z,IN,,12,0.0,0.0,5 E 42ND ST,3.0,0.0,1000.0,,1.0,13.0,1.0,0.0,1.0,,Z,UN,UN,OT,3.0,,,,,,,A23,A,,
8717,3,N,N,N,N,N,N,N,N,Y,N,N,N,N,N,N,N,Y,N,N,136139518,1995,1995,7,6,40,75399,19706,165736,148721,0,0,1398378,111937,42868,1807940,753059,1054881,205663,1211739,24235,0,7974705,1171399,3745908,77625,4994932,48292,7974705,0,324438,KURT WEILL FND MUSIC,NEW YORK,NY,10003-1106,Z,Z99,0.27810799999999997,36061.0,10003.0,10003.0,5602.0,5600.0,36061.0,4.0,,196407.0,199512,199512,NY,10003.0,NEW YORK,PF,O,UN,Z,IN,,12,59.0,0.0,7 E 20TH ST,3.0,0.0,1200.0,% HOROWITZ COLEMAN & WALDMAN,1.0,13.0,1.0,0.0,1.0,,Z,UN,UN,OT,3.0,,,,,,,A68,A,,
8794,2,N,N,N,N,Y,N,N,N,N,N,N,N,N,N,N,N,N,N,N,136149781,1995,1994,1,4,59,1050,143832,186621,92017,0,0,39001,0,2200,487354,234932,252422,139359,353980,7080,353036,2576,1990068,801644,0,2791712,2576,4021926,0,191234,PERFORMING ARTS FND,NEW YORK,NY,10016-0570,Z,Z99,0.720705,36061.0,10016.0,10016.0,5602.0,5600.0,36061.0,3.0,,196411.0,199508,199508,NY,10016.0,NEW YORK,PF,O,UN,Z,IN,,8,602.0,0.0,21 E 40TH ST RM 1006,3.0,0.0,1200.0,% SPITZ & EDELSTEIN CPAS,1.0,13.0,1.0,0.0,3.0,,Z,UN,UN,OT,3.0,,,,,,,A1260,A,,
8870,3,N,N,N,N,N,N,N,N,N,N,N,N,N,N,N,N,N,N,N,136157956,1995,1995,1,2,59,11500,121,0,0,0,0,0,0,16500,11621,16939,-5318,16936,121,2,0,6659,0,0,0,0,0,6659,0,474,LARCHMONT CHAMBER MUSIC CIRCLE,NEW YORK,NY,10036-2601,Z,Z99,0.726061,36061.0,10036.0,10036.0,5602.0,5600.0,36061.0,4.0,,196404.0,199512,199512,NY,10036.0,NEW YORK,PF,O,UN,Z,IN,,12,0.0,0.0,1185 AVE OF AMERICAS,3.0,0.0,2000.0,% LILLIE BERNSTEIN,1.0,13.0,1.0,0.0,1.0,,Z,UN,UN,OT,3.0,,,,,,,A6C,A,,
9023,3,N,N,N,N,N,N,N,N,N,N,N,N,N,N,N,N,N,N,N,136161473,1995,1995,1,1,119,2500,101,0,0,0,0,0,0,0,2601,0,2601,0,101,0,101,9887,0,2465,0,2465,1548,7682,67,67,EDWARD F & HILDA S KOOK ARTS THEATRE FND,NEW YORK,NY,10106-0001,Z,Z99,0.936817,36061.0,10106.0,10106.0,5602.0,5600.0,36061.0,4.0,,194909.0,199512,199512,NY,10106.0,NEW YORK,PF,O,UN,Z,IN,,12,602.0,59.0,1995 BROADWAY,3.0,0.0,2300.0,% BUDD H GIBBS ESQ,1.0,13.0,1.0,0.0,1.0,,Z,UN,UN,OT,3.0,,,,,,,A1265,A,,
9060,3,N,N,N,N,N,N,N,N,N,N,N,N,N,N,N,N,N,N,N,136161674,1995,1995,5,4,60,108576,3473,0,0,0,5658,34435,0,6000,152142,119142,33000,51213,3473,69,0,993060,0,0,0,0,8592,993060,0,11766,NICHOLAS ROERICH MUS,NEW YORK,NY,10025-2715,Z,Z99,0.314375,36061.0,10025.0,10025.0,5602.0,5600.0,36061.0,4.0,,199404.0,199512,199512,NY,10025.0,NEW YORK,PF,O,UN,Z,IN,,12,0.0,0.0,319 W 107TH,3.0,0.0,1000.0,,1.0,13.0,1.0,0.0,1.0,,Z,UN,UN,OT,3.0,,,,,,,A50,A,,
9149,3,N,N,N,N,N,N,N,N,N,N,N,N,N,N,N,N,N,N,N,136163969,1994,1994,4,4,59,13440,0,7714,5273,0,0,6624,0,1000,33051,14222,18829,7854,7523,150,14338,272002,0,250207,0,250207,0,343239,135,14787,SOC DAUGHTERS HOLLAND DAMES,NEW YORK,NY,10021-6591,Z,Z99,0.537288,36061.0,10021.0,10021.0,5602.0,5600.0,36061.0,4.0,,194211.0,199412,199412,NY,10021.0,NEW YORK,PF,O,UN,Z,IN,,12,602.0,0.0,17 STEVENS ST,3.0,0.0,1000.0,% ANNA G B VIETOR,1.0,22.0,1.0,0.0,5.0,,Z,UN,UN,OT,3.0,,,,,,,A80,A,,
9154,3,N,Y,N,N,N,N,N,N,N,N,N,N,N,N,N,N,N,N,N,136164757,1996,1995,6,5,602,0,5336,27675,1131,0,199843,138410,0,110000,372395,322371,50024,319867,31638,316,31818,1169560,0,674071,0,674071,356896,1334410,0,49685,SOC FRIENDLY SONS ST PATRICK IN CITY NEW Y,NEW YORK,NY,10005-3601,Z,Z99,0.142617,36061.0,10005.0,10005.0,5602.0,5600.0,36061.0,4.0,,194506.0,199603,199603,NY,10005.0,NEW YORK,PF,O,UN,Z,IN,,3,0.0,0.0,80 WALL ST,3.0,0.0,1000.0,,1.0,13.0,1.0,0.0,1.0,,Z,UN,UN,OT,3.0,,,,,,,A80,A,,
9205,3,N,Y,N,N,N,N,N,N,N,N,N,N,N,N,N,N,N,N,N,136168827,1995,1995,4,3,602,25000,0,0,0,0,0,10980,0,0,35980,36979,-999,32991,7091,71,8189,159104,0,0,0,0,0,202682,0,9939,EDWARD ALBEE FND,NEW YORK,NY,10016-6823,Z,Z99,0.44781800000000005,36061.0,10016.0,10016.0,5602.0,5600.0,36061.0,4.0,,196412.0,199512,199512,NY,10016.0,NEW YORK,PF,O,UN,Z,IN,,12,0.0,0.0,192 LEXINGTON AVE 1100,3.0,0.0,1000.0,% A KOZAK CO,1.0,13.0,1.0,0.0,1.0,,Z,UN,UN,OT,3.0,,,,,,,A20,A,,
9285,3,N,N,N,N,N,N,Y,N,N,N,N,N,N,N,N,N,N,N,N,136182926,1995,1994,5,2,119,0,20817,0,0,0,0,1008,0,0,21825,25000,-3175,0,0,0,21825,526775,487117,0,0,487117,29661,520612,24882,24944,DAVID MERRICK ARTS FND,NEW YORK,NY,10176-0999,Z,Z99,0.561325,36061.0,10176.0,10176.0,5602.0,5600.0,36061.0,16.0,,196508.0,199506,199506,NY,10176.0,NEW YORK,PC,O,UN,Z,IN,,6,0.0,0.0,101 PARK AVE,3.0,0.0,1000.0,SCOTT GILDEA & CO,1.0,13.0,1.0,0.0,2.0,,Z,UN,UN,OT,3.0,,,,,,,A26,A,,
9549,3,N,N,N,N,N,N,N,N,N,N,N,N,N,N,N,N,N,N,N,136227356,1995,1995,2,1,119,800,1048,0,0,0,0,5650,0,0,7498,1789,5709,0,0,0,0,19083,0,0,0,0,0,19083,0,926,DANCE PERSPECTIVES FND,NEW YORK,NY,10022-6472,Z,Z99,0.5520689999999999,36061.0,10022.0,10022.0,5602.0,5600.0,36061.0,4.0,,196709.0,199512,199512,NY,10022.0,NEW YORK,PF,O,UN,Z,IN,,12,40.0,59.0,433 E 51ST 8D,3.0,0.0,1200.0,,1.0,13.0,1.0,0.0,1.0,,Z,UN,UN,OT,3.0,,,,,,,A62,A,,
9664,3,N,N,N,Y,N,N,N,N,N,N,N,N,N,N,N,N,N,N,N,136274647,1995,1994,3,3,119,0,7042,14714,0,-47884,0,0,0,0,-26128,734,-26862,649,21671,433,0,31284,0,0,0,0,0,31284,0,19228,SWANN COLLECTION CARRICUTURE & CARTOON,NEW YORK,NY,10022-4503,Z,Z99,0.809826,36061.0,10022.0,10022.0,5602.0,5600.0,36061.0,4.0,,196712.0,199509,199509,NY,10022.0,NEW YORK,PF,O,UN,Z,IN,,9,59.0,0.0,641 LEXINGTON AVE,3.0,0.0,1230.0,% HENRY J GOLDSCHMIDT,1.0,13.0,1.0,0.0,1.0,,Z,UN,UN,OT,3.0,,,,,,,A99,A,,
9743,3,N,N,N,N,N,N,N,N,N,N,N,N,N,N,N,N,N,N,N,136625578,1995,1994,4,3,602,10243,7460,0,0,-2222,0,0,0,8000,15481,9296,6185,8000,7460,149,7460,118550,0,0,0,0,860,118550,0,5686,AMER SOC JOURNALISTS & AUTHORS CHARITABLE TRUST,NEW YORK,NY,10036-5501,Z,Z99,0.41977299999999995,36061.0,10036.0,10036.0,5602.0,5600.0,36061.0,4.0,,198810.0,199508,199508,NY,10036.0,NEW YORK,PF,O,UN,Z,IN,,8,0.0,0.0,1501 BROADWAY 302,3.0,199308.0,1000.0,,1.0,13.0,1.0,0.0,1.0,,Z,UN,UN,OT,3.0,,,,,,,A70,A,,
9754,3,N,N,N,N,N,N,N,N,Y,N,N,N,N,N,N,N,N,N,N,136734265,1995,1995,4,3,602,0,3104,21900,20063,0,0,0,11071,17347,45067,28690,16377,17463,33840,677,0,471526,124840,276318,50249,451407,0,574141,1133,26998,TRUST U W CARL OTTO VONKIENBUSCH B O PHILADELPHIA MUS ART,NEW YORK,NY,10005-2502,Z,Z99,0.779528,36061.0,10005.0,10005.0,5602.0,5600.0,36061.0,4.0,,197806.0,199512,199512,NY,10005.0,NEW YORK,PF,O,UN,Z,IN,,12,0.0,0.0,ONE WALL ST TAX DEPT 28TH FLR,3.0,0.0,1000.0,,1.0,13.0,1.0,0.0,2.0,,Z,UN,UN,OT,3.0,,,,,,,A50,A,,
9779,3,N,N,N,N,N,N,N,N,Y,N,N,N,N,N,N,N,N,N,N,136814491,1995,1994,8,8,602,0,117234,1480754,332557,0,0,0,195007,1206500,1930545,1597695,332850,1419363,1789117,35782,0,25092941,11451564,9776009,2274060,23501633,0,31639582,0,1467802,FRANCES & EDWIN COMMINGS MEM,NEW YORK,NY,10017-6102,Z,Z99,0.46676999999999996,36061.0,10017.0,10017.0,5602.0,5600.0,36061.0,4.0,,198403.0,199507,199507,NY,10017.0,NEW YORK,PF,O,UN,Z,IN,,7,0.0,0.0,ONE WALL ST TAX DEPT 28TH FLR,3.0,0.0,1000.0,% THE BANK OF NEW YORK TAX DEPT,1.0,13.0,1.0,0.0,6.0,,Z,UN,UN,OT,3.0,,,,,,,A80,A,,
10049,3,N,N,N,N,N,N,N,N,N,N,N,N,N,N,N,N,N,N,N,137024057,1995,1994,1,2,59,18800,0,0,0,0,0,0,0,0,18800,10522,8278,36485,0,0,0,2501,0,0,0,0,0,2501,0,879,FND INDEPENDENT MEDIA,NEW YORK,NY,10106-3899,Z,Z99,0.976893,36061.0,10106.0,10106.0,5602.0,5600.0,36061.0,4.0,,9402.0,199511,199511,NY,10106.0,NEW YORK,PF,O,UN,Z,IN,,11,0.0,0.0,888 SEVENTH AVE,3.0,0.0,1000.0,% SCHULTE ROTH & ZABEL,1.0,13.0,1.0,0.0,2.0,SOROS GEORGE & SUSAN W ET AL TTEE,Z,UN,UN,OT,3.0,,,,,,,A30,A,,
10094,3,N,Y,N,N,N,N,N,N,N,N,N,N,N,N,N,N,N,N,N,137045257,1995,1995,1,6,602,1320360,0,0,0,0,0,0,0,1398770,1320360,1398770,-78410,1398770,1320360,13204,0,590,0,0,0,0,84000,590,0,300,MOSAIC FND,NEW YORK,NY,10017-3102,Z,Z99,0.636309,36061.0,10017.0,10017.0,5602.0,5600.0,36061.0,4.0,,199502.0,199512,199512,NY,10017.0,NEW YORK,PF,O,UN,Z,IN,,12,0.0,0.0,230 PARK AVE 1567,3.0,0.0,1000.0,% OCONNOR MURPHY RYAN & SEITZ,1.0,13.0,1.0,0.0,2.0,SEITZ HOWARD G TTEE,Z,UN,UN,OT,3.0,,,,,,,A40,A,,
11453,3,N,N,N,N,N,N,N,N,N,N,N,N,N,N,N,N,N,N,N,222436291,1995,1994,1,1,29,5360,0,0,0,0,0,0,0,0,5360,7723,-2363,7723,0,0,0,421,0,0,0,0,0,421,0,60,AMER FRIENDS ITALIAN JEWRY,NEW YORK,NY,10019-3301,Z,Z99,0.0111405,36061.0,10019.0,10019.0,5602.0,5600.0,36061.0,4.0,,198305.0,199510,199510,NY,10019.0,NEW YORK,PF,O,UN,Z,IN,,10,994.0,0.0,152 W 57TH ST,3.0,198310.0,1000.0,% KOENIG RATNER & MOTT PC,1.0,13.0,1.0,0.0,1.0,,Z,UN,UN,OT,3.0,,,,,,,A1123,A,,
11972,3,N,Y,N,N,N,N,N,N,N,N,N,N,N,N,N,N,Y,N,N,222711422,1995,1995,6,5,40,0,19803,125956,11004,0,0,0,34000,149500,156763,256896,-100133,231102,136876,1369,0,2850150,0,1805612,972231,2777843,839,2785422,0,129780,CHINA TIMES CULTURAL FND,FLUSHING,NY,11355-2427,Z,Z99,0.33202,36081.0,11355.0,11355.0,5602.0,5600.0,36081.0,4.0,,198609.0,199512,199512,NY,11355.0,FLUSHING,PF,O,UN,Z,IN,,12,123.0,0.0,43 27 36TH ST,3.0,0.0,1000.0,,1.0,11.0,1.0,0.0,1.0,,Z,UN,UN,OT,3.0,,,,,,,A1233,A,,
12272,3,N,Y,N,N,N,N,N,N,N,N,N,N,N,N,N,N,N,N,N,222795753,1996,1995,6,5,602,0,52,44370,197898,0,0,22953,0,90150,265273,102583,162690,90608,255011,2550,0,1530425,0,1066358,0,1066358,0,1851721,0,86400,INDIAN PT FND,NEW YORK,NY,10128-1154,Z,Z99,0.480443,36061.0,10128.0,10128.0,5602.0,5600.0,36061.0,4.0,,8706.0,199606,199606,NY,10128.0,NEW YORK,PF,O,UN,Z,IN,,6,0.0,0.0,1095 PARK AVE 11A,3.0,0.0,1000.0,,1.0,13.0,1.0,0.0,1.0,,Z,UN,UN,OT,3.0,,,,,,,A23,A,,
12724,3,N,Y,N,N,N,N,N,N,N,N,N,N,N,N,N,N,N,N,N,223047700,1995,1995,5,3,59,0,2675,22375,1023,0,0,0,0,20500,26073,28769,-2696,34450,24684,247,0,558244,0,0,0,0,5422,705225,24012,31488,NEW YORK FND ARCHITECTURE,NEW YORK,NY,10016-6101,A,A41,0.888561,36061.0,10016.0,10016.0,5602.0,5600.0,36061.0,4.0,,196703.0,199512,199512,NY,10016.0,NEW YORK,PF,O,AR,A,IN,,12,0.0,0.0,200 LEXINGTON AVE,3.0,0.0,1000.0,,1.0,13.0,1.0,0.0,1.0,,A,AR,AR,AR,3.0,,,,,,,A40,A,,
12770,3,N,N,N,N,N,N,N,N,N,N,N,N,N,N,N,N,N,N,N,223073374,1996,1995,0,0,93,0,0,0,0,0,0,0,0,0,0,0,0,0,0,0,0,0,0,0,0,0,0,0,0,0,AMER FRIENDS RADIO FRANCE INTL,NEW YORK,NY,10017-0000,Z,Z99,0.156864,36061.0,10017.0,10017.0,5602.0,5600.0,36061.0,4.0,,9011.0,199611,199611,NY,10017.0,NEW YORK,PF,O,UN,Z,IN,,11,0.0,0.0,767 THIRD AVE STE 4TH,3.0,0.0,1000.0,,1.0,13.0,1.0,0.0,1.0,,Z,UN,UN,OT,3.0,,,,,,,A1134,A,,
15884,3,N,N,N,N,N,N,N,N,N,N,N,N,N,N,N,N,N,N,N,237044630,1996,1995,1,1,119,2600,31,0,0,0,0,0,0,500,2631,1931,700,1931,31,0,0,1500,0,0,0,0,0,1500,0,0,RIVERSIDE THEATRE WORKSHOP,NEW YORK,NY,10025-5220,Z,Z99,0.0721972,36061.0,10025.0,10025.0,5602.0,5600.0,36061.0,4.0,,196912.0,199605,199605,NY,10025.0,NEW YORK,PF,O,UN,Z,IN,,5,59.0,0.0,280 RIVERSIDE DR,3.0,0.0,1200.0,,1.0,13.0,1.0,0.0,1.0,,Z,UN,UN,OT,3.0,,,,,,,A65,A,,
16011,3,N,N,N,N,N,N,N,N,N,N,N,N,N,N,N,N,N,N,N,237055841,1995,1995,6,4,119,0,486,146435,0,0,0,0,30794,85721,146921,158267,-11346,116196,106040,2121,104850,1919855,51298,0,1849779,1901077,0,2008763,0,92756,INDONESIAN CULTURAL FND,NEW YORK,NY,10158-0180,Z,Z99,0.938974,36061.0,10158.0,10158.0,5602.0,5600.0,36061.0,4.0,,197002.0,199512,199512,NY,10158.0,NEW YORK,PF,O,UN,Z,IN,,12,602.0,40.0,605 THIRD AVE STE 1501,3.0,0.0,1000.0,,1.0,13.0,1.0,0.0,1.0,,Z,UN,UN,OT,3.0,,,,,,,A23,A,,
16172,3,N,N,N,Y,N,N,N,N,N,N,N,N,N,N,N,N,N,N,N,237075252,1994,1994,0,0,59,0,0,0,0,0,0,0,0,0,0,0,0,0,0,0,0,0,0,0,0,0,0,0,0,0,INTL CTR THEATRE CREATION,NEW YORK,NY,10014-4960,Z,Z99,0.364948,36061.0,10014.0,10014.0,5602.0,5600.0,36061.0,4.0,,,199412,199412,NY,10014.0,NEW YORK,PF,O,UN,Z,IN,,12,,,,,,,,,,,,,,Z,UN,UN,OT,,,,,,,,A65,A,,
16251,2,N,N,N,N,Y,N,N,N,N,N,N,N,N,N,N,N,N,N,N,237087276,1994,1993,6,5,59,10000,0,11234,292594,0,0,11784,37800,162056,325612,311103,14509,237750,292471,6077,11234,1436464,0,530658,0,530658,0,2474920,0,79065,PEARSON ART FND,NEW YORK,NY,10118-0000,Z,Z99,0.743536,36061.0,10118.0,10118.0,5602.0,5600.0,36061.0,3.0,,197011.0,199409,199409,NY,10118.0,NEW YORK,PF,O,UN,Z,IN,,9,602.0,0.0,580 SYLVAN AVE,3.0,0.0,1200.0,% WOLLIN ASSOC INC,1.0,22.0,1.0,0.0,1.0,,Z,UN,UN,OT,3.0,,,,,,,A12,A,,
16372,3,N,N,N,N,Y,N,N,N,N,N,N,N,N,N,N,N,N,N,N,237108615,1994,1993,1,1,119,3680,39,0,0,0,0,0,0,520,6219,6456,-237,5456,1539,31,0,1908,0,0,0,0,594,234248,0,11668,GABRIEL VON WAYDITCH MUSIC FND,KEW GARDENS,NY,11415-1715,Z,Z99,0.664365,36081.0,11415.0,11415.0,5602.0,5600.0,36081.0,4.0,,197112.0,199410,199410,NY,11415.0,KEW GARDENS,PF,O,UN,Z,IN,,10,0.0,0.0,80 61 LEFFERTS BLVD,3.0,0.0,1300.0,,1.0,11.0,1.0,0.0,1.0,,Z,UN,UN,OT,3.0,,,,,,,A68,A,,
16580,3,N,N,N,N,N,N,N,N,N,N,N,N,N,N,N,N,N,N,N,237162976,1995,1995,2,2,119,15563,0,0,0,0,0,0,0,0,15563,14052,1511,14052,0,0,0,14078,0,0,0,0,0,10078,0,0,FND RES IN AFRO AMER CREATIVE ARTS,CAMBRIA HGTS,NY,11411-0000,Z,Z99,0.138078,36081.0,11411.0,11411.0,5602.0,5600.0,36081.0,4.0,,7212.0,199512,199512,NY,11411.0,CAMBRIA HGTS,PF,O,UN,Z,IN,,12,91.0,0.0,PO BOX I,3.0,0.0,2000.0,,1.0,11.0,1.0,0.0,1.0,,Z,UN,UN,OT,3.0,,,,,,,A12,A,,
16651,3,N,N,N,Y,N,N,N,N,N,N,N,N,N,N,N,N,N,N,N,237177774,1995,1995,0,1,59,8,0,598,0,-1607,0,0,0,8687,-1000,11467,-12467,11467,598,12,0,0,0,0,0,0,0,0,0,294,ELEANOR ROOSEVELT NEWSPAPER WOMENS MEM FND,NEW YORK,NY,10003-1705,Z,Z99,0.473575,36061.0,10003.0,10003.0,5602.0,5600.0,36061.0,4.0,,7211.0,199512,199512,NY,10003.0,NEW YORK,PF,O,UN,Z,IN,,12,0.0,0.0,15 GRAMERCY PARK,3.0,0.0,2000.0,,1.0,13.0,1.0,0.0,1.0,,Z,UN,UN,OT,3.0,,,,,,,A33,A,,
16659,3,N,Y,N,N,Y,N,N,N,N,N,N,N,N,N,N,N,N,N,N,237179844,1996,1995,3,1,602,5074,3507,0,0,0,0,0,0,3000,8581,3124,5457,3000,3507,35,3507,92798,0,0,0,0,0,92798,0,4435,RANDI PRESS FND,BROOKLYN,NY,11234-4518,Z,Z99,0.759652,36047.0,11234.0,11234.0,5602.0,5600.0,36047.0,4.0,,197302.0,199601,199601,NY,11234.0,BROOKLYN,PF,O,UN,Z,IN,,1,0.0,0.0,2284 FLATBUSH AVE,3.0,0.0,1000.0,,1.0,11.0,1.0,0.0,1.0,,Z,UN,UN,OT,3.0,,,,,,,A33,A,,
16705,3,N,Y,N,N,N,N,N,N,N,N,N,N,N,N,N,N,N,N,N,237193312,1995,1995,6,4,59,94644,3276,14189,0,0,0,69733,0,464090,181842,476041,-294199,475041,13189,132,86198,1677919,0,233438,0,233438,0,1752654,0,17239,AMER FRIENDS CANADA COMM,NEW YORK,NY,10016-0601,Z,Z99,0.600074,36061.0,10016.0,10016.0,5602.0,5600.0,36061.0,9.0,,197206.0,199512,199512,NY,10016.0,NEW YORK,PC,O,UN,Z,IN,,12,119.0,0.0,270 MADISON AVE,3.0,0.0,2000.0,% US TRUST CO OF NEW YORK,1.0,13.0,1.0,0.0,1.0,,Z,UN,UN,OT,3.0,,,,,,,A26,A,,
16821,3,N,N,N,N,N,N,N,N,N,N,N,N,N,N,N,N,N,N,N,237228901,1995,1995,2,1,65,0,15,1028,0,0,0,0,0,0,1043,1032,11,0,10,0,0,20373,0,0,0,0,0,20373,0,1003,LUNDQUIST RELIGIOUS EXHIBITS,BRONX,NY,10462-3170,Z,Z99,0.193885,36005.0,10462.0,10462.0,5602.0,5600.0,36005.0,4.0,,197212.0,199512,199512,NY,10462.0,BRONX,PF,O,UN,Z,IN,,12,207.0,0.0,2041 COLDEN AVE,3.0,0.0,1000.0,,1.0,13.0,1.0,0.0,1.0,,Z,UN,UN,OT,3.0,,,,,,,A50,A,,
16924,3,N,N,N,N,N,N,N,N,N,N,N,N,N,N,N,N,N,N,N,237259908,1995,1995,2,1,560,1800,0,0,0,0,0,0,0,1500,1800,1790,10,1500,0,0,0,10156,10121,0,0,10121,0,10156,0,498,IDA FINK MEM ASSOC,BROOKLYN,NY,11230-5105,Z,Z99,0.612942,36047.0,11230.0,11230.0,5602.0,5600.0,36047.0,4.0,,7302.0,199512,199512,NY,11230.0,BROOKLYN,PF,O,UN,Z,IN,,12,0.0,0.0,1247 E 8TH ST,3.0,0.0,1000.0,% DAVID GOLDMAN,1.0,11.0,1.0,0.0,1.0,,Z,UN,UN,OT,3.0,,,,,,,A80,A,,
16980,3,N,Y,N,N,N,N,N,N,N,N,N,N,N,N,N,N,N,N,N,237292189,1995,1995,4,2,119,0,3694,20893,0,0,0,0,0,25000,24587,31640,-7053,31442,24587,246,24587,395490,0,282178,0,282178,0,389945,0,18706,INST CHINESE PERFORMING ARTS,NEW YORK,NY,10016-2059,Z,Z99,0.677013,36061.0,10016.0,10016.0,5602.0,5600.0,36061.0,4.0,,197312.0,199512,199512,NY,10016.0,NEW YORK,PF,O,UN,Z,IN,,12,0.0,0.0,600 THIRD AVE 22ND FLOOR,3.0,0.0,3000.0,% EUGENIA SHIAH,1.0,13.0,1.0,0.0,1.0,,Z,UN,UN,OT,3.0,,,,,,,A60,A,,
17213,3,N,N,N,N,N,N,N,N,N,N,N,N,N,N,N,N,N,N,N,237363420,1995,1995,3,1,602,0,3344,0,0,0,0,0,0,7700,3344,10753,-7409,7700,529,11,529,63467,0,0,0,0,0,63467,0,3186,MEYER & TZIPPE FRUCHTBAUM FND JEWISH CULTURE,NEW YORK,NY,10023-2824,Z,Z99,0.466854,36061.0,10023.0,10023.0,5602.0,5600.0,36061.0,4.0,,7412.0,199512,199512,NY,10023.0,NEW YORK,PF,O,UN,Z,IN,,12,0.0,0.0,200 W 72ND ST,3.0,0.0,1000.0,% LEBYL KAHN,1.0,13.0,1.0,0.0,1.0,,Z,UN,UN,OT,3.0,,,,,,,A23,A,,
17223,3,N,N,N,N,N,N,N,N,N,N,N,N,N,N,N,N,N,N,N,237365710,1995,1995,0,0,119,0,0,0,0,0,0,0,0,0,0,0,0,0,0,0,0,0,0,0,0,0,0,0,0,0,ION NICOLA THEATRE FND,NEW YORK,NY,10150-6429,Z,Z99,0.472542,36061.0,10150.0,10150.0,5602.0,5600.0,36061.0,4.0,,197405.0,199512,199512,NY,10150.0,NEW YORK,PF,O,UN,Z,IN,,12,0.0,0.0,PO BOX 6429,3.0,0.0,2000.0,,1.0,13.0,1.0,0.0,1.0,,Z,UN,UN,OT,3.0,,,,,,,A65,A,,
17288,3,N,N,N,N,N,N,N,N,N,N,N,N,N,N,N,N,N,N,N,237381454,1995,1994,0,0,90,0,0,0,0,0,0,0,0,0,0,0,0,0,0,0,0,0,0,0,0,0,0,0,0,0,PHILHARMONIA EREDE,NEW YORK,NY,10036-6315,Z,Z99,0.792157,36061.0,10036.0,10036.0,5602.0,5600.0,36061.0,4.0,,7411.0,199509,199509,NY,10036.0,NEW YORK,PF,O,UN,Z,IN,,9,0.0,0.0,400 W 43RD ST RM 37 N,3.0,0.0,2000.0,,1.0,13.0,1.0,0.0,1.0,,Z,UN,UN,OT,3.0,,,,,,,A69,A,,
17401,3,N,N,N,N,N,N,N,N,N,N,N,N,N,N,N,N,N,N,N,237412320,1995,1995,3,1,994,0,1267,0,0,0,0,0,0,340,1267,1971,-704,1971,1267,25,0,29976,0,0,0,0,0,29976,1469,1494,FLARE FND ARTS,NEW YORK,NY,10019-1415,Z,Z99,0.127564,36061.0,10019.0,10019.0,5602.0,5600.0,36061.0,4.0,,197411.0,199512,199512,NY,10019.0,NEW YORK,PF,O,UN,Z,IN,,12,119.0,64.0,200 CENTRAL PARK S 21E,3.0,0.0,2000.0,,1.0,13.0,1.0,0.0,1.0,,Z,UN,UN,OT,3.0,,,,,,,A12,A,,
17658,3,N,Y,N,N,N,N,N,N,N,N,N,N,N,N,N,N,N,N,N,237443020,1995,1995,6,6,602,4500000,205191,0,0,0,0,0,0,3726487,4705191,3726757,978434,3725947,205191,2052,205191,1999069,0,0,0,0,0,1999069,0,164780,ABC BROADCASTING FND,NEW YORK,NY,10023-0000,Z,Z99,0.293576,36061.0,10023.0,10023.0,5602.0,5600.0,36061.0,4.0,,197504.0,199512,199512,NY,10023.0,NEW YORK,PF,O,UN,Z,IN,,12,0.0,0.0,11TH FLOOR 77 W 66TH ST,3.0,0.0,1000.0,,1.0,13.0,1.0,0.0,1.0,,Z,UN,UN,OT,3.0,,,,,,,A30,A,,
25837,2,Y,N,N,N,Y,N,N,N,N,N,N,N,N,N,N,N,N,N,N,382415253,1994,1994,5,2,90,0,20257,0,0,0,0,0,0,18200,20257,32045,-11788,30856,20257,0,20257,827303,0,0,0,0,0,827303,0,40963,CTR ALTERNATIVE MEDIA & CULTURE,NEW YORK,NY,10022-6022,Z,Z99,0.673914,36061.0,10022.0,10022.0,5602.0,5600.0,36061.0,2.0,,198303.0,199412,199412,NY,10022.0,NEW YORK,PF,O,UN,Z,IN,,12,0.0,0.0,350 PARK AVE,3.0,0.0,1000.0,% STARR & CO,1.0,13.0,1.0,0.0,1.0,,Z,UN,UN,OT,3.0,,,,,,,A30,A,,
31889,3,N,Y,N,Y,N,N,N,N,N,N,N,N,N,N,N,N,N,N,N,510163343,1993,1993,2,5,40,0,5386,48315,210566,0,0,0,5696,940750,264267,969951,-705684,953273,247589,2476,0,22135,0,0,0,0,0,22135,0,39064,UWO MOLLY M FORSTER TRUST U ART IV PARA 2,NEW YORK,NY,10170-0001,Z,Z99,0.9162959999999999,36061.0,10170.0,10170.0,5602.0,5600.0,36061.0,,,,199312,199312,NY,10170.0,NEW YORK,U,O,UN,Z,IN,,12,,,,,,,,,,,,,,Z,UN,UN,OT,,,,,,,,A12,A,,
32250,3,N,N,N,N,N,N,N,N,N,N,N,N,N,N,N,N,N,N,N,510254205,1995,1995,6,6,602,1802015,31,9,234,0,0,0,0,684332,1802289,796327,1005962,684332,274,3,274,1052634,0,0,0,0,0,1052634,0,49764,MUS SCOTLAND & HERITAGE TRUST FND,NEW YORK,NY,10021-4335,Z,Z99,0.506663,36061.0,10021.0,10021.0,5602.0,5600.0,36061.0,4.0,,198012.0,199512,199512,NY,10021.0,NEW YORK,PF,O,UN,Z,IN,,12,0.0,0.0,165 E 72ND ST,3.0,0.0,1000.0,% SLOANE & HINSHAW INC,1.0,13.0,1.0,0.0,1.0,,Z,UN,UN,OT,3.0,,,,,,,A50,A,,
37577,3,N,N,N,N,N,N,N,N,N,N,N,N,N,N,N,N,N,N,N,592343891,1995,1995,1,1,92,0,0,0,0,0,1163,315,0,0,1478,0,1478,0,0,0,1478,7451,0,0,0,0,4562,1673,0,19,RED BASS PRODUCTIONS,NEW YORK,NY,10013-3926,Z,Z99,0.233886,36061.0,10013.0,10013.0,5602.0,5600.0,36061.0,4.0,,8810.0,199512,199512,NY,10013.0,NEW YORK,PF,O,UN,Z,IN,,12,0.0,0.0,338 W 11TH ST 4 C,3.0,0.0,1000.0,,1.0,13.0,1.0,0.0,1.0,,Z,UN,UN,OT,3.0,,,,,,,A60,A,,
37710,3,N,N,N,N,N,N,N,N,N,N,N,N,N,N,N,N,N,N,N,592653271,1995,1995,4,3,60,19804,47,0,0,0,1147,54950,0,500,75949,99019,-23070,63273,47,1,0,123185,0,5187,0,5187,0,124304,0,2089,PAN AM HIST FND,NEW YORK,NY,10169-0099,Z,Z99,0.9138440000000001,36061.0,10169.0,10169.0,5602.0,5600.0,36061.0,4.0,,198702.0,199512,199512,NY,10169.0,NEW YORK,PF,O,UN,Z,IN,,12,62.0,0.0,230 PARK AVE 1450,3.0,0.0,2000.0,% JAUN T TRIPPE,1.0,13.0,1.0,0.0,1.0,,Z,UN,UN,OT,3.0,,,,,,,A82,A,,
45117,3,N,Y,N,N,N,N,N,N,N,N,N,N,N,N,N,N,N,N,N,840572016,1994,1994,2,1,59,0,468,0,0,0,0,0,0,6850,468,6854,-6386,6850,468,5,0,15649,0,0,0,0,0,15649,0,886,ASPEN CTR CONTEMPORARY ART,NEW YORK,NY,10017-3610,Z,Z99,0.774073,36061.0,10017.0,10017.0,5602.0,5600.0,36061.0,4.0,,196705.0,199412,199412,NY,10017.0,NEW YORK,PF,O,UN,Z,IN,,12,119.0,60.0,135 W 50TH ST,3.0,0.0,2000.0,% HOLLAND & HART CHARLES T BRANDT,1.0,13.0,1.0,0.0,1.0,,Z,UN,UN,OT,3.0,,,,,,,A20,A,,
49342,3,N,N,N,N,Y,N,Y,N,N,N,N,N,N,N,N,N,N,N,N,953697181,1995,1994,3,5,88,469808,730,1228,3620,0,0,0,0,1525,475386,509491,-34105,507353,5578,112,0,84363,0,0,0,0,0,84363,0,4000,ONE WORLD ARTS FND,NEW YORK,NY,10024-6210,Z,Z99,0.00851497,36061.0,10024.0,10024.0,5602.0,5600.0,36061.0,4.0,,8201.0,199506,199506,NY,10024.0,NEW YORK,PF,O,UN,Z,IN,,6,90.0,0.0,230 W 79TH ST 93 N,3.0,0.0,2000.0,,1.0,13.0,1.0,0.0,1.0,,Z,UN,UN,OT,3.0,,,,,,,A12,A,,
