,EIN,FisYr,TAXPER,SUBSECCD,ACTIV,P1TOTREV,P2TOTAST,P6EXMPF,P6DOMORG,P7POLIT,P7LIQUID,P7POFCLM,P7DISSAL,P7DISBOR,P7DISSER,P7DISPAY,P7DISTRA,P7PAYGVT,P7UNDINC,P7BUSINT,P7JEOINV,P7PROPAG,P7ELECT,P7INDGRT,P7ORGGRT,P7OTHPUR,ACTIV1,ACTIV2,ACTIV3,RULEDATE,NAME,CITY,STATE,ZIP5,ADDRESS,ZIP,P1TCONT,P1INTREV,P1DIVID,P1NGASTS,P1GINVPF,P1OTHINC,P1OFCOMP,P1CONTPD,P1TOTEXP,P1EXCREV,P1TEXMEX,P1NETINV,P1NADINC,P2GVTINV,P2CRPSTK,P2CRPBND,P2TINVSC,P2TLIABL,P2TASFMV,P13UNDST,P10MIR,P1GRENTS,P1INVRV,P1NADJRV,P1ADMEXP,P1INVEXP,P1CHAEXP,P1TINVEX,P1TADJEX,P2CASHBV,P2MORTG,P2EYOTIN,P2EYASST,P2MTGNTS,P3EYTFND,P6TX4940,P6TX511,P6TXSUBA,P6ESTTX,P6TXWTH,P6TXINV,P6TXWERR,P6TXPNLT,P6TXCRDT,P10TASST,P11DISTR,P14NADJA,P14NADJB,P14NADJC,P14NADJD,P14TNADJ,P14QDISA,P14QDISB,P14QDISC,P14QDISD,P14TQDIS,P14ASVLA,P14ASVLB,P14ASVLC,P14ASVLD,P14TASVL,P14A4942,P14B4942,P14C4942,P14D4942,P14T4942,P14ENDWA,P14ENDWB,P14ENDWC,P14ENDWD,P14TENDW,P14TSUPA,P14TSUPB,P14TSUPC,P14TSUPD,P14TTSUP,P14PSUPA,P14PSUPB,P14PSUPC,P14PSUPD,P14TPSUP,P14GINVA,P14GINVB,P14GINVC,P14GINVD,P14TGINV,P6TEXCTX,CONTACT,GEN,AFCD,CLASSCD,DEDUCTCD,FNDNCD,ORGCD,DISTRICT,ARED,FRCD,ACCPER,SEC_NAME,verify,FIPS,MSA_NECH,PMSA,RandNum,STYEAR,stateOld1,zip5Old1,cityOld1,LEVEL1,LEVEL2,LEVEL3,LEVEL4,OUTNCCS,OUTREAS,NTEE1,MAJGRPB,ntmaj12,ntmaj10,ntmaj5,NTEECC,LEVEL1old20090616,LEVEL2old20090616,LEVEL3old20090616,LEVEL4old20090616,OUTNCCSold20090616,OUTREASold20090616,nteeFinal,nteeFinal1
103,10485254,1997,199712,3,60,104142,55602,N,N,N,N,N,N,N,N,N,N,N,N,N,N,N,N,N,N,N,60.0,119.0,0.0,199409.0,WILHELM REICH INFANT TRUST,FOREST HILLS,NY,11375,382 BURNS ST,11375-6133,44219,20,736,0,13408,33321,0,687,124726,-20584,52767,7087,0,0,0,0,0,1715,55602,0,3203,12438,24973,59923,124039,17886,52080,17886,63302,3072,0,0,55602,0,53887,142,0,0,0,0,0,0,0,0,65000,3100,0,0,0,0,0,0,0,0,0,0,0,0,0,0,0,0,0,0,0,0,0,0,0,0,0,0,0,0,0,0,0,0,0,0,0,0,0,0,0,0,142,% MARY BOYD HIGGINS,0.0,3.0,1.0,1.0,15.0,1.0,11.0,0.0,10.0,12,,,36081.0,5602.0,5600.0,0.8481139999999999,1997,NY,11375,FOREST HILLS,PC,S,ZA,A,IN,,A,A,AR,AR,AR,A11,,,,,,,A1156,A
3015,53842834,1997,199709,3,60,0,1,N,N,N,N,N,N,N,N,N,N,N,N,N,N,N,N,N,N,N,60.0,0.0,0.0,199511.0,FREDERICK BROWN MUSEUM INC,NEW YORK,NY,10118,350 FIFTH AVE STE 2822,10118-2899,0,0,0,0,0,0,0,0,0,0,0,0,0,0,0,0,0,0,1,0,0,0,0,0,0,0,0,0,0,0,0,0,1,0,1,0,0,0,0,0,0,0,0,0,0,0,0,0,0,0,0,0,0,0,0,0,0,0,0,0,0,0,0,0,0,0,0,0,0,0,0,0,0,0,0,0,0,0,0,0,0,0,0,0,0,0,0,% L WOLLIN,0.0,3.0,1.0,1.0,4.0,1.0,13.0,0.0,1.0,9,,,36061.0,5602.0,5600.0,0.48427299999999995,1996,NY,10118,NEW YORK,PF,O,AR,A,IN,,A,A,AR,AR,AR,A50,,,,,,,A50,A
3158,60742976,1997,199706,3,59,160808,237394,N,Y,N,N,Y,N,N,N,N,N,N,N,N,N,N,N,N,N,N,59.0,0.0,0.0,195207.0,WHITE BARN THEATRE FOUNDATION INC,NEW YORK,NY,10018,111 W 40TH ST,10018-2506,141465,303,0,0,0,19040,0,0,192018,-31210,169935,303,303,0,0,0,0,867,237394,0,2805,0,303,19343,192018,0,169935,0,19040,34186,0,0,237394,0,236527,3,0,0,0,0,0,0,0,0,57000,0,303,0,3,6,312,169935,89842,152349,127174,539300,237394,268534,214280,242108,962316,237384,268534,214280,242108,962306,1870,1603,1494,1910,6877,0,0,0,0,0,0,0,0,0,0,0,0,0,0,0,3,% HECHT & CO,0.0,3.0,2.0,1.0,3.0,1.0,13.0,0.0,1.0,6,,,36061.0,5602.0,5600.0,0.0859942,1996,NY,10018,NEW YORK,PF,O,AR,A,IN,,A,A,AR,AR,AR,A65,,,,,,,A65,A
3372,61286112,1997,199711,3,92,46,1,N,Y,N,Y,Y,N,N,N,N,N,N,N,N,N,N,N,N,N,N,92.0,0.0,0.0,199006.0,FREUD LITERARY HERITAGE FOUNDATION,NEW YORK,NY,10024,300 CENTRAL PARK WEST,10024-1513,0,46,0,0,0,0,0,2000,5124,-5078,2000,0,0,0,0,0,0,0,1,0,219,0,46,0,274,211,0,211,0,0,0,0,1,0,1,0,0,0,0,0,0,0,0,0,4500,0,219,251,586,1218,2274,2000,0,11013,14462,27475,0,5078,5150,17133,27361,0,5078,5150,17133,27361,0,0,0,0,0,0,0,0,0,0,0,0,0,0,0,0,0,0,0,0,0,% K R EISSLER,0.0,3.0,1.0,1.0,3.0,1.0,13.0,0.0,1.0,11,,,36061.0,5602.0,5600.0,0.206015,1996,NY,10024,NEW YORK,PF,O,AR,A,IN,,A,A,AR,AR,AR,A70,,,,,,,A70,A
4176,112444997,1997,199712,3,400,0,1,N,N,N,N,N,N,N,N,N,N,N,N,N,N,N,N,N,N,N,400.0,402.0,404.0,197909.0,CLINTON HILL RESTORATION AND DEVELOPMENT CORP,BROOKLYN,NY,11238,431 WASHINGTON AVE,11238-1804,0,0,0,0,0,0,0,0,0,0,0,0,0,0,0,0,0,0,1,0,0,0,0,0,0,0,0,0,0,0,0,0,0,0,1,0,0,0,0,0,0,0,0,0,0,0,0,0,0,0,0,0,0,0,0,0,0,0,0,0,0,0,0,0,0,0,0,0,0,0,0,0,0,0,0,0,0,0,0,0,0,0,0,0,0,0,0,,0.0,3.0,1.0,1.0,4.0,1.0,11.0,0.0,1.0,12,,,36047.0,5602.0,5600.0,0.102042,1997,NY,11238,BROOKLYN,PF,O,AR,A,IN,,A,A,AR,AR,AR,A82,,,,,,,A82,A
4204,112538932,1997,199712,3,40,7695,28167,N,N,N,N,N,N,N,N,N,N,N,N,N,N,N,N,N,N,N,40.0,0.0,0.0,198107.0,RICHARD H GOLDMAN MEMORIAL FOUNDA TION,NEW YORK,NY,10021,150 E 69TH ST APT 7G,10021-5704,5000,0,2695,0,0,0,0,27255,27628,-19933,27344,2411,0,28167,0,0,28167,3300,27103,0,1642,0,2695,0,373,284,89,284,0,0,0,0,27103,0,24867,48,0,0,69,0,100,0,0,121,33300,1600,0,0,0,0,0,0,0,0,0,0,0,0,0,0,0,0,0,0,0,0,0,0,0,0,0,0,0,0,0,0,0,0,0,0,0,0,0,0,0,0,48,,0.0,3.0,1.0,1.0,4.0,2.0,13.0,0.0,1.0,12,,,36061.0,5602.0,5600.0,0.6078819999999999,1997,NY,10021,NEW YORK,PF,O,AR,A,IN,,A,A,AR,AR,AR,A80,,,,,,,A80,A
4208,112545501,1998,199805,3,40,6033,8183,N,N,N,N,N,N,N,N,N,N,N,N,N,N,N,N,N,N,N,40.0,0.0,0.0,198110.0,EDDIE BARNES MEMORIAL MUSIC SCHOLAR SHIP FOUNDATION,QUEENS VILLAGE,NY,11427,212 75 WHITEHALL TER,11427-1824,6000,33,0,0,0,0,0,5070,5541,492,5541,33,33,0,0,0,0,0,8183,0,391,0,33,33,471,0,471,0,0,0,0,0,8183,0,8183,0,0,0,0,0,0,0,0,0,7900,400,0,0,0,0,0,0,0,0,0,0,0,0,0,0,0,0,0,0,0,0,0,0,0,0,0,0,0,0,0,0,0,0,0,0,0,0,0,0,0,0,0,,0.0,3.0,1.0,1.0,4.0,1.0,11.0,0.0,1.0,5,,,36081.0,5602.0,5600.0,0.738661,1997,NY,11427,QUEENS VILLAGE,PF,O,AR,A,IN,,A,A,AR,AR,AR,A68,,,,,,,A68,A
4246,112620092,1997,199706,3,91,0,8048,N,N,N,N,N,N,N,N,N,N,N,N,N,N,N,N,N,N,N,91.0,93.0,123.0,198311.0,INSTITUTE FOR ADVANCED STUDIES OF CHINESE ART INC,FLUSHING,NY,11355,59 45 154TH PL,11355-5508,0,0,0,0,0,0,0,0,1677,-1677,0,0,0,0,0,0,0,67527,8048,0,394,0,0,0,1677,0,0,0,0,0,0,0,8048,0,-59479,0,0,0,0,0,0,0,0,0,8000,0,0,0,0,0,0,0,0,0,0,0,0,0,0,0,0,0,0,0,0,0,0,0,0,0,0,0,0,0,0,0,0,0,0,0,0,0,0,0,0,0,0,,0.0,3.0,1.0,1.0,4.0,1.0,11.0,198706.0,1.0,6,,,36081.0,5602.0,5600.0,0.283931,1996,NY,11355,FLUSHING,PF,O,AR,A,IN,,A,A,AR,AR,AR,A25,,,,,,,T20,T
4257,112634917,1997,199706,3,349,53834,15852,N,N,N,N,N,N,N,N,N,N,N,N,N,N,N,N,N,N,N,349.0,0.0,0.0,198305.0,INSTITUTE FOR THEATRE LEARNING INC,FRESH MEADOWS,NY,11365,56 15A UTOPIA PKY,11365-1634,0,170,0,0,0,53664,10900,0,46232,7602,0,170,53534,0,0,0,0,3872,15852,0,0,0,170,53834,46232,0,0,0,300,0,0,0,15852,0,11980,3,0,0,0,0,0,0,0,0,0,0,0,0,0,0,0,0,0,0,0,0,0,0,0,0,0,0,0,0,0,0,0,0,0,0,0,0,0,0,0,0,0,0,0,0,0,0,0,0,0,0,3,,0.0,3.0,1.0,1.0,4.0,1.0,11.0,0.0,1.0,6,,,36081.0,5602.0,5600.0,0.0174024,1996,NY,11365,FRESH MEADOWS,PF,O,AR,A,IN,,A,A,AR,AR,AR,A6E,,,,,,,A6E,A
4353,112801382,1997,199706,3,124,0,1,N,N,N,N,N,N,N,N,N,N,N,N,N,N,N,N,N,N,N,124.0,209.0,0.0,198702.0,THE MOVEMENT INTERFACE RESEARCH INSTITUTE INC,BROOKLYN,NY,11206,31 LEONARD ST 1M,11206-3040,0,0,0,0,0,0,0,0,0,0,0,0,0,0,0,0,0,0,300,0,0,0,0,0,0,0,0,0,0,0,0,0,300,0,1,0,0,0,0,0,0,0,0,0,0,0,0,0,0,0,0,0,0,0,0,0,0,0,0,0,0,0,0,0,0,0,0,0,0,0,0,0,0,0,0,0,0,0,0,0,0,0,0,0,0,0,0,,0.0,3.0,1.0,1.0,4.0,1.0,11.0,0.0,1.0,6,,,36047.0,5602.0,5600.0,0.503052,1996,NY,11206,BROOKLYN,PF,O,AR,A,IN,,A,A,AR,AR,AR,A70,,,,,,,A70,A
4420,112879579,1997,199712,3,90,4619,5487,N,N,N,N,N,N,N,N,N,N,N,N,N,N,N,N,N,N,N,90.0,0.0,0.0,198810.0,ASIAN AMERICAN FOUNDATION FOR THE ARTS INC,NEW YORK,NY,10025,517 W 113TH ST STE 54,10025-8052,4423,196,0,0,0,0,0,0,9674,-5055,0,0,0,0,0,0,0,0,5487,0,0,0,0,0,9674,0,0,0,0,5487,0,0,5487,0,5487,0,0,0,0,0,0,0,0,0,0,0,0,0,0,0,0,0,0,0,0,0,0,0,0,0,0,0,0,0,0,0,0,0,0,0,0,0,0,0,0,0,0,0,0,0,0,0,0,0,0,0,0,,0.0,3.0,1.0,1.0,4.0,1.0,13.0,0.0,1.0,12,,,36061.0,5602.0,5600.0,0.749734,1997,NY,10025,NEW YORK,PF,O,AR,A,IN,,A,A,AR,AR,AR,A23,,,,,,,A23,A
4443,112918759,1997,199712,3,29,36807,0,N,N,N,N,N,N,N,N,N,N,N,N,N,N,N,N,N,N,N,29.0,0.0,0.0,198901.0,AMERICAN FRIENDS OF THE MUSEUM OF THE MIKVEH INC,BROOKLYN,NY,11219,1360 44TH ST,11219-2130,36807,0,0,0,0,0,0,3295,60066,-23259,0,0,0,0,0,0,0,0,1,0,0,0,0,0,56771,0,0,0,0,0,0,0,1,0,0,0,0,0,0,0,0,0,0,0,0,0,0,0,0,0,0,0,0,0,0,0,0,0,0,0,0,0,0,0,0,0,0,0,0,0,0,0,0,0,0,0,0,0,0,0,0,0,0,0,0,0,0,,0.0,3.0,1.0,1.0,4.0,1.0,11.0,0.0,1.0,12,,,36047.0,5602.0,5600.0,0.797653,1997,NY,11219,BROOKLYN,PF,S,ZA,A,IN,,A,A,AR,AR,AR,A11,,,,,,,A1150,A
4453,112942428,1997,199712,3,90,20630,20421,N,N,N,N,N,N,N,N,N,N,N,N,N,N,N,N,N,N,N,90.0,0.0,0.0,198903.0,PODVAL ARTS AND POETRY GALLERIES LTD,NEW YORK,NY,10122,225 W 34TH ST STE 1504,10122-1599,20630,0,0,0,0,0,0,0,3770,16860,0,0,0,0,0,0,0,0,20421,0,0,0,0,0,3770,0,0,0,0,220,0,0,20421,0,20421,0,0,0,0,0,0,0,0,0,0,0,0,0,0,0,0,0,0,0,0,0,0,0,0,0,0,0,0,0,0,0,0,0,0,0,0,0,0,0,0,0,0,0,0,0,0,0,0,0,0,0,0,V MOLOT ESQ,0.0,3.0,1.0,1.0,4.0,1.0,13.0,0.0,1.0,12,,,36061.0,5602.0,5600.0,0.44843,1997,NY,10122,NEW YORK,PF,O,AR,A,IN,,A,A,AR,AR,AR,A70,,,,,,,A70,A
4457,112945662,1997,199712,3,90,0,1,N,N,N,N,N,N,N,N,N,N,N,N,N,N,N,N,N,N,N,90.0,0.0,0.0,198901.0,SHOSTAKOVICH CULTURAL PROGRAM INC,BAYSIDE,NY,11361,33 16 214TH ST,11361-1624,0,0,0,0,0,0,0,0,109,-109,0,0,0,0,0,0,0,0,0,0,0,0,0,0,109,0,0,0,0,0,0,0,0,0,1,0,0,0,0,0,0,0,0,0,0,0,0,0,0,0,0,0,0,0,0,0,0,0,0,0,0,0,0,0,0,0,0,0,0,0,0,0,0,0,0,0,0,0,0,0,0,0,0,0,0,0,0,,0.0,3.0,1.0,1.0,4.0,1.0,11.0,0.0,1.0,12,,,36081.0,5602.0,5600.0,0.099138,1997,NY,11361,BAYSIDE,PF,O,AR,A,IN,,A,A,AR,AR,AR,A20,,,,,,,A20,A
4459,112948645,1997,199706,3,602,152701,208297,N,N,N,N,N,N,N,N,N,N,N,N,N,N,N,N,N,N,N,602.0,0.0,0.0,198909.0,WORLD JOURNAL CULTURE FOUNDATION INC,FLUSHING,NY,11357,141 07 20TH AVE 6 FLR,11357-3097,0,1676,0,0,0,0,0,5966,137919,14782,46694,61476,152701,0,0,0,0,24182,208330,0,7987,151025,152701,152701,131953,91225,40728,91225,0,29668,0,0,208330,24182,184115,1230,0,0,0,0,0,0,29,0,162200,6800,0,0,0,0,0,0,0,0,0,0,0,0,0,0,0,0,0,0,0,0,0,0,0,0,0,0,0,0,0,0,0,0,0,0,0,0,0,0,0,0,1230,,0.0,3.0,1.0,1.0,4.0,1.0,11.0,0.0,1.0,6,,,36081.0,5602.0,5600.0,0.451251,1996,NY,11357,FLUSHING,PF,O,AR,A,IN,,A,A,AR,AR,AR,A33,,,,,,,A33,A
4465,112964287,1996,199612,3,120,0,1,N,N,N,Y,N,N,N,N,N,N,N,N,N,N,N,N,N,N,N,120.0,0.0,0.0,199104.0,INTERNATIONAL COMMENTARY SERVICE INC,BROOKLYN,NY,11201,195 ADAMS ST - STE 6H,11201-1808,0,0,0,0,0,0,0,0,3379,-3379,0,0,0,0,0,0,0,0,1,0,0,0,0,0,3379,0,0,0,3379,0,0,0,0,0,1,0,0,0,0,0,0,0,0,0,0,0,0,0,0,0,0,0,0,0,0,0,0,0,0,0,0,0,0,0,0,0,0,0,0,0,0,0,0,0,0,0,0,0,0,0,0,0,0,0,0,0,0,% GUPTE,0.0,3.0,1000.0,1.0,4.0,1.0,11.0,0.0,1.0,12,,,36047.0,5602.0,5600.0,0.735135,1996,NY,11201,BROOKLYN,PF,O,AR,A,IN,,A,A,AR,AR,AR,A32,,,,,,,A32,A
4489,112994852,1995,199512,3,602,0,0,N,N,N,N,N,N,N,N,N,N,N,N,N,N,N,N,N,N,N,602.0,0.0,0.0,199106.0,JUDAICA FOUNDATION FOR RESEARCH & PUBLICATION INC,NEW YORK,NY,10038,132 NASSAU ST 812,10038-2400,0,0,0,0,0,0,0,0,0,0,0,0,0,0,0,0,0,0,0,0,0,0,0,0,0,0,0,0,0,0,0,0,0,0,0,0,0,0,15,0,0,0,0,15,0,0,0,0,0,0,0,0,0,0,0,0,0,0,0,0,0,0,0,0,0,0,0,0,0,0,0,0,0,0,0,0,0,0,0,0,0,0,0,0,0,0,0,% HAVAZELET,0.0,3.0,1000.0,1.0,4.0,1.0,13.0,0.0,1.0,12,,,36061.0,5602.0,5600.0,0.683014,1995,NY,10038,NEW YORK,PF,O,AR,A,IN,,A,A,AR,AR,AR,A33,,,,,,,A33,A
4491,112995688,1997,199710,3,90,1250,1,N,N,N,N,Y,N,N,N,N,N,N,N,N,N,N,N,Y,N,N,90.0,0.0,0.0,199003.0,MERANOFEST INC,FOREST HILLS,NY,11375,69 11 YELLOWSTON BLVD,11375-3761,1250,0,0,0,0,0,0,1250,1250,0,1250,0,0,0,0,0,0,4439,0,0,0,0,0,0,0,0,0,0,0,1,0,0,1,0,-4438,0,0,0,0,0,0,0,0,0,0,0,1,0,0,0,1,1250,0,16817,18643,36710,1,1,86,13003,13091,1,1,86,13003,13091,0,0,0,0,0,0,0,0,0,0,0,0,0,0,0,0,0,0,0,0,0,,0.0,3.0,2.0,1.0,3.0,1.0,11.0,0.0,1.0,10,,,36081.0,5602.0,5600.0,0.125556,1996,NY,11375,FOREST HILLS,PF,O,AR,A,IN,,A,A,AR,AR,AR,A68,,,,,,,A68,A
4504,113005761,1996,199612,3,994,0,1,N,N,N,N,N,N,N,N,N,N,N,N,N,N,N,N,N,N,N,994.0,0.0,0.0,199005.0,POSITIVE MEDIA FOR YOUTH INC,NEW YORK,NY,10272,PO BOX 1063 PECK SLIP STATION,10272-1063,0,0,0,0,0,0,0,0,0,0,0,0,0,0,0,0,0,0,1,0,0,0,0,0,0,0,0,0,0,0,0,0,0,0,1,0,0,0,0,0,0,0,0,0,0,0,0,0,0,0,0,0,0,0,0,0,0,0,0,0,0,0,0,0,0,0,0,0,0,0,0,0,0,0,0,0,0,0,0,0,0,0,0,0,0,0,0,% CHARLES G THOMAS,0.0,3.0,1.0,1.0,15.0,1.0,13.0,200012.0,20.0,12,,,36061.0,5602.0,5600.0,0.955134,1996,NY,10272,NEW YORK,PC,O,AR,A,IN,,A,A,AR,AR,AR,A30,,,,,,,A30,A
4517,113028110,1997,199712,3,429,59462,1,N,N,N,N,N,N,N,N,N,N,N,N,N,N,N,N,N,N,N,429.0,120.0,408.0,199203.0,LAC HONG MAGAZINE,BROOKLYN,NY,11225,81 OCEAN AVE RM 3G,11225-3601,0,0,0,0,0,59462,0,4206,48250,11212,0,0,0,0,0,0,0,0,1,0,0,0,0,0,0,0,0,0,0,0,0,0,1,0,1,0,0,0,0,0,0,0,0,0,0,0,0,0,0,0,0,0,0,0,0,0,0,0,0,0,0,0,0,0,0,0,0,0,0,0,0,0,0,0,0,0,0,0,0,0,0,0,0,0,0,0,0,% DIEN THOAI,0.0,3.0,2.0,1.0,4.0,1.0,11.0,0.0,1.0,12,,,36047.0,5602.0,5600.0,0.959614,1997,NY,11225,BROOKLYN,PF,O,AR,A,IN,,A,A,AR,AR,AR,A33,,,,,,,A33,A
4526,113038143,1997,199711,3,200,87389,502681,N,N,N,N,N,N,N,N,N,N,N,N,N,N,N,N,N,N,N,200.0,0.0,0.0,199104.0,NOSSEN FOUNDATION INC C/O ISRAEL PRESS,BROOKLYN,NY,11230,1280 OCEAN PKY,11230-5102,29984,0,41599,15806,0,0,0,66500,68492,18897,66687,56405,0,0,198904,269511,468415,0,571157,0,27138,0,57405,0,1992,1000,187,1000,0,34266,0,0,571157,0,502681,1128,0,0,0,0,0,0,0,0,551000,26000,0,0,0,0,0,0,0,0,0,0,0,0,0,0,0,0,0,0,0,0,0,0,0,0,0,0,0,0,0,0,0,0,0,0,0,0,0,0,0,0,1128,,0.0,3.0,1.0,1.0,4.0,1.0,11.0,0.0,1.0,11,,,36047.0,5602.0,5600.0,0.8280489999999999,1996,NY,11230,BROOKLYN,PF,O,AR,A,IN,,A,A,AR,AR,AR,A33,,,,,,,A33,A
4558,113081355,1997,199712,3,91,0,0,N,N,N,N,N,N,N,N,N,N,N,N,N,N,N,N,N,N,N,91.0,92.0,0.0,199209.0,DAN FLAVIN ART FOUNDATION INC,NEW YORK,NY,10017,237 PARK AVE 21ST FL,10017-3140,0,0,0,0,0,0,0,0,0,0,0,0,0,0,0,0,0,0,0,0,0,0,0,0,0,0,0,0,0,0,0,0,0,0,0,0,0,0,0,0,0,0,0,0,0,0,0,0,0,0,0,0,0,0,0,0,0,0,0,0,0,0,0,0,0,0,0,0,0,0,0,0,0,0,0,0,0,0,0,0,0,0,0,0,0,0,0,% THOMAS J KOVARCIK,0.0,3.0,1.0,1.0,4.0,1.0,13.0,0.0,1.0,12,,,36061.0,5602.0,5600.0,0.249401,1997,NY,10017,NEW YORK,PF,S,ZB,A,IN,,A,A,AR,AR,AR,A12,,,,,,,A12,A
4578,113121207,1997,199702,3,122,0,1,N,N,N,N,N,N,N,N,N,N,N,N,N,N,N,N,N,N,N,122.0,0.0,0.0,199402.0,B KING PRODUCTIONS INC,NEW YORK,NY,10022,350 PARK AVE,10022-6022,0,0,0,0,0,0,0,0,0,0,0,0,0,0,0,0,0,0,1,0,0,0,0,0,0,0,0,0,0,0,0,0,1,0,0,0,0,0,0,0,0,0,0,0,0,0,0,0,0,0,0,0,0,0,0,0,0,0,0,0,0,0,0,0,0,0,0,0,0,0,0,0,0,0,0,0,0,0,0,0,0,0,0,0,0,0,0,% STARR & CO,0.0,3.0,1.0,1.0,4.0,1.0,13.0,0.0,1.0,2,,,36061.0,5602.0,5600.0,0.88895,1996,NY,10022,NEW YORK,PF,O,AR,A,IN,,A,A,AR,AR,AR,A60,,,,,,,A60,A
4694,113227149,1997,199706,3,91,46645,6976,N,N,N,N,Y,N,N,N,N,N,N,N,N,N,N,N,N,N,N,91.0,149.0,59.0,199612.0,CLAYWORKS ON COLUMBIA INC,BROOKLYN,NY,11231,195 COLUMBIA STREET,11231-0000,732,0,0,0,0,45912,0,100,48425,-1780,48425,0,0,0,0,0,0,4569,6977,0,0,0,0,0,48325,0,48325,0,0,5554,0,0,6977,0,2408,0,0,0,0,0,0,0,0,0,3300,0,0,0,0,0,0,48425,43876,35089,0,127390,0,0,0,0,0,0,0,0,0,0,0,0,0,0,0,0,0,0,0,0,46645,46714,32099,0,125458,0,0,0,0,0,0,,0.0,3.0,3.0,1.0,4.0,1.0,11.0,0.0,1.0,6,,,36047.0,5602.0,5600.0,0.209471,1996,NY,11231,BROOKLYN,PF,O,AR,A,IN,,A,A,AR,AR,AR,A40,,,,,,,A40,A
5043,116036776,1998,199803,3,60,48371,555936,N,N,N,N,Y,N,N,N,N,N,N,N,N,N,N,N,N,N,N,60.0,91.0,0.0,196311.0,ANONYMOUS ARTS RECOVERY SOCIETY INCORPORATED,NEW YORK,NY,10012,380 W BROADWAY,10012-5115,48371,0,0,0,0,0,0,0,17457,30914,10427,0,0,0,0,0,0,6558,554421,0,985,0,0,0,0,0,0,0,0,23545,0,0,554421,0,549378,0,0,0,0,0,0,0,0,0,20000,0,985,1103,1113,1063,4264,34973,20368,27936,26359,109636,0,0,0,0,0,0,0,0,0,0,656,735,742,709,2842,0,0,0,0,0,0,0,0,0,0,0,0,0,0,0,0,,0.0,3.0,1.0,1.0,3.0,1.0,13.0,0.0,1.0,3,,,36061.0,5602.0,5600.0,0.107438,1997,NY,10012,NEW YORK,PF,O,AR,A,IN,,A,A,AR,AR,AR,A03,,,,,,,A03,A
5141,116101563,1997,199706,3,119,500,141,N,N,N,N,N,N,N,N,N,N,N,N,N,N,N,N,N,N,N,119.0,59.0,0.0,196805.0,FOUNDATION FOR CLASSIC THEATRE & ACADEMY INC,NEW YORK,NY,10022,515 MADISON AVE STE 725,10022-5403,500,0,0,0,0,0,0,0,770,-270,0,0,0,0,0,0,0,0,141,14,14,0,0,0,770,0,0,0,0,141,0,0,141,0,141,0,0,0,0,0,0,0,0,0,300,0,0,0,0,0,0,0,0,0,0,0,0,0,0,0,0,0,0,0,0,0,0,0,0,0,0,0,0,0,0,0,0,0,0,0,0,0,0,0,0,0,0,% N J STATHIS,0.0,3.0,2.0,1.0,4.0,1.0,13.0,0.0,1.0,6,,,36061.0,5602.0,5600.0,0.0424768,1996,NY,10022,NEW YORK,PF,O,AR,A,IN,,A,A,AR,AR,AR,A6E,,,,,,,A6E,A
5236,130429640,1997,199712,3,65,4655244,35093368,Y,N,N,N,Y,N,N,N,N,N,N,N,N,N,N,N,N,N,N,65.0,207.0,60.0,193503.0,AMERICAN ACADEMY OF ARTS AND LETTERS,NEW YORK,NY,10032,633 W 155TH ST,10032-7501,309814,0,1752017,2132828,0,460585,115000,746725,2386238,2269006,2249575,4165701,2032873,34811034,0,0,34811034,0,40862349,0,1672061,0,4302364,2169536,1639513,136663,1502850,136663,136663,276984,0,0,40862349,0,35093368,0,0,0,0,0,0,0,0,0,33950500,0,1672061,1585970,1511187,1445795,6215013,2249575,2088520,2262491,1839518,8440104,0,0,0,0,0,1114712,1057303,1007508,963862,4143385,0,0,0,0,0,0,0,0,0,0,0,0,0,0,0,0,0,0,0,0,0,,0.0,3.0,2.0,1.0,2.0,1.0,13.0,0.0,1.0,12,,,36061.0,5602.0,5600.0,0.756175,1997,NY,10032,NEW YORK,PF,O,AR,A,IN,,A,A,AR,AR,AR,A25,,,,,,,A25,A
5249,131624012,1997,199712,3,119,50520300,213744622,N,N,N,N,Y,N,N,N,N,N,N,N,N,N,N,N,N,N,N,119.0,59.0,60.0,193910.0,FRICK COLLECTION,NEW YORK,NY,10021,1 E 70TH ST,10021-4907,1575273,57064,6558871,39911165,574420,1843507,671710,0,11873037,38647263,10133189,45483126,14538853,3200508,123777544,45240907,172218959,7289974,213744622,0,9386815,0,46640210,15695937,11873037,1157084,10133189,1157084,1157084,0,15931732,0,213744622,0,206454648,909663,0,0,908793,0,0,0,0,0,190595200,0,9386815,8255729,7187445,6815883,31645872,10133189,9245337,8491024,7711824,35581374,0,0,0,0,0,0,0,0,0,0,6257743,5503819,4791630,4543922,21097114,0,0,0,0,0,0,0,0,0,0,0,0,0,0,0,909663,,0.0,3.0,1.0,1.0,3.0,3.0,13.0,200312.0,1.0,12,,,36061.0,5602.0,5600.0,0.687466,1997,NY,10021,NEW YORK,PF,O,AR,A,IN,,A,A,AR,AR,AR,A51,,,,,,,A51,A
5267,131656673,1997,199709,3,119,508266,1120609,N,N,N,N,Y,N,N,N,N,N,N,N,N,N,N,N,N,N,N,119.0,59.0,40.0,193901.0,NATIONAL SCULPTURE SOCIETY,NEW YORK,NY,10036,1177 AVE OF THE AMERICAS 15TH FLR,10036-0000,163414,16594,27301,119864,13080,168013,8787,31246,427461,80805,335448,91515,152744,210511,634393,0,844904,111855,1966699,0,89785,0,163759,224988,396215,72244,304202,72244,72244,12949,0,0,1966699,0,1008754,1830,0,0,394,0,1506,0,26,44,1823000,0,89785,80696,74099,76039,320619,335448,366308,341012,378622,1421390,0,0,0,0,0,0,0,0,0,0,59857,53800,49399,50693,213749,0,0,0,0,0,0,0,0,0,0,0,0,0,0,0,1830,,0.0,3.0,2.0,1.0,3.0,1.0,13.0,0.0,1.0,9,,,36061.0,5602.0,5600.0,0.604301,1996,NY,10036,NEW YORK,PF,O,AR,A,IN,,A,A,AR,AR,AR,A40,,,,,,,A40,A
5292,131790739,1998,199804,3,561,635208,2810410,N,N,N,N,N,N,N,N,Y,N,N,N,N,N,N,N,N,N,N,561.0,0.0,0.0,195305.0,MUSICIANS FOUNDATION INC,NEW YORK,NY,10001,875 6TH AVE STE 2303,10001-3507,284993,8538,85502,256175,0,0,25500,80237,169483,465725,118875,305010,0,454515,1318513,642204,2415232,0,2810410,0,121415,0,350215,0,89246,45205,38638,45205,0,8913,288489,0,2810410,0,2810410,6100,0,0,4240,0,0,0,11,0,2465300,115300,0,0,0,0,0,0,0,0,0,0,0,0,0,0,0,0,0,0,0,0,0,0,0,0,0,0,0,0,0,0,0,0,0,0,0,0,0,0,0,0,6100,,0.0,3.0,1.0,1.0,4.0,1.0,13.0,0.0,1.0,4,,,36061.0,5602.0,5600.0,0.969405,1997,NY,10001,NEW YORK,PF,O,AR,A,IN,,A,A,AR,AR,AR,A68,,,,,,,A68,A
5311,131873289,1997,199712,3,119,195193,1472327,N,N,N,N,N,N,N,N,N,N,N,N,N,N,N,N,Y,N,N,119.0,0.0,0.0,194211.0,BAGBY FOUNDATION FOR THE MUSICAL ARTS INC,NEW YORK,NY,10017,501 FIFTH AVE,10017-6103,12925,148,58022,124096,0,0,0,36305,100258,94935,80796,162871,0,531583,728237,200690,1460510,418,2095587,0,96400,0,182268,0,63953,19396,44491,19396,0,0,0,0,2095587,0,1471908,3257,0,0,2000,0,1000,0,0,0,1957400,93100,0,0,0,0,0,0,0,0,0,0,0,0,0,0,0,0,0,0,0,0,0,0,0,0,0,0,0,0,0,0,0,0,0,0,0,0,0,0,0,0,3257,,0.0,3.0,1.0,1.0,4.0,1.0,13.0,0.0,1.0,12,,,36061.0,5602.0,5600.0,0.59782,1997,NY,10017,NEW YORK,PF,O,AR,A,IN,,A,A,AR,AR,AR,A68,,,,,,,A68,A
5323,131926551,1997,199712,3,119,1589781,23028541,N,Y,N,N,N,N,N,N,Y,N,N,N,N,N,N,N,N,N,N,119.0,0.0,0.0,197903.0,HARKNESS FOUNDATION FOR DANCE INC,NEW YORK,NY,10017,145 E 48TH ST SUITE 26C,10017-1259,0,958,729973,855779,0,3071,205340,1302250,1890663,-300882,1604354,1325833,0,5103050,14248080,277906,19629036,61637,23028541,0,1071876,0,1589781,0,588413,263948,302104,263948,0,0,0,2836261,23028541,0,22966904,13258,0,0,13295,0,4000,0,0,4037,21764000,1058600,0,0,0,0,0,0,0,0,0,0,0,0,0,0,0,0,0,0,0,0,0,0,0,0,0,0,0,0,0,0,0,0,0,0,0,0,0,0,0,0,13258,,0.0,3.0,1.0,1.0,4.0,1.0,13.0,0.0,1.0,12,,,36061.0,5602.0,5600.0,0.126646,1997,NY,10017,NEW YORK,PF,O,AR,A,IN,,A,A,AR,AR,AR,A62,,,,,,,A62,A
5330,131947036,1997,199704,3,119,77937,6940,N,Y,N,N,Y,N,Y,N,N,N,N,N,N,N,N,N,N,N,N,119.0,59.0,0.0,196311.0,AMOR ARTIS INC,NEW YORK,NY,10028,GRACIE STATION PO BOX U,10028-0040,26850,1,48,0,0,51038,0,0,75834,2103,24746,48,0,0,2581,0,2581,12505,6940,0,209,0,49,51087,75834,1,24746,1,51087,3104,0,0,6940,0,-5565,0,0,0,0,0,1,0,0,1,4200,0,209,256,48,34,547,24746,17519,26197,25432,93894,0,0,0,0,0,0,0,0,0,0,139,171,186,241,737,0,0,0,0,0,0,0,0,0,0,0,0,0,0,0,0,% DIANE HORAN,0.0,3.0,1.0,1.0,3.0,1.0,13.0,0.0,1.0,4,,,36061.0,5602.0,5600.0,0.70186,1996,NY,10028,NEW YORK,PF,O,AR,A,IN,,A,A,AR,AR,AR,A99,,,,,,,A99,A
5400,132621140,1997,199712,3,161,18776,269574,N,N,N,N,N,N,N,N,N,N,N,N,N,N,N,N,N,N,N,161.0,180.0,602.0,196812.0,VIOLA W BERNARD FOUNDATION INC,NEW YORK,NY,10019,787 SEVEN 4TH FLR,10019-6018,0,16688,2088,0,0,0,0,13600,15518,3258,13841,17099,17099,0,0,0,0,0,269574,0,13366,0,18776,18776,1918,1677,241,1677,1677,16185,222500,0,269574,0,269574,342,0,0,708,0,0,0,0,366,271400,13000,0,0,0,0,0,0,0,0,0,0,0,0,0,0,0,0,0,0,0,0,0,0,0,0,0,0,0,0,0,0,0,0,0,0,0,0,0,0,0,0,342,% HARRY GOODKIN & CO,0.0,3.0,1.0,1.0,4.0,1.0,13.0,0.0,1.0,12,,,36061.0,5602.0,5600.0,0.56922,1997,NY,10019,NEW YORK,PF,O,AR,A,IN,,A,A,AR,AR,AR,A68,,,,,,,A68,A
5456,132760185,1997,199706,3,8,82961,205215,N,N,N,N,N,N,N,N,Y,N,N,N,N,N,N,N,N,N,N,8.0,0.0,0.0,197404.0,EAKINS PRESS FOUNDATION,NEW YORK,NY,10023,15 W 67TH ST,10023-6226,60000,0,0,0,22961,0,0,0,92329,-9368,0,0,0,0,0,0,0,1072,205215,0,10040,0,0,0,92329,0,0,0,92329,13536,0,0,205215,0,204143,0,0,0,0,0,0,0,0,0,203900,10000,0,0,0,0,0,0,0,0,0,0,0,0,0,0,0,0,0,0,0,0,0,0,0,0,0,0,0,0,0,0,0,0,0,0,0,0,0,0,0,0,0,%LESLIE KATZ,0.0,3.0,1.0,1.0,4.0,1.0,13.0,0.0,1.0,6,,,36061.0,5602.0,5600.0,0.576869,1996,NY,10023,NEW YORK,PF,O,AR,A,IN,,A,A,AR,AR,AR,A33,,,,,,,A33,A
5485,132874843,1997,199712,3,995,17118,6609,N,N,N,N,N,N,N,Y,Y,N,N,N,N,N,N,N,N,N,N,995.0,119.0,0.0,197701.0,LAURA PAWEL DANCE COMPANY INC,NEW YORK,NY,10023,15 W 72ND ST,10023-3402,16650,0,0,0,0,468,0,0,16582,536,16582,0,0,0,0,0,0,0,6609,0,242,0,0,0,16582,0,16582,0,0,6609,0,0,6609,0,6609,0,0,0,0,0,0,0,0,0,4900,0,0,0,0,0,0,0,0,0,0,0,0,0,0,0,0,0,0,0,0,0,0,0,0,0,0,0,0,0,0,0,0,0,0,0,0,0,0,0,0,0,0,,0.0,3.0,2.0,1.0,4.0,1.0,13.0,0.0,1.0,12,,,36061.0,5602.0,5600.0,0.73228,1997,NY,10023,NEW YORK,PF,O,AR,A,IN,,A,A,AR,AR,AR,A62,,,,,,,A62,A
5507,132893085,1997,199709,3,92,2427,21481,N,N,N,N,N,N,N,N,N,N,N,N,N,N,N,N,N,N,N,92.0,0.0,0.0,197710.0,NEW YORK DRAMA CRITIC CIRCLE INC,NEW YORK,NY,10022,845 THIRD AVE,10022-6601,0,0,1694,0,0,1173,0,1000,1909,518,1559,1694,0,0,0,0,0,0,21481,0,1053,0,1694,0,909,0,559,0,0,400,0,0,21481,21481,21481,34,0,0,0,0,0,0,0,0,21400,1000,0,0,0,0,0,0,0,0,0,0,0,0,0,0,0,0,0,0,0,0,0,0,0,0,0,0,0,0,0,0,0,0,0,0,0,0,0,0,0,0,34,% ROSENZWEIG & CO,0.0,3.0,2.0,1.0,4.0,1.0,13.0,0.0,1.0,9,,,36061.0,5602.0,5600.0,0.34074499999999996,1996,NY,10022,NEW YORK,PF,O,AR,A,IN,,A,A,AR,AR,AR,A65,,,,,,,A65,A
5512,132896424,1997,199710,3,122,74927,46715,N,N,N,N,N,N,N,N,N,N,N,N,N,N,N,N,N,N,N,122.0,0.0,0.0,197710.0,LIVING ARCHIVES INC,NEW YORK,NY,10024,262 W 91,10024-1125,72977,1950,0,0,0,0,0,77240,94716,-19789,94716,0,0,0,0,0,0,10031,46715,0,250,0,0,0,17476,0,0,0,0,0,0,0,46715,3420,36683,0,0,0,0,0,0,0,0,0,35000,300,0,0,0,0,0,0,0,0,0,0,0,0,0,0,0,0,0,0,0,0,0,0,0,0,0,0,0,0,0,0,0,0,0,0,0,0,0,0,0,0,0,,0.0,3.0,2.0,1.0,4.0,1.0,13.0,0.0,1.0,10,,,36061.0,5602.0,5600.0,0.24538400000000002,1996,NY,10024,NEW YORK,PF,O,AR,A,IN,,A,A,AR,AR,AR,A31,,,,,,,A31,A
5517,132898805,1997,199706,3,119,647814,1007195,N,N,N,N,Y,N,N,N,N,N,N,N,N,N,N,N,N,N,N,119.0,123.0,429.0,197707.0,PUBLIC ART FUND INC,NEW YORK,NY,10022,1 E 53RD ST,10022-4200,437020,2019,40733,0,0,168042,0,0,645827,1987,415114,22833,0,120440,0,0,120440,33630,1007195,0,40726,0,42752,210794,645827,19919,415114,19919,210794,33199,0,722899,1007195,0,973565,457,0,0,0,0,0,0,0,0,826900,0,0,0,41896,44367,86263,415114,353947,687316,544334,2000711,1007195,933372,1042925,1046711,4030203,0,0,0,0,0,27151,26778,27931,29578,111438,0,0,0,0,0,0,0,0,0,0,0,0,0,0,0,457,,0.0,3.0,2.0,1.0,3.0,5.0,13.0,0.0,1.0,6,,,36061.0,5602.0,5600.0,0.140009,1996,NY,10022,NEW YORK,PF,O,AR,A,IN,,A,A,AR,AR,AR,A20,,,,,,,A1240,A
5580,132958531,1997,199711,3,995,0,1,N,N,N,N,N,N,N,N,N,N,N,N,N,N,N,N,N,N,N,995.0,90.0,0.0,197810.0,CHAMBER PLAYERS LIMITED,NEW YORK,NY,10108,PO BOX 346 TIMES SQ STA,10108-0346,0,0,0,0,0,0,0,0,0,0,0,0,0,0,0,0,0,0,1,0,0,0,0,0,0,0,0,0,0,0,0,0,1,0,1,0,0,0,0,0,0,0,0,0,0,0,0,0,0,0,0,0,0,0,0,0,0,0,0,0,0,0,0,0,0,0,0,0,0,0,0,0,0,0,0,0,0,0,0,0,0,0,0,0,0,0,0,% CHRIS EREDE,0.0,3.0,1.0,1.0,4.0,1.0,13.0,198311.0,1.0,11,,,36061.0,5602.0,5600.0,0.329491,1996,NY,10108,NEW YORK,PF,O,AR,A,IN,,A,A,AR,AR,AR,A65,,,,,,,A65,A
5616,132982575,1997,199712,3,91,152,13024,N,N,N,N,N,N,N,N,N,N,N,N,N,N,N,N,N,N,N,91.0,0.0,0.0,198207.0,ROBERT C SCULL FOUNDATION FOR THE ARTS INC,NEW YORK,NY,10029,2065 FIRST AVE APT 6C,10029-4316,0,152,0,0,0,0,0,0,894,-742,894,152,0,0,0,0,0,0,13024,0,641,0,152,152,894,0,894,0,894,13024,0,0,13024,0,13024,0,0,0,0,0,0,0,0,0,13000,600,0,0,0,0,0,0,0,0,0,0,0,0,0,0,0,0,0,0,0,0,0,0,0,0,0,0,0,0,0,0,0,0,0,0,0,0,0,0,0,0,0,,0.0,3.0,1000.0,1.0,4.0,1.0,13.0,0.0,1.0,12,,,36061.0,5602.0,5600.0,0.190676,1997,NY,10029,NEW YORK,PF,S,ZB,A,IN,,A,A,AR,AR,AR,A12,,,,,,,A12,A
5643,133002233,1997,199706,3,60,2231,294753,N,N,N,N,N,N,N,N,N,N,N,N,N,N,N,N,N,N,N,60.0,0.0,0.0,197911.0,STEDAWILL ART FOUNDATION INC,NEW YORK,NY,10118,350 FIFTH AVE STE 2822,10118-2899,0,0,2231,0,0,0,0,1635,2053,178,1635,2231,2231,0,0,0,0,10000,211313,0,1427,0,2231,2231,418,0,0,0,0,0,0,0,211313,0,284753,45,0,0,0,0,50,0,0,5,29000,1400,0,0,0,0,0,0,0,0,0,0,0,0,0,0,0,0,0,0,0,0,0,0,0,0,0,0,0,0,0,0,0,0,0,0,0,0,0,0,0,0,45,% L WOLLIN,0.0,3.0,1.0,1.0,4.0,1.0,13.0,0.0,1.0,6,,,36061.0,5602.0,5600.0,0.6084689999999999,1996,NY,10118,NEW YORK,PF,S,ZB,A,IN,,A,A,AR,AR,AR,A12,,,,,,,A12,A
5657,133009550,1995,199512,3,90,0,0,N,N,N,Y,Y,N,N,N,N,N,N,N,N,N,N,N,N,N,N,90.0,119.0,0.0,198002.0,INTERNATIONAL MEDIA STUDIES FOUNDATION INC,NEW YORK,NY,10168,122 E 42ND ST 3206,10168-0002,0,0,0,0,0,0,0,0,447,-447,447,0,0,0,0,0,0,0,0,0,0,0,0,0,447,0,447,0,0,0,0,0,0,0,0,0,0,0,0,0,0,0,0,0,0,0,0,16,11,13,40,447,470,1465,660,3042,0,0,0,0,0,0,0,0,0,0,0,15,17,20,52,0,0,0,0,0,0,0,0,0,0,0,0,0,0,0,0,% WILLIAM B OBOYLE,0.0,3.0,2000.0,1.0,3.0,1.0,13.0,0.0,1.0,12,,,36061.0,5602.0,5600.0,0.813462,1995,NY,10168,NEW YORK,PF,O,AR,A,IN,,A,A,AR,AR,AR,A30,,,,,,,A30,A
5694,133031485,1998,199801,3,119,5987,129628,N,N,N,N,N,N,Y,N,N,N,N,Y,N,N,N,N,N,N,N,119.0,0.0,0.0,197911.0,BARISHNIKOV DANCE FOUNDATION INC,NEW YORK,NY,10019,156 W 56TH ST,10019-3800,4235,139,1613,0,0,0,0,3000,3331,2656,3000,1752,1421,0,0,0,0,105006,129628,0,6319,0,1752,1752,331,0,0,0,331,0,0,0,129628,0,24622,18,0,0,0,0,50,0,0,32,128300,0,0,0,0,0,0,0,0,0,0,0,0,0,0,0,0,0,0,0,0,0,0,0,0,0,0,0,0,0,0,0,0,0,0,0,0,0,0,0,0,0,18,% PADELL NADELL FINE & WEINBERGER,0.0,3.0,1.0,1.0,4.0,1.0,13.0,0.0,1.0,1,,,36061.0,5602.0,5600.0,0.233473,1997,NY,10019,NEW YORK,PF,O,AR,A,IN,,A,A,AR,AR,AR,A62,,,,,,,A62,A
5717,133042386,1997,199712,3,119,2110,47417,N,N,N,N,N,N,N,N,N,N,N,N,N,N,N,N,N,N,N,119.0,93.0,0.0,198011.0,THE FOUNDATION FOR THE NATIONAL PERFORMING ARTS CENTRE OF INDIAINC,NEW YORK,NY,10178,101 PARK AVE 28TH FLOOR,10178-0002,0,2110,0,0,0,0,0,0,85,2025,0,2025,0,0,0,0,0,0,47417,2244,2285,0,2110,0,85,85,0,85,0,47417,0,0,47417,0,47417,41,0,0,0,0,41,0,0,0,46400,2200,0,0,0,0,0,0,0,0,0,0,0,0,0,0,0,0,0,0,0,0,0,0,0,0,0,0,0,0,0,0,0,0,0,0,0,0,0,0,0,0,41,% TATA INCORPORATED,0.0,3.0,1.0,1.0,4.0,1.0,13.0,0.0,1.0,12,,,36061.0,5602.0,5600.0,0.554454,1997,NY,10178,NEW YORK,PF,S,ZB,A,IN,,A,A,AR,AR,AR,A12,,,,,,,A1260,A
5722,133047538,1996,199612,3,402,108663,15432,N,N,N,N,N,N,N,N,N,N,N,N,N,N,N,N,N,N,N,402.0,994.0,400.0,198012.0,SEPHARDIC HERITAGE FOUNDATION INC,NEW YORK,NY,10120,112 W 34TH ST,10120-0101,108663,0,0,0,0,0,0,0,118919,-10256,118919,0,0,0,0,0,0,51000,15899,0,944,0,0,0,118919,0,0,0,0,467,0,0,15899,0,-35568,0,0,0,0,0,0,0,0,0,19200,900,0,0,0,0,0,0,0,0,0,0,0,0,0,0,0,0,0,0,0,0,0,0,0,0,0,0,0,0,0,0,0,0,0,0,0,0,0,0,0,0,0,% SAM CATTON,0.0,3.0,1.0,1.0,4.0,1.0,13.0,198212.0,1.0,12,,,36061.0,5602.0,5600.0,0.286463,1996,NY,10120,NEW YORK,PF,O,AR,A,IN,,A,A,AR,AR,AR,A82,,,,,,,A82,A
5788,133072403,1997,199702,3,90,0,441,N,N,N,N,N,N,N,N,N,N,N,N,N,N,N,N,N,N,N,90.0,909.0,0.0,198208.0,PLAYWRIGHTS FORUM INC,NEW YORK,NY,10023,111 W 67TH ST 30C,10023-5958,0,0,0,0,0,0,0,0,0,0,60,0,0,0,0,0,0,0,441,0,24,0,0,0,0,0,60,0,0,0,0,0,441,0,441,0,0,0,0,0,0,0,0,0,500,0,0,0,0,0,0,0,0,0,0,0,0,0,0,0,0,0,0,0,0,0,0,0,0,0,0,0,0,0,0,0,0,0,0,0,0,0,0,0,0,0,0,% TRAUM,0.0,3.0,2.0,1.0,4.0,1.0,13.0,0.0,1.0,2,,,36061.0,5602.0,5600.0,0.0110239,1996,NY,10023,NEW YORK,PF,O,AR,A,IN,,A,A,AR,AR,AR,A65,,,,,,,A65,A
5807,133082489,1997,199706,3,90,28,11503,N,N,N,N,N,N,N,N,N,N,N,N,N,N,N,N,N,N,N,90.0,995.0,0.0,198210.0,TONY RANDALL THEATRICAL FUND INC,NEW YORK,NY,10122,225 W 34TH ST,10122-0008,0,0,28,0,0,0,0,0,85,-57,85,28,0,0,0,0,0,0,11503,0,568,0,28,0,85,0,85,0,0,10877,0,0,11503,0,11503,1,0,0,0,0,0,0,0,0,11500,600,0,0,0,0,0,0,0,0,0,0,0,0,0,0,0,0,0,0,0,0,0,0,0,0,0,0,0,0,0,0,0,0,0,0,0,0,0,0,0,0,1,% A GOLDFINE CPA,0.0,3.0,2.0,1.0,4.0,1.0,13.0,198306.0,1.0,6,,,36061.0,5602.0,5600.0,0.47791999999999996,1996,NY,10122,NEW YORK,PF,O,AR,A,IN,,A,A,AR,AR,AR,A65,,,,,,,A65,A
5814,133085960,1997,199711,3,90,30000,3334,N,N,N,N,N,N,N,N,N,N,N,N,N,N,N,N,N,N,N,90.0,0.0,0.0,198109.0,FRIENDS OF YOUNG MUSICIANS INC,NEW YORK,NY,10022,515 MADISON AVE 15TH FLOOR,10022-5493,30000,0,0,0,0,0,0,0,27829,2171,0,0,0,0,0,0,0,0,3334,0,299,0,0,0,27829,0,0,0,0,3134,0,0,3334,0,3334,0,0,0,50,0,0,0,0,50,6100,0,0,0,0,0,0,0,0,0,0,0,0,0,0,0,0,0,0,0,0,0,0,0,0,0,0,0,0,0,0,0,0,0,0,0,0,0,0,0,0,0,0,,0.0,3.0,2.0,1.0,4.0,1.0,13.0,0.0,1.0,11,,,36061.0,5602.0,5600.0,0.242957,1996,NY,10022,NEW YORK,PF,S,ZA,A,IN,,A,A,AR,AR,AR,A11,,,,,,,A1168,A
5827,133093638,1997,199712,3,91,336435,4200961,N,Y,N,N,N,N,N,N,N,N,N,N,N,N,N,N,N,N,N,91.0,123.0,561.0,198311.0,MILTON AND SALLY AVERY ARTS FOUNDATION INC,NEW YORK,NY,10017,360 LEXINGTON AVE STE 22 FL,10017-6502,0,547,322952,12086,0,850,0,236200,258422,78013,236200,314213,302127,0,971830,2880943,3852773,0,4563326,0,217241,0,336435,324349,22222,22222,22222,22222,22222,40497,0,0,4563326,0,4200961,3142,0,0,7777,0,0,0,0,4635,4411000,214100,0,0,0,0,0,0,0,0,0,0,0,0,0,0,0,0,0,0,0,0,0,0,0,0,0,0,0,0,0,0,0,0,0,0,0,0,0,0,0,0,3142,% FINLEY KUMBLE ET AL,0.0,3.0,1.0,1.0,4.0,1.0,13.0,0.0,1.0,12,FELDMAN RADIN & CO PC,,36061.0,5602.0,5600.0,0.709172,1997,NY,10017,NEW YORK,PF,S,ZB,A,IN,,A,A,AR,AR,AR,A12,,,,,,,A1261,A
5907,133124565,1997,199712,3,119,62850,1483575,N,N,N,N,N,N,N,N,N,N,N,N,N,N,N,N,N,N,N,119.0,0.0,0.0,198206.0,AMERICAN FRIENDS OF THE CANADIAN CENTER FOR ARCHITECTURE INC,NEW YORK,NY,10022,430 PAR STE 10TH FL,10022-0000,62850,0,0,0,0,0,0,35300,35635,27215,35300,0,0,0,0,0,0,0,1483575,0,72395,0,0,0,335,0,0,0,0,28461,0,0,1483575,0,1483575,0,0,0,0,0,0,0,0,0,1469900,0,0,0,0,0,0,0,0,0,0,0,0,0,0,0,0,0,0,0,0,0,0,0,0,0,0,0,0,0,0,0,0,0,0,0,0,0,0,0,0,0,0,DAVIES WARD PHILLIPS&VINEBERG LLP,0.0,3.0,2.0,1.0,4.0,1.0,13.0,0.0,1.0,12,,,36061.0,5602.0,5600.0,0.909525,1997,NY,10022,NEW YORK,PF,S,ZA,A,IN,,A,A,AR,AR,AR,A11,,,,,,,A1140,A
5915,133127149,1997,199706,3,119,191682,104845,N,N,N,N,Y,N,N,Y,N,N,N,N,N,N,N,N,N,N,N,119.0,0.0,0.0,198310.0,MUSICAL THEATRE PROJECT INC,NEW YORK,NY,10122,225 W 34TH ST RM 1200,10122-1299,191682,0,0,0,0,0,0,27000,138175,53507,118137,0,0,0,0,0,0,0,104845,0,0,0,0,0,111175,0,91137,0,20038,6713,0,0,104845,0,104845,0,0,0,0,0,0,0,0,0,0,0,0,0,0,0,0,0,0,0,0,0,104845,50720,31306,1043,187914,104845,50720,31306,1043,187914,0,0,0,0,0,0,0,0,0,0,0,0,0,0,0,0,0,0,0,0,0,,0.0,3.0,1.0,1.0,4.0,1.0,13.0,0.0,1.0,6,,,36061.0,5602.0,5600.0,0.893175,1996,NY,10122,NEW YORK,PF,O,AR,A,IN,,A,A,AR,AR,AR,A65,,,,,,,A65,A
6017,133171936,1998,199805,3,90,61486,715874,N,N,N,N,Y,N,N,N,N,N,N,N,N,N,N,N,N,N,N,90.0,994.0,0.0,198310.0,HERRICK THEATRE FOUNDATION INC,NEW YORK,NY,10021,605 PARK AVE 7A,10021-7055,25000,3158,29156,0,0,4172,0,46645,62159,-673,57640,32314,32557,0,359898,0,359898,0,1048437,0,49050,0,32314,36486,14514,0,9995,0,3929,1139,0,125000,1048437,0,715874,646,0,0,1091,0,0,0,0,445,995900,0,32557,41740,40621,54324,169242,27673,35479,34528,46175,143855,1048437,943459,884120,1220852,4096868,1048437,943459,884120,1220852,4096868,0,0,0,0,0,0,0,0,0,0,0,0,0,0,0,0,0,0,0,0,646,% ROSENBERG NEUWIRTH & KUCHNER,0.0,3.0,2.0,1.0,3.0,1.0,13.0,198405.0,1.0,5,LUCKY VENTURE CO,,36061.0,5602.0,5600.0,0.370567,1997,NY,10021,NEW YORK,PF,O,AR,A,IN,,A,A,AR,AR,AR,A65,,,,,,,A65,A
6036,133182985,1997,199712,3,998,2,1,N,N,N,Y,N,N,N,N,N,N,N,Y,N,N,N,N,N,N,N,,,,,FRIENDS OF CHINESE DERMATOLOGY,NEW YORK,NY,10016,530 FIRST AVE 7J,10016-6402,0,2,0,0,0,0,0,157,157,-155,157,2,0,0,0,0,0,0,1,0,4,0,2,0,0,0,0,0,0,0,0,0,1,0,0,0,0,0,0,0,0,0,0,0,100,0,0,0,0,0,0,0,0,0,0,0,0,0,0,0,0,0,0,0,0,0,0,0,0,0,0,0,0,0,0,0,0,0,0,0,0,0,0,0,0,0,0,,0.0,3.0,,,0.0,,,,,12,,,36061.0,5602.0,5600.0,0.913811,1997,NY,10016,NEW YORK,PF,S,ZA,A,IN,,A,A,AR,AR,AR,A112,,,,,,,A1123,A
6078,133200329,1998,199801,3,602,4567796,39204684,N,N,N,N,N,N,N,N,N,N,N,N,N,N,N,N,N,N,N,602.0,0.0,0.0,198508.0,LIZ CLAIBORNE & ART ORTENBERG FOUNDATION,NEW YORK,NY,10006,29 BROADWAY ROOM 2900,10006-3201,775000,0,3215021,577775,0,0,65000,2223969,2695569,1872227,2306820,3785381,0,12771328,13316244,12728820,38816392,538532,41151019,0,1937326,0,3792796,0,471600,7415,44100,7415,0,0,0,250546,41151019,0,38666152,75708,0,0,35000,0,0,0,0,0,39336600,1861600,0,0,0,0,0,0,0,0,0,0,0,0,0,0,0,0,0,0,0,0,0,0,0,0,0,0,0,0,0,0,0,0,0,0,0,0,0,0,0,0,75708,% NATHAN BERKMAN & CO,0.0,3.0,1.0,1.0,4.0,2.0,13.0,0.0,1.0,1,,,36061.0,5602.0,5600.0,0.156699,1997,NY,10006,NEW YORK,PF,S,ZB,A,IN,,A,A,AR,AR,AR,A12,,,,,,,A12,A
6081,133201819,1997,199706,3,119,84419,927513,N,N,N,N,N,N,N,N,N,N,N,N,N,N,N,N,N,N,N,119.0,602.0,0.0,198406.0,PERSIAN HERITAGE FOUNDATION,NEW YORK,NY,10027,450 RIVERSIDE DRIVE,10027-6821,0,244,52290,0,0,31885,500,2900,7007,77412,5927,52534,0,0,0,0,0,185994,927513,0,35194,0,52534,0,4107,0,3027,0,0,0,0,897182,927513,0,741519,1051,0,0,0,0,0,0,0,0,899600,34100,0,0,0,0,0,0,0,0,0,0,0,0,0,0,0,0,0,0,0,0,0,0,0,0,0,0,0,0,0,0,0,0,0,0,0,0,0,0,0,0,1051,,0.0,3.0,1.0,1.0,4.0,1.0,13.0,0.0,1.0,6,,,36061.0,5602.0,5600.0,0.9341879999999999,1996,NY,10027,NEW YORK,PF,O,AR,A,IN,,A,A,AR,AR,AR,A23,,,,,,,A23,A
6102,133207388,1997,199708,3,123,96316,811911,N,N,N,N,Y,N,N,N,N,N,N,N,N,N,N,N,N,N,N,123.0,0.0,0.0,198408.0,ANTHROPOSOPHICAL SOCIETY IN AMERICA NEW YORK BRANCH INC,NEW YORK,NY,10011,138 W 15TH ST,10011-6702,40290,0,17383,921,9350,28372,0,0,92201,4115,79816,18304,0,0,8800,235363,244163,2742,812312,0,15363,0,18304,55268,92201,0,79816,0,92201,24365,0,77827,812312,0,809169,366,0,0,0,0,0,0,0,0,311900,0,0,0,0,0,0,79816,65804,63386,90239,299245,812312,0,0,0,812312,0,0,0,0,0,10242,0,0,0,10242,0,0,0,0,0,0,0,0,0,0,0,0,0,0,0,366,,0.0,3.0,2.0,1.0,15.0,1.0,11.0,0.0,10.0,8,,,36061.0,5602.0,5600.0,0.432519,1996,NY,10011,NEW YORK,PC,O,AR,A,IN,,A,A,AR,AR,AR,A70,,,,,,,X99,X
6109,133210017,1998,199806,3,160,0,1301,N,N,N,N,N,N,N,N,N,N,N,N,N,N,N,N,N,N,N,160.0,0.0,0.0,198501.0,PROGRAMMING PLANNING AND PLACEMENT ALTERNATIVES INC,BRONX,NY,10469,999 PELHAM PKY,10469-4905,0,0,0,0,0,0,0,0,60,-60,0,0,0,0,0,0,0,0,1301,0,0,0,0,0,60,0,0,0,0,1301,0,0,1301,0,1301,0,0,0,0,0,0,0,0,0,0,0,0,0,0,0,0,0,0,0,0,0,0,0,0,0,0,0,0,0,0,0,0,0,0,0,0,0,0,0,0,0,0,0,0,0,0,0,0,0,0,0,0,,0.0,3.0,1.0,1.0,4.0,1.0,13.0,0.0,1.0,6,,,36005.0,5602.0,5600.0,0.8684290000000001,1997,NY,10469,BRONX,PF,O,AR,A,IN,,A,A,AR,AR,AR,A61,,,,,,,A61,A
6131,133224878,1997,199712,3,123,26640,1732,N,N,N,N,Y,N,N,N,N,N,N,N,N,N,N,N,N,N,N,123.0,0.0,0.0,199112.0,CHILDRENS MUSIC WORKSHOP INC,NEW YORK,NY,10025,315 RIVERSIDE DRIVE SUITE 7C,10025-4100,24366,67,0,0,0,2207,0,0,31660,-5020,31660,67,0,0,0,0,0,0,1732,0,272,0,67,0,31660,0,31660,0,0,1146,0,0,1732,0,1732,0,0,0,150,0,0,0,0,150,5500,0,272,0,0,0,272,31660,0,0,0,31660,1732,0,0,0,1732,1732,0,0,0,1732,181,0,0,0,181,26573,0,0,0,26573,26573,0,0,0,26573,67,0,0,0,67,0,,0.0,3.0,1.0,1.0,3.0,1.0,13.0,0.0,1.0,12,,,36061.0,5602.0,5600.0,0.5829989999999999,1997,NY,10025,NEW YORK,PF,O,AR,A,IN,,A,A,AR,AR,AR,A20,,,,,,,A20,A
6144,133229829,1997,199704,3,46,63042,8940,N,N,N,N,N,N,N,N,N,N,N,N,N,N,N,N,N,N,N,46.0,0.0,0.0,199101.0,KOREAN LANGUAGE & CULTURAL INSTITUTE INC,NEW YORK,NY,10001,246 5TH AVE STE 500,10001-7603,63042,0,0,0,0,0,0,0,69504,-6462,0,0,0,0,0,0,0,4125,8940,0,0,0,0,0,69504,0,0,0,0,7854,0,0,8940,0,4815,0,0,0,0,0,0,0,0,0,0,0,0,0,0,0,0,0,0,0,0,0,0,0,0,0,0,0,0,0,0,0,0,0,0,0,0,0,0,0,0,0,0,0,0,0,0,0,0,0,0,0,0,,0.0,3.0,1.0,1.0,4.0,1.0,13.0,0.0,1.0,4,,,36061.0,5602.0,5600.0,0.373202,1996,NY,10001,NEW YORK,PF,O,AR,A,IN,,A,A,AR,AR,AR,A23,,,,,,,A23,A
6155,133236892,1997,199706,3,93,567565,1330670,N,Y,N,N,N,N,N,N,N,N,N,N,N,N,N,N,N,N,N,93.0,0.0,0.0,198509.0,HARA MUSEUM FUND,NEW YORK,NY,10004,7 HANOVER SQUARE,10004-2616,523683,42310,0,0,0,1572,0,4000,412007,155558,397366,33741,0,0,0,0,0,1000,1330670,0,37265,0,43882,0,408007,10141,393366,10141,0,121053,0,0,1330670,0,1329670,337,0,0,4137,0,0,0,0,3800,756600,36900,0,0,0,0,0,0,0,0,0,0,0,0,0,0,0,0,0,0,0,0,0,0,0,0,0,0,0,0,0,0,0,0,0,0,0,0,0,0,0,0,337,% KO-YUNG TUNG OMELVENY & MYERS,0.0,3.0,1.0,1.0,4.0,1.0,13.0,0.0,1.0,6,,,36061.0,5602.0,5600.0,0.6121449999999999,1996,NY,10004,NEW YORK,PF,O,AR,A,IN,,A,A,AR,AR,AR,A50,,,,,,,A50,A
6208,133253712,1997,199706,3,995,10381682,10264624,N,N,N,N,N,N,N,N,N,N,N,N,Y,N,N,N,N,N,N,995.0,90.0,0.0,198503.0,RADIO DRAMA NETWORK INC,NEW YORK,NY,10024,285 CENTRAL PARK WEST,10024-3006,10000000,6682,0,0,0,0,0,0,215772,10165910,0,6682,0,0,0,0,0,97878,10480131,203557,253133,375000,6682,0,215772,0,0,0,0,480131,0,0,10480130,0,10166746,134,0,0,0,0,0,0,0,0,5139800,208000,0,0,0,0,0,0,0,0,0,0,0,0,0,0,0,0,0,0,0,0,0,0,0,0,0,0,0,0,0,0,0,0,0,0,0,0,0,0,0,0,134,% HIMAN BROWN,0.0,3.0,1.0,1.0,4.0,1.0,13.0,198906.0,1.0,6,,,36061.0,5602.0,5600.0,0.0574312,1996,NY,10024,NEW YORK,PF,O,AR,A,IN,,A,A,AR,AR,AR,A34,,,,,,,A34,A
6214,133255361,1998,199806,3,90,131794,19399,N,N,N,N,Y,N,N,N,N,N,N,N,N,N,N,N,N,N,N,90.0,0.0,0.0,198504.0,THE LIVING THEATRE INC,NEW YORK,NY,10025,800 W END AVE STE 5A,10025-5467,43973,0,0,0,0,87821,23654,0,127709,4085,0,0,0,0,0,0,0,0,19399,0,855,0,0,87821,127709,0,0,0,127709,19399,0,0,19399,0,19399,0,0,0,0,0,0,0,0,0,17400,0,0,0,0,0,0,0,0,0,0,0,0,0,0,0,0,0,0,0,0,0,0,0,0,0,0,130194,125708,144412,145249,545563,42373,12049,40872,46954,142248,0,0,0,0,0,0,,0.0,3.0,1.0,1.0,2.0,1.0,13.0,0.0,1.0,6,,,36061.0,5602.0,5600.0,0.41126599999999996,1997,NY,10025,NEW YORK,PF,O,AR,A,IN,,A,A,AR,AR,AR,A65,,,,,,,A65,A
6235,133266152,1997,199702,3,88,0,0,N,N,N,N,N,N,N,N,Y,N,N,N,N,N,N,N,N,N,N,88.0,0.0,0.0,198508.0,ACROBRATS INC,NEW YORK,NY,10159,PO BOX 1970,10159-1970,0,0,0,0,0,0,0,0,0,0,0,0,0,0,0,0,0,0,0,0,0,0,0,0,0,0,0,0,0,0,0,0,0,0,0,0,0,0,0,0,0,0,0,0,0,0,0,0,0,0,0,0,0,0,0,0,0,0,0,0,0,0,0,0,0,0,0,0,0,0,0,0,0,0,0,0,0,0,0,0,0,0,0,0,0,0,0,NEWSON & HABERMAN,0.0,3.0,1.0,1.0,16.0,1.0,13.0,0.0,20.0,2,,,36061.0,5602.0,5600.0,0.057985800000000004,1996,NY,10159,NEW YORK,PC,O,AR,A,IN,,A,A,AR,AR,AR,A65,,,,,,,A65,A
6250,133271577,1997,199712,3,561,59513,92689,N,N,N,N,N,N,N,N,Y,N,N,N,N,N,N,N,N,N,N,561.0,0.0,0.0,198510.0,ART MATTERS INC,NEW YORK,NY,10113,PO BOX 1815,10113-1815,10940,2850,0,0,0,45723,18578,75300,169531,-110018,162671,0,48573,0,0,0,0,4483,92689,0,3686,0,2850,48573,94231,6860,87371,6860,0,92689,0,0,92689,0,88206,0,0,0,0,0,0,0,0,0,74800,3700,0,0,0,0,0,0,0,0,0,0,0,0,0,0,0,0,0,0,0,0,0,0,0,0,0,0,0,0,0,0,0,0,0,0,0,0,0,0,0,0,0,,0.0,3.0,2.0,1.0,4.0,1.0,13.0,0.0,1.0,12,,,36061.0,5602.0,5600.0,0.05754310000000001,1997,NY,10113,NEW YORK,PF,O,AR,A,IN,,A,A,AR,AR,AR,A99,,,,,,,A99,A
6284,133305823,1998,199804,3,602,297756,1869583,N,N,N,N,N,N,N,N,Y,N,N,N,N,N,N,N,N,N,N,602.0,0.0,0.0,198703.0,DOROTHY B MELVILLE TR FOR THE MUSEUMS AT STONY BROOK,NEW YORK,NY,10008,PO BOX 829 CHURCH ST STATION,10008-0829,0,418,95986,201352,0,0,13319,81624,97674,200082,88593,290675,0,0,1855848,0,1855848,0,2140682,0,99357,0,297756,0,16050,707081,6969,7081,0,7671,0,0,2140682,0,1869583,5814,0,0,2675,0,0,0,0,0,2017400,93500,0,0,0,0,0,0,0,0,0,0,0,0,0,0,0,0,0,0,0,0,0,0,0,0,0,0,0,0,0,0,0,0,0,0,0,0,0,0,0,0,5814,% BANKERS TR CO,0.0,3.0,1.0,1.0,4.0,2.0,13.0,0.0,1.0,4,,,36061.0,5602.0,5600.0,0.6890609999999999,1997,NY,10008,NEW YORK,PF,O,AR,A,IN,,A,A,AR,AR,AR,A50,,,,,,,A50,A
6319,133317928,1997,199706,3,91,94564,30440430,N,N,N,N,Y,N,Y,N,N,N,N,N,N,N,N,N,N,N,N,91.0,119.0,0.0,198605.0,IAN WOODNER FAMILY COLLECTION INC,NEW YORK,NY,10151,745 FIFTH AVE,10151-0099,0,624,0,67637,0,26303,0,0,83172,11392,81145,68261,624,0,0,0,0,2010015,16645054,0,1504,0,68261,624,83172,0,81145,0,0,59108,0,0,16645054,0,28430415,1365,0,0,0,0,0,0,94,0,30500,0,624,0,0,1211,1835,81145,117134,119848,4484717,4802844,0,0,0,0,0,0,0,0,0,0,1003,59,28,807,1897,0,0,0,0,0,0,0,0,0,0,0,0,0,0,0,1365,,0.0,3.0,2.0,1.0,3.0,1.0,13.0,0.0,1.0,6,,,36061.0,5602.0,5600.0,0.173299,1996,NY,10151,NEW YORK,PF,O,AR,A,IN,,A,A,AR,AR,AR,A51,,,,,,,A99,A
6356,133320806,1997,199712,3,64,31,575,N,N,N,N,N,N,N,N,N,N,N,N,N,N,N,N,N,N,N,64.0,90.0,0.0,199306.0,FUNDACION CULTURA HISPANICA LTD,STATEN ISLAND,NY,10314,125 QUEEN STREET,10314-5350,0,31,0,0,0,0,0,263,2088,-2057,0,31,0,0,0,0,0,0,575,0,0,0,31,0,1825,0,0,0,0,575,0,0,575,0,575,0,0,0,0,0,0,0,0,0,0,0,0,0,0,0,0,0,0,0,0,0,0,0,0,0,0,0,0,0,0,0,0,0,0,0,0,0,0,0,0,0,0,0,0,0,0,0,0,0,0,0,0,,0.0,3.0,1.0,1.0,4.0,1.0,13.0,0.0,1.0,12,,,36085.0,5602.0,5600.0,0.0514851,1997,NY,10314,STATEN ISLAND,PF,O,AR,A,IN,,A,A,AR,AR,AR,A23,,,,,,,A23,A
6374,133327907,1997,199712,3,88,0,1,N,N,N,N,N,N,N,N,N,N,N,N,N,N,N,N,N,N,N,88.0,602.0,0.0,198605.0,THE J MICHAEL BLOOM THEATRE FUNDATION LTD,NEW YORK,NY,10003,233 PARK AVE S STE 10TH FLR,10003-1606,0,0,0,0,0,0,0,0,0,0,0,0,0,0,0,0,0,0,0,0,0,0,0,0,0,0,0,0,0,0,0,0,0,0,1,0,0,0,0,0,0,0,0,0,0,0,0,0,0,0,0,0,0,0,0,0,0,0,0,0,0,0,0,0,0,0,0,0,0,0,0,0,0,0,0,0,0,0,0,0,0,0,0,0,0,0,0,% J MICHAEL BLOOM LTD,0.0,3.0,1.0,1.0,4.0,1.0,13.0,0.0,1.0,12,,,36061.0,5602.0,5600.0,0.441096,1997,NY,10003,NEW YORK,PF,O,AR,A,IN,,A,A,AR,AR,AR,A65,,,,,,,A65,A
6376,133328723,1997,199709,3,602,144031,2591908,N,Y,N,N,N,N,N,Y,Y,N,N,N,N,N,N,N,N,N,N,602.0,600.0,603.0,198610.0,MEX-AM CULTURAL FOUNDATION INC,NEW YORK,NY,10022,645 MADISON AVE,10022-1010,0,7506,135724,0,0,801,0,140000,224737,-80706,163902,110958,0,1774331,460549,0,2234880,26876,2591908,11636,129674,0,144031,0,84737,33073,23902,33073,0,1094,0,0,2591908,0,2565032,1110,0,0,9293,0,0,0,0,2000,2633000,128600,0,0,0,0,0,0,0,0,0,0,0,0,0,0,0,0,0,0,0,0,0,0,0,0,0,0,0,0,0,0,0,0,0,0,0,0,0,0,0,0,1110,% GRANT HERRMANN SCHWARTZ & KLINGER,0.0,3.0,1.0,1.0,4.0,1.0,13.0,0.0,1.0,9,,,36061.0,5602.0,5600.0,0.11556400000000001,1996,NY,10022,NEW YORK,PF,S,ZB,A,IN,,A,A,AR,AR,AR,A12,,,,,,,A1220,A
6377,133329917,1997,199712,3,119,11000,11700,N,Y,N,N,N,N,N,N,N,N,N,N,N,N,N,N,N,N,N,119.0,0.0,0.0,198606.0,TREE OF LIFE INC,NEW YORK,NY,10013,81 GRAND ST,10013-2256,11000,0,0,0,0,0,0,0,60,10940,60,0,0,0,0,0,0,1800,11700,0,96,0,0,0,60,0,60,0,0,11700,0,0,11700,0,9900,0,0,0,0,0,0,0,0,0,1900,100,0,0,0,0,0,0,0,0,0,0,0,0,0,0,0,0,0,0,0,0,0,0,0,0,0,0,0,0,0,0,0,0,0,0,0,0,0,0,0,0,0,% ERNST NEIZVESTNEY STUDIO,0.0,3.0,1.0,1.0,4.0,1.0,13.0,0.0,1.0,12,,,36061.0,5602.0,5600.0,0.714512,1997,NY,10013,NEW YORK,PF,O,AR,A,IN,,A,A,AR,AR,AR,A99,,,,,,,C99,C
6417,133347776,1997,199712,3,120,187978,874082,N,N,N,N,Y,N,N,N,N,N,N,N,N,N,N,N,N,N,N,120.0,0.0,0.0,198609.0,THE BURLINGTON MAGAZINE FOUNDATION INC C/O SULLIVAN & CROMWELL,NEW YORK,NY,10004,125 BROAD ST 2945,10004-2400,62400,18445,331,106802,0,0,0,0,21257,166721,24317,18776,18776,0,576358,0,576358,5370,874082,0,35125,0,18776,18776,21257,0,24317,0,0,0,0,0,874082,0,868712,376,0,0,163,0,0,0,0,0,713200,0,18776,16622,4672,9550,49620,24317,49269,45545,13417,132548,874082,722281,0,0,1596363,0,0,0,0,0,23417,19979,11205,13587,68188,0,0,0,0,0,0,0,0,0,0,0,0,0,0,0,376,SULLIVAN AND CROMWELL,0.0,3.0,1.0,1.0,3.0,1.0,13.0,0.0,1.0,12,,,36061.0,5602.0,5600.0,0.39414299999999997,1997,NY,10004,NEW YORK,PF,O,AR,A,IN,,A,A,AR,AR,AR,A33,,,,,,,A33,A
6639,133389923,1997,199710,3,122,3439,285132,N,N,N,N,Y,N,N,N,N,N,N,N,N,N,N,N,N,N,N,122.0,0.0,0.0,198703.0,THE TEREZIN FOUNDATION INC,NEW YORK,NY,10024,262 CENTRAL PARK WEST,10024-3512,1500,0,0,0,0,1939,0,0,28276,-24837,1134,0,0,0,0,0,0,311668,20823,0,173,0,0,1939,28276,0,1134,0,28276,819,0,0,20823,0,-26536,0,0,0,0,0,0,0,0,0,3500,0,0,0,0,0,0,1134,0,0,0,1134,20822,0,0,0,20822,20822,0,0,0,20822,0,0,0,0,0,0,0,0,0,0,0,0,0,0,0,0,0,0,0,0,0,,0.0,3.0,1.0,1.0,4.0,1.0,13.0,0.0,1.0,10,,,36061.0,5602.0,5600.0,0.17604,1996,NY,10024,NEW YORK,PF,O,AR,A,IN,,A,A,AR,AR,AR,A31,,,,,,,A31,A
6671,133396112,1997,199712,3,119,10283,4114,N,Y,N,N,N,N,N,N,N,N,N,N,N,N,N,N,Y,N,N,119.0,149.0,0.0,198704.0,INSTITUTE FOR ICE AGE STUDIES INC,NEW YORK,NY,10003,25 WAVERLY PLACE,10003-6759,10000,63,0,0,0,220,0,500,13788,-3505,13787,62,0,0,0,0,0,0,4114,0,305,0,63,0,13288,0,13287,1,0,0,0,0,4114,0,4114,1,0,0,0,0,0,0,0,0,6200,300,0,0,0,0,0,0,0,0,0,0,0,0,0,0,0,0,0,0,0,0,0,0,0,0,0,0,0,0,0,0,0,0,0,0,0,0,0,0,0,0,1,,0.0,3.0,1.0,1.0,4.0,1.0,11.0,0.0,1.0,12,,,36061.0,5602.0,5600.0,0.459404,1997,NY,10003,NEW YORK,PF,O,AR,A,IN,,A,A,AR,AR,AR,A99,,,,,,,A99,A
6714,133410749,1997,199704,3,119,7361575,110115046,N,N,N,N,N,N,N,N,Y,N,N,N,N,N,N,N,N,Y,N,119.0,91.0,0.0,198801.0,THE ANDY WARHOL FOUNDATION FOR THE VISUAL ARTS INC,NEW YORK,NY,10012,65 BLEECKER ST 7TH FLR,10012-2420,0,9980,628417,6281715,0,441463,481403,1154488,6548270,813305,6147897,704660,0,0,14469577,0,14469577,1024100,100140677,0,4078582,0,1155530,0,5393782,450870,4868409,450870,0,520542,0,0,100140677,0,109090946,14093,0,0,22000,0,0,0,0,0,82813800,4064500,0,0,0,0,0,0,0,0,0,0,0,0,0,0,0,0,0,0,0,0,0,0,0,0,0,0,0,0,0,0,0,0,0,0,0,0,0,0,0,0,14093,% GOTTFRIED,0.0,3.0,1.0,1.0,4.0,1.0,13.0,0.0,1.0,4,,,36061.0,5602.0,5600.0,0.522655,1996,NY,10012,NEW YORK,PF,O,AR,A,IN,,A,A,AR,AR,AR,A40,,,,,,,A40,A
6817,133442712,1996,199612,3,122,89454,10592,N,N,N,N,N,N,N,N,N,N,N,N,N,N,N,N,N,N,N,122.0,0.0,0.0,198810.0,OUTSIDE IN JULY INC,NEW YORK,NY,10019,250 W 57TH ST STE 2203,10019-3741,72410,0,0,0,0,17044,0,0,98299,-8845,0,0,0,0,0,0,0,0,10592,0,0,0,0,0,98299,0,0,0,0,10292,0,0,10592,0,10592,0,0,0,0,0,0,0,0,0,0,0,0,0,0,0,0,0,0,0,0,0,0,0,0,0,0,0,0,0,0,0,0,0,0,0,0,0,0,0,0,0,0,0,0,0,0,0,0,0,0,0,0,% J L ROSENHOUSE CPA INC,0.0,3.0,1.0,1.0,4.0,1.0,13.0,0.0,1.0,12,GARRISON,,36061.0,5602.0,5600.0,0.382176,1996,NY,10019,NEW YORK,PF,O,AR,A,IN,,A,A,AR,AR,AR,A31,,,,,,,A31,A
6819,133442953,1997,199712,3,121,14731,-1081,N,N,N,N,N,N,N,N,N,N,N,N,N,N,N,N,N,N,N,121.0,0.0,0.0,198802.0,VIDEO INFORMATION NETWORK,NEW YORK,NY,10024,257 W 86TH ST APT 5A,10024-3105,14671,60,0,0,0,0,0,0,27759,-13028,0,60,60,0,0,0,0,0,-1081,0,0,0,60,60,27759,0,0,0,0,2944,0,0,-1081,0,-1033,1,0,0,0,0,0,0,0,0,0,0,0,0,0,0,0,0,0,0,0,0,0,0,0,0,0,0,0,0,0,0,0,0,0,0,0,0,0,0,0,0,0,0,0,0,0,0,0,0,0,0,1,,0.0,3.0,1.0,1.0,4.0,1.0,13.0,0.0,1.0,12,,,36061.0,5602.0,5600.0,0.474152,1997,NY,10024,NEW YORK,PF,O,AR,A,IN,,A,A,AR,AR,AR,A31,,,,,,,A31,A
6824,133444907,1998,199803,3,59,72,6833,N,N,N,N,N,N,N,N,N,N,N,N,N,N,N,N,N,N,N,59.0,0.0,0.0,198802.0,CENTER FOR AMERICAN ART INC,NEW YORK,NY,10012,380 W BROADWAY,10012-5115,0,72,0,0,0,0,0,0,65,7,0,7,0,0,0,0,0,0,6833,0,335,0,72,0,65,65,0,65,0,6833,0,0,6823,0,6833,0,0,0,0,0,0,0,0,0,6800,300,0,0,0,0,0,0,0,0,0,0,0,0,0,0,0,0,0,0,0,0,0,0,0,0,0,0,0,0,0,0,0,0,0,0,0,0,0,0,0,0,0,,0.0,3.0,1.0,1.0,4.0,1.0,13.0,0.0,1.0,3,,,36061.0,5602.0,5600.0,0.192186,1997,NY,10012,NEW YORK,PF,O,AR,A,IN,,A,A,AR,AR,AR,A20,,,,,,,A20,A
6837,133447662,1997,199712,3,90,2020,1723,N,N,N,N,N,N,N,N,N,N,N,N,N,N,N,N,N,N,N,90.0,119.0,0.0,198808.0,COUNCIL FOR LIVING MUSIC INC,NEW YORK,NY,10036,322 W 48TH ST,10036-1308,2020,0,0,0,0,0,0,0,6559,-4539,6559,0,0,0,0,0,0,0,1,0,90,0,0,0,6559,0,6559,0,0,1723,0,0,1,0,1723,0,0,0,0,0,0,0,0,0,1800,100,0,0,0,0,0,0,0,0,0,0,0,0,0,0,0,0,0,0,0,0,0,0,0,0,0,0,0,0,0,0,0,0,0,0,0,0,0,0,0,0,0,% LOCAL 802 AF OF MUSICIANS LOCAL,0.0,3.0,1.0,1.0,4.0,1.0,13.0,0.0,1.0,12,802,,36061.0,5602.0,5600.0,0.943846,1997,NY,10036,NEW YORK,PF,O,AR,A,IN,,A,A,AR,AR,AR,A68,,,,,,,A68,A
6866,133458208,1997,199705,3,0,12912845,31474463,N,Y,N,N,Y,N,N,N,N,N,N,N,N,N,N,N,N,N,N,0.0,0.0,0.0,198807.0,DAHESH MUSEUM INC,NEW YORK,NY,10017,601 FIFTH AVE FIFTH FLOOR,10017-1024,11644980,1251447,12114,0,7491,597,0,0,2059732,10853113,1981340,1155044,1143335,0,1101627,0,1101627,158561,32379137,0,1315242,800,1264158,1272449,2059732,109114,1981340,109114,129114,17933,0,22346616,32379137,0,31315902,11550,0,0,24607,0,25000,0,10,25000,26705400,0,1143335,1030241,798985,794466,3767027,3440548,1903635,750000,700000,6794183,0,0,0,0,0,0,0,0,0,0,876819,686827,563827,529639,2657112,0,0,0,0,0,0,0,0,0,0,0,0,0,0,0,11550,,0.0,3.0,5.0,1.0,3.0,1.0,13.0,0.0,1.0,5,,,36061.0,5602.0,5600.0,0.00193967,1996,NY,10017,NEW YORK,PF,O,AR,A,IN,,A,A,AR,AR,AR,A50,,,,,,,A50,A
6890,133469715,1995,199512,3,90,0,0,N,N,N,Y,N,N,N,N,N,N,N,N,N,N,N,N,N,N,N,90.0,0.0,0.0,198902.0,HARPSICHORD SOCIETY INC,NEW YORK,NY,10010,22 W 26TH ST,10010-2023,0,0,0,0,0,0,0,0,0,0,0,0,0,0,0,0,0,0,0,0,0,0,0,0,0,0,0,0,0,0,0,0,0,0,0,0,0,0,0,0,0,0,0,0,0,0,0,0,0,0,0,0,0,0,0,0,0,0,0,0,0,0,0,0,0,0,0,0,0,0,0,0,0,0,0,0,0,0,0,0,0,0,0,0,0,0,0,% ANN BURACK-WEISS,0.0,3.0,1000.0,1.0,4.0,1.0,13.0,0.0,1.0,12,,,36061.0,5602.0,5600.0,0.534415,1995,NY,10010,NEW YORK,PF,O,AR,A,IN,,A,A,AR,AR,AR,A68,,,,,,,A68,A
6900,133472572,1997,199706,3,155,8945,100000,N,N,N,N,N,N,Y,Y,N,N,N,N,N,N,N,N,N,N,N,155.0,0.0,0.0,199101.0,GUINEA DEVELOPMENT FOUNDATION INC,NEW YORK,NY,10023,140 W END AVE STE 17G,10023-6142,8945,0,0,0,0,0,0,0,12524,-3579,0,0,0,0,0,0,0,87032,20000,0,965,0,0,0,12524,0,0,0,0,0,0,0,20000,0,12968,0,0,0,0,0,0,0,0,0,20000,1000,0,0,0,0,0,0,0,0,0,0,0,0,0,0,0,0,0,0,0,0,0,0,0,0,0,0,0,0,0,0,0,0,0,0,0,0,0,0,0,0,0,% SYLLA,0.0,3.0,1.0,1.0,4.0,1.0,13.0,0.0,1.0,6,,,36061.0,5602.0,5600.0,0.239416,1996,NY,10023,NEW YORK,PF,O,AR,A,IN,,A,A,AR,AR,AR,A23,,,,,,,A23,A
6907,133476571,1997,199709,3,122,500,300,N,N,N,N,N,N,N,N,N,N,N,N,N,N,N,N,N,N,N,122.0,0.0,0.0,198904.0,ETHNOLOGY CINEMA PROJECT INC,NEW YORK,NY,10014,30 BANK ST,10014-5207,500,0,0,0,0,0,0,0,500,0,0,0,0,0,0,0,0,0,300,0,0,0,0,0,500,0,0,0,0,0,0,0,300,0,300,0,0,0,0,0,0,0,0,0,0,0,0,0,0,0,0,0,0,0,0,0,0,0,0,0,0,0,0,0,0,0,0,0,0,0,0,0,0,0,0,0,0,0,0,0,0,0,0,0,0,0,0,,0.0,3.0,2.0,1.0,4.0,1.0,13.0,0.0,1.0,9,,,36061.0,5602.0,5600.0,0.492591,1996,NY,10014,NEW YORK,PF,O,AR,A,IN,,A,A,AR,AR,AR,A31,,,,,,,A31,A
6929,133486646,1997,199712,3,123,189156,266363,N,Y,N,N,N,N,N,N,N,N,N,N,N,N,N,N,N,N,N,123.0,0.0,0.0,198906.0,RONALD A WILFORD FOUNDATION FOR CONDUCTORS INC,NEW YORK,NY,10036,114 W 47TH ST TAXVS,10036-1510,121596,0,2680,64880,0,0,0,5158,9943,179213,9110,67396,0,0,153725,0,153725,0,310700,3991,9712,0,67560,0,4785,164,3952,164,0,2,0,0,310700,0,266363,674,0,0,336,0,0,0,0,0,197200,9000,0,0,0,0,0,0,0,0,0,0,0,0,0,0,0,0,0,0,0,0,0,0,0,0,0,0,0,0,0,0,0,0,0,0,0,0,0,0,0,0,674,% US TRUST CO OF NY,0.0,3.0,1.0,1.0,4.0,1.0,13.0,0.0,1.0,12,,,36061.0,5602.0,5600.0,0.993563,1997,NY,10036,NEW YORK,PF,O,AR,A,IN,,A,A,AR,AR,AR,A60,,,,,,,A60,A
6932,133488520,1997,199712,3,119,6857,3372,N,N,N,N,N,N,N,N,N,N,N,N,N,N,N,N,N,N,N,119.0,0.0,0.0,199303.0,FOOTNOTES CORP,NEW YORK,NY,10036,400 W 43RD ST STE 33T,10036-6301,0,0,0,0,0,6857,0,0,3484,3373,0,0,0,0,0,0,0,0,3372,0,0,0,0,0,3484,0,0,0,0,3372,0,0,3372,0,3372,0,0,0,0,0,0,0,0,0,0,0,0,0,0,0,0,0,0,0,0,0,0,0,0,0,0,0,0,0,0,0,0,0,0,0,0,0,0,0,0,0,0,0,0,0,0,0,0,0,0,0,0,% WHITNEY TRILLING,0.0,3.0,1.0,1.0,16.0,1.0,13.0,0.0,20.0,12,,,36061.0,5602.0,5600.0,0.34918000000000005,1997,NY,10036,NEW YORK,PC,O,AR,A,IN,,A,A,AR,AR,AR,A65,,,,,,,A65,A
6989,133506633,1996,199612,3,90,0,0,N,N,N,N,N,N,N,N,N,N,N,N,N,N,N,N,N,N,N,90.0,0.0,0.0,199008.0,ARTISTS MUSEUM,NWE YORK,NY,10107,250 W 57TH ST STE 1517 BOX,10107-0001,0,0,0,0,0,0,0,0,0,0,0,0,0,0,0,0,0,0,0,0,0,0,0,0,0,0,0,0,0,0,0,0,0,0,0,0,0,0,0,0,0,0,0,0,0,0,0,0,0,0,0,0,0,0,0,0,0,0,0,0,0,0,0,0,0,0,0,0,0,0,0,0,0,0,0,0,0,0,0,0,0,0,0,0,0,0,0,% BARBARA INGBER,0.0,3.0,2.0,1.0,4.0,5.0,13.0,0.0,1.0,12,,,36061.0,5602.0,5600.0,0.0779063,1996,NY,10107,NWE YORK,PF,O,AR,A,IN,,A,A,AR,AR,AR,A50,,,,,,,A50,A
7004,133516218,1996,199612,3,122,0,0,N,N,N,N,N,N,N,N,N,N,N,N,N,N,N,N,N,N,N,122.0,0.0,0.0,198909.0,BLEECKER STREET FILMS INC,NEW YORK,NY,10014,285 BLEECKER ST 3,10014-4108,0,0,0,0,0,0,0,0,0,0,0,0,0,0,0,0,0,0,0,0,0,0,0,0,0,0,0,0,0,0,0,0,0,0,0,0,0,0,0,0,0,0,0,0,0,0,0,0,0,0,0,0,0,0,0,0,0,0,0,0,0,0,0,0,0,0,0,0,0,0,0,0,0,0,0,0,0,0,0,0,0,0,0,0,0,0,0,,0.0,3.0,2000.0,1.0,4.0,1.0,13.0,0.0,1.0,12,,,36061.0,5602.0,5600.0,0.130802,1996,NY,10014,NEW YORK,PF,O,AR,A,IN,,A,A,AR,AR,AR,A31,,,,,,,A31,A
7017,133523770,1997,199712,3,119,7,1,N,N,N,N,N,N,N,N,N,N,N,N,N,N,N,N,N,N,N,119.0,0.0,0.0,199103.0,BAHAMIAN AMERICAN CULTURAL SOCIETY,NEW YORK,NY,10010,PO BOX 1417,10010-0000,0,0,7,0,0,0,0,0,0,7,0,0,0,0,0,0,0,0,0,0,0,0,0,0,0,0,0,0,0,0,0,0,0,0,1,0,0,0,0,0,0,0,0,0,0,0,0,0,0,0,0,0,0,0,0,0,0,0,0,0,0,0,0,0,0,0,0,0,0,0,0,0,0,0,0,0,0,0,0,0,0,0,0,0,0,0,0,% BERYLE E EDGECOMBE,0.0,3.0,1.0,1.0,4.0,1.0,13.0,0.0,1.0,12,,,36061.0,5602.0,5600.0,0.310202,1997,NY,10010,NEW YORK,PF,O,AR,A,IN,,A,A,AR,AR,AR,A23,,,,,,,A23,A
7028,133525999,1997,199712,3,200,63547,951721,N,N,N,N,N,N,N,N,N,N,N,N,N,N,N,N,N,N,N,200.0,0.0,0.0,198304.0,RALPH C MARCOVE INTERNATL UNDRSTDG THROUGH ARTS & CRAFTS FNDTN INC,NEW YORK,NY,10021,517 E 71ST ST,10021-4871,5325,3402,43657,11163,0,0,0,2500,4992,58555,2500,58142,54349,0,0,0,0,4000,981444,0,28538,0,58222,54349,2492,80,0,80,0,8975,0,942746,981444,0,947721,1163,0,0,1640,0,0,0,0,477,579400,27400,0,0,0,0,0,0,0,0,0,0,0,0,0,0,0,0,0,0,0,0,0,0,0,0,0,0,0,0,0,0,0,0,0,0,0,0,0,0,0,0,1163,MARCOVE,0.0,3.0,1.0,1.0,4.0,1.0,13.0,0.0,1.0,12,,,36061.0,5602.0,5600.0,0.439529,1997,NY,10021,NEW YORK,PF,O,AR,A,IN,,A,A,AR,AR,AR,A40,,,,,,,A40,A
7039,133527874,1997,199705,3,432,269085,8851,N,N,N,N,N,N,N,N,N,N,N,N,N,N,N,N,N,N,N,432.0,0.0,0.0,199010.0,FOUNDATION FOR ETHNIC UNDERSTANDING,NEW YORK,NY,10128,1 E 93RD ST STE 1C,10128-0683,196200,0,0,0,0,72885,110385,5000,278432,-9347,278432,0,0,0,0,0,0,45747,8851,0,117,0,0,0,273432,0,273432,0,0,751,0,0,8851,10000,-36896,0,0,0,18,0,0,0,0,0,2400,0,0,0,0,0,0,0,0,0,0,0,0,0,0,0,0,0,0,0,0,0,0,0,0,0,0,0,0,0,0,0,0,0,0,0,0,0,0,0,0,0,0,% C MARTIN GOLDENBERG,0.0,3.0,1.0,1.0,4.0,1.0,13.0,200105.0,1.0,5,,,36061.0,5602.0,5600.0,0.375318,1996,NY,10128,NEW YORK,PF,O,AR,A,IN,,A,A,AR,AR,AR,A23,,,,,,,A23,A
7080,133536258,1997,199707,3,120,162720,20366,N,N,N,N,N,N,N,N,N,N,N,N,N,N,N,N,N,N,N,120.0,0.0,0.0,199005.0,2WICE ARTS FOUNDATION INC,NEW YORK,NY,10023,PO BOX 20719 COLUMBUS CIR STA,10023-1487,154970,0,0,0,0,7750,0,18500,150110,12610,142360,0,0,0,0,0,0,0,20366,0,431,0,0,7750,131610,0,123860,0,7750,18648,0,0,20366,0,20366,0,0,0,0,0,0,0,0,0,8800,0,0,0,0,0,0,0,0,0,0,0,0,0,0,0,0,0,0,0,0,0,0,0,0,0,0,0,0,0,0,0,0,0,0,0,0,0,0,0,0,0,0,% PATRICIA TARR,0.0,3.0,1.0,1.0,4.0,1.0,13.0,0.0,1.0,7,,,36061.0,5602.0,5600.0,0.467922,1996,NY,10023,NEW YORK,PF,S,ZB,A,IN,,A,A,AR,AR,AR,A12,,,,,,,A1261,A
7093,133540880,1997,199708,3,602,833205,2293085,N,N,N,N,Y,N,N,N,N,N,N,N,N,N,N,N,N,N,N,602.0,0.0,0.0,199201.0,MUSEUM OF AMERICAN FINANCIAL HISTORY,NEW YORK,NY,10004,26 BROADWAY,10004-1703,771787,8826,0,13472,0,39120,0,0,305768,527437,61927,21244,0,0,0,0,0,17297,2293085,0,17009,0,22298,47946,305768,1054,61927,1054,242757,488732,0,0,2293085,0,2275788,425,0,0,0,0,200,0,0,0,345400,0,0,0,0,-71783,-71783,61927,62042,62713,72847,259529,0,0,0,0,0,0,0,0,0,0,11339,7891,6345,3338,28913,0,0,0,0,0,0,0,0,0,0,0,0,0,0,0,425,,0.0,3.0,1.0,1.0,3.0,1.0,13.0,0.0,1.0,8,,,36061.0,5602.0,5600.0,0.361661,1996,NY,10004,NEW YORK,PF,O,AR,A,IN,,A,A,AR,AR,AR,A50,,,,,,,A50,A
7095,133541596,1996,199612,3,561,135809,2449247,N,N,N,N,N,N,N,N,N,N,N,N,N,N,N,N,N,N,N,561.0,0.0,0.0,198912.0,TIERNEY FAMILY FOUNDATION INC,NEW YORK,NY,10128,1133 FIFTH AVE,10128-0123,0,0,32895,0,0,121738,0,84300,108031,27778,84300,20249,0,0,2055761,0,2055761,0,2565986,0,122834,0,32492,0,23731,12243,0,12243,0,393486,0,0,2565986,0,2449247,405,0,0,1166,0,0,0,0,761,2494100,122400,0,0,0,0,0,0,0,0,0,0,0,0,0,0,0,0,0,0,0,0,0,0,0,0,0,0,0,0,0,0,0,0,0,0,0,0,0,0,0,0,405,% PAUL E TIERNEY JR,0.0,3.0,1.0,1.0,4.0,1.0,13.0,0.0,1.0,12,,,36061.0,5602.0,5600.0,0.794804,1996,NY,10128,NEW YORK,PF,S,ZB,A,IN,,A,A,AR,AR,AR,A12,,,,,,,A12,A
7133,133553683,1997,199712,3,90,172,16,N,N,N,N,N,N,N,N,N,N,N,N,N,N,N,N,N,N,N,90.0,0.0,0.0,199004.0,OPERA DE PARIS FOUNDATION INC,NEW YORK,NY,10019,787 SEVENTH AVE,10019-6018,172,0,0,0,0,0,0,0,219,-47,0,0,0,0,0,0,0,0,16,219,0,0,0,0,219,0,0,0,0,16,0,0,16,0,16,0,0,0,0,0,0,0,0,0,0,200,0,0,0,0,0,0,0,0,0,0,0,0,0,0,0,0,0,0,0,0,0,0,0,0,0,0,0,0,0,0,0,0,0,0,0,0,0,0,0,0,0,% WILLKIE FARR & GALLAGHER,0.0,3.0,1.0,1.0,4.0,1.0,13.0,0.0,1.0,12,,,36061.0,5602.0,5600.0,0.104058,1997,NY,10019,NEW YORK,PF,O,AR,A,IN,,A,A,AR,AR,AR,A6A,,,,,,,A6A,A
7140,133556699,1997,199712,3,60,38508,14425,N,N,N,N,N,N,N,N,N,N,N,N,N,N,N,N,N,N,N,60.0,0.0,0.0,199008.0,CHAIM GROSS MUSEUM,NEW YORK,NY,10012,526 LA GUARDIA PL,10012-1401,38508,0,0,0,0,0,0,0,24083,14425,0,0,0,0,0,0,0,0,14425,355,355,0,0,0,24083,0,0,0,0,0,0,0,14425,0,14425,0,0,0,0,0,0,0,0,0,7200,400,0,0,0,0,0,0,0,0,0,0,0,0,0,0,0,0,0,0,0,0,0,0,0,0,0,0,0,0,0,0,0,0,0,0,0,0,0,0,0,0,0,% ADFEL LEVY ZLOTNICK & CO,0.0,3.0,1.0,1.0,4.0,1.0,13.0,0.0,1.0,12,,,36061.0,5602.0,5600.0,0.073628,1997,NY,10012,NEW YORK,PF,O,AR,A,IN,,A,A,AR,AR,AR,A50,,,,,,,A50,A
7151,133557369,1997,199703,3,92,10,311,N,N,N,Y,N,N,N,N,Y,Y,N,N,N,N,N,N,N,N,N,92.0,0.0,0.0,199007.0,MARY CASSATT FOUNDATION INC,NEW YORK,NY,10022,55 E 55TH ST 9TH FL,10022-3205,0,0,0,0,0,10,0,0,311,-301,0,0,11,0,0,0,0,311,311,0,0,0,1,11,311,63,0,63,0,311,0,0,311,0,0,0,0,0,0,0,0,0,0,0,0,0,0,0,0,0,0,0,0,0,0,0,0,0,0,0,0,0,0,0,0,0,0,0,0,0,0,0,0,0,0,0,0,0,0,0,0,0,0,0,0,0,0,,0.0,3.0,1000.0,1.0,3.0,1.0,13.0,0.0,1.0,3,,,36061.0,5602.0,5600.0,0.0540362,1996,NY,10022,NEW YORK,PF,O,AR,A,IN,,A,A,AR,AR,AR,A70,,,,,,,A70,A
7159,133560519,1996,199612,3,560,2300,1,N,N,N,N,N,N,N,N,N,N,N,N,N,N,N,N,N,N,N,560.0,0.0,0.0,199004.0,SHANTI CULTURAL DYNAMICS INC,RIVERDALE,NY,10471,5900 ARLINGTON AVE 16-S,10471-1317,2300,0,0,0,0,0,0,0,2300,0,0,0,0,0,0,0,0,0,0,0,0,0,0,0,2300,0,0,0,0,0,0,0,0,0,0,0,0,0,0,0,0,0,0,0,0,0,0,0,0,0,0,0,0,0,0,0,0,0,0,0,0,0,0,0,0,0,0,0,0,0,0,0,0,0,0,0,0,0,0,0,0,0,0,0,0,0,0,% RAO-SHANTHA,0.0,3.0,1.0,1.0,4.0,1.0,13.0,0.0,1.0,12,,,36005.0,5602.0,5600.0,0.414513,1996,NY,10471,RIVERDALE,PF,O,AR,A,IN,,A,A,AR,AR,AR,A23,,,,,,,A23,A
7187,133572120,1997,199709,3,122,61462,15054,N,N,N,N,Y,N,N,Y,N,N,N,N,N,N,N,N,N,N,N,122.0,0.0,0.0,199401.0,FUND FOR NEW PERFORMANCE VIDEO INC,NEW YORK,NY,10023,175 W 73RD STE 12D,10023-2934,61462,0,0,0,0,0,0,0,65664,-4202,59944,0,0,0,0,0,0,71575,15054,0,0,0,0,0,65664,0,59944,0,0,1798,0,0,15054,0,-56521,0,0,0,0,0,0,0,0,0,0,0,0,0,0,0,0,59944,70908,0,0,130852,15054,19256,0,0,34310,15054,19256,0,0,34310,0,0,0,0,0,0,0,0,0,0,0,0,0,0,0,0,0,0,0,0,0,,0.0,3.0,1.0,1.0,3.0,1.0,13.0,0.0,1.0,9,,,36061.0,5602.0,5600.0,0.6109829999999999,1996,NY,10023,NEW YORK,PF,S,ZA,A,IN,,A,A,AR,AR,AR,A11,,,,,,,A1131,A
7189,133572353,1996,199612,3,602,317396,1279820,N,Y,N,N,Y,N,N,N,Y,N,N,N,N,N,N,N,N,Y,N,602.0,0.0,0.0,199010.0,NATIONAL VIDEO RESOURCES INC,NEW YORK,NY,10012,73 SPRING ST STE 606,10012-5802,254373,62323,0,0,0,700,153957,25800,750566,-433170,740943,62323,0,0,0,0,0,63461,1279820,0,20832,0,62323,0,724766,0,711893,0,0,31942,0,0,1279820,0,1216359,623,0,0,655,0,600,0,0,632,423000,0,20832,35855,37980,34698,129365,744163,938354,741235,731842,3155594,0,0,0,0,0,0,0,0,0,0,13888,23903,25320,23132,86243,0,0,0,0,0,0,0,0,0,0,0,0,0,0,0,623,,0.0,3.0,1.0,1.0,4.0,1.0,13.0,0.0,1.0,12,,,36061.0,5602.0,5600.0,0.217379,1996,NY,10012,NEW YORK,PF,O,AR,A,IN,,A,A,AR,AR,AR,A31,,,,,,,A31,A
7192,133573140,1997,199712,3,561,355,517,N,N,N,N,N,N,N,N,N,N,N,N,N,N,N,N,N,N,N,561.0,914.0,119.0,199205.0,JACK GALEF ARTS FOUNDATION INC,NEW YORK,NY,10016,16 E 34 ST STE 1600,10016-4328,350,5,0,0,0,0,0,250,563,-208,250,4,0,0,0,0,0,0,517,0,25,0,5,0,313,1,0,1,0,6,0,0,517,0,517,0,0,0,0,0,0,0,0,0,500,0,0,0,0,0,0,0,0,0,0,0,0,0,0,0,0,0,0,0,0,0,0,0,0,0,0,0,0,0,0,0,0,0,0,0,0,0,0,0,0,0,0,% GOLOMB SINDEL AND DIBLE,0.0,3.0,2.0,1.0,4.0,1.0,13.0,0.0,1.0,12,,,36061.0,5602.0,5600.0,0.9866309999999999,1997,NY,10016,NEW YORK,PF,S,ZB,A,IN,,A,A,AR,AR,AR,A12,,,,,,,A12,A
7193,133573737,1997,199712,3,92,53728,8380,N,N,N,N,N,N,N,N,N,N,N,N,N,N,N,N,N,N,N,92.0,0.0,0.0,199011.0,FINNISH FOUNDATION FOR VISUAL ARTS INC,NEW YORK,NY,10003,799 BROADWAY RM 527,10003-6811,53592,36,0,0,0,0,14375,0,48397,5331,47349,0,0,0,0,0,0,775,6586,0,0,0,0,0,48397,0,47349,0,0,0,0,0,6586,0,7605,0,0,0,0,0,0,0,0,0,0,0,0,0,0,0,0,0,0,0,0,0,0,0,0,0,0,0,0,0,0,0,0,0,0,0,0,0,0,0,0,0,0,0,0,0,0,0,0,0,0,0,0,% CHRISTY & VIENER,0.0,3.0,1.0,1.0,4.0,1.0,13.0,0.0,1.0,12,,,36061.0,5602.0,5600.0,0.0391221,1997,NY,10003,NEW YORK,PF,O,AR,A,IN,,A,A,AR,AR,AR,A23,,,,,,,A23,A
7200,133576913,1995,199512,3,119,12049,8621,N,N,N,N,Y,N,N,N,N,N,N,N,N,N,N,N,N,N,N,119.0,91.0,0.0,199205.0,ART KALEIDOSCOPE FOUNDATION INC,NEW YORK,NY,10122,225 W 34TH ST STE 1800,10122-1899,12049,0,0,0,0,0,0,0,3460,8589,3460,0,8589,0,0,0,0,0,8621,0,0,0,0,12049,3460,0,3460,0,3460,95,0,0,8621,0,8621,0,0,0,0,0,0,0,0,0,0,0,8589,0,0,423,9012,3460,8928,65123,21932,99443,8621,32,318,7140,16111,8621,32,318,7140,16111,0,0,0,0,0,0,0,0,0,0,0,0,0,0,0,0,0,0,0,0,0,% GOTTFRIED,0.0,3.0,2.0,1.0,3.0,1.0,13.0,0.0,1.0,12,,,36061.0,5602.0,5600.0,0.532782,1995,NY,10122,NEW YORK,PF,S,ZB,A,IN,,A,A,AR,AR,AR,A12,,,,,,,A12,A
7234,133591085,1997,199712,3,91,26774,1440236,N,N,N,N,N,N,N,N,N,N,N,N,N,N,N,N,N,N,N,91.0,0.0,0.0,199604.0,LISETTE MODEL FOUNDATION INC,NEW YORK,NY,10016,270 MADISON AVE,10016-0601,0,0,3077,0,14175,9522,0,11000,19751,7023,0,3077,18023,0,0,0,0,0,1440236,0,5147,0,3077,26774,8751,0,0,0,8751,0,0,0,1440236,0,1440236,61,0,0,0,0,0,0,0,0,104500,5100,0,0,0,0,0,0,0,0,0,0,0,0,0,0,0,0,0,0,0,0,0,0,0,0,0,0,0,0,0,0,0,0,0,0,0,0,0,0,0,0,61,% BLUM GERSEN AND WOOD ESQ,0.0,3.0,1.0,1.0,4.0,1.0,11.0,0.0,1.0,12,,,36061.0,5602.0,5600.0,0.7397699999999999,1997,NY,10016,NEW YORK,PF,O,AR,A,IN,,A,A,AR,AR,AR,A40,,,,,,,A40,A
7236,133591637,1997,199712,3,90,38471,605342,N,N,N,N,N,N,N,N,N,N,N,N,N,N,N,N,N,N,N,90.0,119.0,0.0,199012.0,ROBERT CRAFT MUSIC FOUNDATION INC,NEW YORK,NY,10021,667 MADISON AVE 20TH FLR,10021-8029,0,1832,38545,0,0,0,0,0,342478,-304007,327939,31519,35154,542851,0,0,542851,0,605342,0,35930,0,40377,40377,342478,8858,327939,8858,5223,45192,0,0,605342,0,605342,630,0,0,0,0,0,0,24,0,729500,0,0,0,0,0,0,0,0,0,0,0,0,0,0,0,0,0,0,0,0,0,0,0,0,0,0,0,0,0,0,0,0,0,0,0,0,0,0,0,0,0,630,% KELLEY DRYE & WARREN,0.0,3.0,2.0,1.0,4.0,1.0,13.0,0.0,1.0,12,,,36061.0,5602.0,5600.0,0.368424,1997,NY,10021,NEW YORK,PF,O,AR,A,IN,,A,A,AR,AR,AR,A40,,,,,,,A40,A
7238,133591700,1996,199612,3,119,39871,15810,N,N,N,N,N,N,N,N,N,N,N,N,N,N,N,N,N,N,N,119.0,0.0,0.0,199108.0,MANHATTAN INTERNATIONAL CULTURAL STUDIOS INC,NEW YORK,NY,10022,575 MADISON AVE 24TH FLR,10022-2511,16920,65,0,0,0,22886,0,0,30910,8961,0,65,65,0,0,0,0,94259,15810,0,0,0,65,65,30910,0,0,0,0,0,0,0,15810,0,-78449,1,0,0,0,0,0,0,0,0,0,0,0,0,0,0,0,0,0,0,0,0,0,0,0,0,0,0,0,0,0,0,0,0,0,0,0,0,0,0,0,0,0,0,0,0,0,0,0,0,0,0,1,% ROZEN & NILSON,0.0,3.0,1.0,1.0,15.0,1.0,13.0,0.0,10.0,12,,,36061.0,5602.0,5600.0,0.34213000000000005,1996,NY,10022,NEW YORK,PC,O,AR,A,IN,,A,A,AR,AR,AR,A65,,,,,,,A65,A
7243,133593706,1996,199612,3,602,13388,268358,N,Y,N,N,N,N,N,N,N,N,N,N,N,N,N,N,N,N,N,602.0,561.0,0.0,199202.0,BARBARA AND HOWARD WISE ENDOWMENT FOR THE ARTS INC,NEW YORK,NY,10011,110 W 13TH ST,10011-7802,0,9501,3887,0,0,0,0,45000,46487,-33099,45000,11901,11901,174680,0,0,174680,0,267967,0,14050,0,13388,13388,1487,1487,0,1487,1487,0,0,0,267967,0,268358,119,0,0,0,0,0,0,0,0,285300,13900,0,0,0,0,0,0,0,0,0,0,0,0,0,0,0,0,0,0,0,0,0,0,0,0,0,0,0,0,0,0,0,0,0,0,0,0,0,0,0,0,119,,0.0,3.0,2.0,1.0,4.0,1.0,13.0,0.0,1.0,12,,,36061.0,5602.0,5600.0,0.556649,1996,NY,10011,NEW YORK,PF,S,ZB,A,IN,,A,A,AR,AR,AR,A12,,,,,,,A12,A
7274,133599581,1996,199612,3,200,226531,236784,N,Y,N,N,N,N,N,N,Y,N,N,N,N,N,N,N,N,N,N,200.0,0.0,0.0,199105.0,FRIENDS OF FAI THE ITALIAN ENVIRONMENT FOUNDATION INC,NEW YORK,NY,10036,1133 AVE OF THE AMERICAS,10036-0000,225000,1531,0,0,0,0,0,75000,87290,139241,75000,0,0,0,0,0,0,0,236784,0,7867,0,1531,1531,12290,12290,0,12290,12290,0,0,0,236784,0,236784,0,0,0,0,0,0,0,0,0,159700,7900,0,0,0,0,0,0,0,0,0,0,0,0,0,0,0,0,0,0,0,0,0,0,0,0,0,0,0,0,0,0,0,0,0,0,0,0,0,0,0,0,0,FMA,0.0,3.0,1.0,1.0,4.0,1.0,13.0,0.0,1.0,12,,,36061.0,5602.0,5600.0,0.099071,1996,NY,10036,NEW YORK,PF,S,ZA,A,IN,,A,A,AR,AR,AR,A11,,,,,,,A1123,A
7299,133610552,1997,199712,3,200,23,2299,N,N,N,N,N,N,N,N,N,N,N,N,N,N,N,N,N,N,N,200.0,0.0,0.0,199107.0,FRIENDS OF THE SOCIETY FOR COPTIC ARCHAEOLOGY INC,NEW YORK,NY,10166,200 PARK AVE,10166-0005,0,23,0,0,23,0,0,0,0,23,0,23,0,0,0,0,0,0,2299,99,113,0,23,0,0,0,0,0,0,2299,0,0,2299,0,2299,0,0,0,0,0,0,0,0,0,2300,100,0,0,0,0,0,0,0,0,0,0,0,0,0,0,0,0,0,0,0,0,0,0,0,0,0,0,0,0,0,0,0,0,0,0,0,0,0,0,0,0,0,% MAGED F RIAD WHITMAN & RANSOM,0.0,3.0,1.0,1.0,4.0,1.0,13.0,0.0,1.0,12,,,36061.0,5602.0,5600.0,0.81765,1997,NY,10166,NEW YORK,PF,S,ZA,A,IN,,A,A,AR,AR,AR,A11,,,,,,,A1170,A
7307,133614414,1997,199712,3,92,95285,1878185,N,Y,N,N,N,N,N,N,N,N,N,N,N,N,N,N,N,N,N,92.0,0.0,0.0,199302.0,ATHANASIADES CULTURAL FOUNDATION INC,ASTORIA,NY,11103,30 96 42ND ST,11103-3031,300,71805,20924,0,0,256,0,15060,50112,45173,39104,59677,59933,0,0,0,0,0,1878185,77336,77933,2000,94729,94985,35052,35052,24044,35052,35052,61421,0,0,1878185,0,1878185,597,0,0,0,0,0,0,37,0,1582400,77300,0,0,0,0,0,0,0,0,0,0,0,0,0,0,0,0,0,0,0,0,0,0,0,0,0,0,0,0,0,0,0,0,0,0,0,0,0,0,0,0,597,,0.0,3.0,1.0,1.0,4.0,1.0,11.0,0.0,1.0,12,,,36081.0,5602.0,5600.0,0.155029,1997,NY,11103,ASTORIA,PF,S,ZB,A,IN,,A,A,AR,AR,AR,A12,,,,,,,A1220,A
7308,133614524,1997,199706,3,994,0,0,N,N,N,N,N,N,N,N,N,N,N,N,N,N,N,N,N,N,N,994.0,351.0,0.0,199402.0,NORTH RIVER COMMUNITY ENVIRONMENTAL REVIEW BOARD,NEW YORK,NY,10031,PO BOX 605,10031-0605,0,0,0,0,0,0,0,0,0,0,0,153,0,0,0,0,0,0,0,0,0,0,153,0,0,0,0,0,0,0,0,0,0,0,0,3,0,0,0,0,0,0,0,0,0,0,0,0,0,0,0,0,0,0,0,0,0,0,0,0,0,0,0,0,0,0,0,0,0,0,0,0,0,0,0,0,0,0,0,0,0,0,0,0,0,0,3,% L ANN ROCKER,0.0,3.0,1.0,1.0,4.0,1.0,13.0,0.0,1.0,6,,,36061.0,5602.0,5600.0,0.5743550000000001,1996,NY,10031,NEW YORK,PF,O,AR,A,IN,,A,A,AR,AR,AR,A33,,,,,,,A33,A
7310,133614971,1997,199711,3,123,6868000,22247220,N,N,N,N,Y,N,N,N,N,N,N,N,N,N,N,N,N,N,N,123.0,124.0,0.0,199108.0,SOLOW ART AND ARCHITECTURE FOUNDATION,NEW YORK,NY,10019,9 W 57TH ST,10019-2701,6868000,0,0,0,0,0,0,27250,30249,6837751,29939,0,0,0,0,0,0,0,24047220,0,260,0,0,0,2999,0,2689,0,0,2811,0,0,24047220,0,22247220,0,0,0,0,0,0,0,0,0,5300,0,0,0,0,2946,2946,30892,38361,189374,19045,277672,24047220,15409469,15372459,5591731,60420879,22244409,15401707,15370585,5587805,58604506,173,161,259,1964,2557,0,0,0,0,0,0,0,0,0,0,0,0,0,0,0,0,% SHELDON H SOLOW,0.0,3.0,2.0,1.0,3.0,1.0,13.0,0.0,1.0,11,,,36061.0,5602.0,5600.0,0.31037600000000004,1996,NY,10019,NEW YORK,PF,O,AR,A,IN,,A,A,AR,AR,AR,A40,,,,,,,A40,A
7315,133617098,1997,199706,3,560,53,2710,N,N,N,N,N,N,N,N,N,N,N,N,N,N,N,N,N,N,N,560.0,0.0,0.0,199203.0,CHARLES SCHWARTZ FOUNDATION FOR MUSIC,NEW YORK,NY,10014,PO BOX 20121,10014-0709,0,53,0,0,0,0,0,0,0,53,0,0,0,0,0,0,0,0,2710,1,0,0,0,0,0,0,0,0,0,2710,0,0,2710,0,2710,0,0,0,0,0,0,0,0,0,0,0,0,0,0,0,0,0,0,0,0,0,0,0,0,0,0,0,0,0,0,0,0,0,0,0,0,0,0,0,0,0,0,0,0,0,0,0,0,0,0,0,0,% CHARLES SCHWARTZ,0.0,3.0,1.0,1.0,4.0,1.0,13.0,0.0,1.0,6,,,36061.0,5602.0,5600.0,0.255807,1996,NY,10014,NEW YORK,PF,O,AR,A,IN,,A,A,AR,AR,AR,A68,,,,,,,A68,A
7331,133620909,1997,199706,3,602,4660481,13862699,N,N,N,N,N,N,N,N,Y,N,N,N,N,N,N,N,N,Y,N,602.0,119.0,0.0,199108.0,AARON COPLAND FUND FOR MUSIC INC,NEW YORK,NY,10048,TWO WORLD TRADE CENTER 39 FLR,10048-3998,0,118350,408178,2069001,0,2064952,0,914289,1194744,3465737,1063953,4546235,0,3662545,1550934,1236465,6449944,675421,13880032,0,636515,0,4660481,0,280455,114246,149664,114246,0,0,0,0,13880032,0,13187278,90925,0,0,36000,0,28000,0,0,0,12924200,545600,0,0,0,0,0,0,0,0,0,0,0,0,0,0,0,0,0,0,0,0,0,0,0,0,0,0,0,0,0,0,0,0,0,0,0,0,0,0,0,0,90925,% ELLIS J FREEDMAN,0.0,3.0,2.0,1.0,4.0,1.0,13.0,0.0,1.0,6,,,36061.0,5602.0,5600.0,0.158621,1996,NY,10048,NEW YORK,PF,O,AR,A,IN,,A,A,AR,AR,AR,A68,,,,,,,A68,A
7342,133626986,1997,199706,3,998,1000,46474,N,N,N,N,N,N,N,N,N,N,N,N,N,N,N,N,N,N,N,998.0,0.0,0.0,199201.0,FRIENDS OF LOUISIANA MUSEUM OF MODERN ART IN DENMARK INC,NEW YORK,NY,10020,620 FIFTH AVE STE 314,10020-2402,1000,0,0,0,0,0,0,0,335,665,0,0,0,0,0,0,0,1580,46474,0,0,0,0,0,335,0,0,0,0,4799,0,0,46474,0,44894,0,0,0,0,0,0,0,0,0,0,0,0,0,0,0,0,0,0,0,0,0,0,0,0,0,0,0,0,0,0,0,0,0,0,0,0,0,0,0,0,0,0,0,0,0,0,0,0,0,0,0,0,% ROSE & BOXER,0.0,3.0,1.0,1.0,4.0,1.0,13.0,0.0,1.0,6,,,36061.0,5602.0,5600.0,0.393077,1996,NY,10020,NEW YORK,PF,S,ZA,A,IN,,A,A,AR,AR,AR,A11,,,,,,,A1151,A
7359,133632295,1997,199712,3,460,0,0,N,N,N,N,N,N,N,N,N,N,N,N,N,N,N,N,N,N,N,460.0,0.0,0.0,199007.0,AFRICAN-CENTERED EDUCATIONAL PROJECT INC,NEW YORK,NY,10031,400 W 149TH ST STE 2,10031-2819,0,0,0,0,0,0,0,0,0,0,0,0,0,0,0,0,0,0,0,0,0,0,0,0,0,0,0,0,0,0,0,0,0,0,0,0,0,0,0,0,0,0,0,0,0,0,0,0,0,0,0,0,0,0,0,0,0,0,0,0,0,0,0,0,0,0,0,0,0,0,0,0,0,0,0,0,0,0,0,0,0,0,0,0,0,0,0,% ALICE DEAR,0.0,3.0,1.0,1.0,4.0,1.0,13.0,0.0,1.0,12,,,36061.0,5602.0,5600.0,0.720036,1997,NY,10031,NEW YORK,PF,O,AR,A,IN,,A,A,AR,AR,AR,A23,,,,,,,A23,A
7418,133641609,1996,199612,3,321,681,79047,N,N,N,N,Y,N,N,N,N,N,N,N,N,N,N,N,N,N,N,321.0,349.0,0.0,199302.0,ALEXANDER JEROME WILLOWS GREENBURGER MEMORIAL FIELDS INC,NEW YORK,NY,10003,55 FIFTH AVE,10003-4301,0,0,681,0,0,0,0,4000,4160,-3479,4160,681,521,0,0,0,0,0,380072,0,1252,0,681,681,0,0,0,0,160,23672,0,0,380072,0,79047,14,0,0,0,0,0,0,0,0,25400,1200,521,485,177,0,1183,4000,1500,2500,10885,18885,380072,383564,384592,386915,1535143,356400,356400,356400,356400,1425600,0,0,0,0,0,0,0,0,0,0,0,0,0,0,0,681,635,407,189,1912,14,% TIME EQUITIES INC,0.0,3.0,1.0,1.0,4.0,1.0,13.0,0.0,1.0,12,,,36061.0,5602.0,5600.0,0.0572842,1996,NY,10003,NEW YORK,PF,O,AR,A,IN,,A,A,AR,AR,AR,A80,,,,,,,A80,A
7460,133667916,1996,199612,3,88,453326,224307,N,Y,N,N,N,N,N,N,N,N,N,N,N,N,N,N,N,N,N,88.0,0.0,0.0,199311.0,AXIS THEATRE CO INC,NEW YORK,NY,10019,1370 AVE OF THE AMERICAS,10019-4602,453326,0,0,0,0,0,85386,0,358008,95318,353472,0,0,0,0,0,0,4098,224307,0,921,0,0,0,358008,0,353472,0,0,0,0,0,224307,0,220209,0,0,0,0,0,0,0,0,0,18700,900,0,0,0,0,0,0,0,0,0,0,0,0,0,0,0,0,0,0,0,0,0,0,0,0,0,0,0,0,0,0,0,0,0,0,0,0,0,0,0,0,0,% ERNST AND YOUNG LLPT EYBERG MGR,0.0,3.0,1.0,1.0,4.0,1.0,13.0,0.0,1.0,12,,,36061.0,5602.0,5600.0,0.8907870000000001,1996,NY,10019,NEW YORK,PF,O,AR,A,IN,,A,A,AR,AR,AR,A65,,,,,,,A65,A
7473,133672458,1997,199712,3,122,45506,65790,N,N,N,N,N,Y,N,N,N,N,N,N,N,N,N,N,N,N,N,122.0,0.0,0.0,199810.0,COMMUNICATION FOR CHANGE,NEW YORK,NY,10001,146 W 29TH ST FL 6,10001-5303,2450,1017,0,0,0,42039,16600,0,55746,-10240,6574,1017,0,0,0,0,0,87021,65790,0,0,0,1017,43056,55746,0,6574,0,49172,53677,0,0,65790,0,-21231,20,0,0,0,0,0,0,0,0,0,0,0,0,0,0,0,0,0,0,0,0,0,0,0,0,0,0,0,0,0,0,0,0,0,0,0,0,0,0,0,0,0,0,0,0,0,0,0,0,0,0,20,,0.0,3.0,1.0,1.0,15.0,1.0,13.0,0.0,10.0,12,,,36061.0,5602.0,5600.0,0.864099,1997,NY,10001,NEW YORK,PC,O,AR,A,IN,,A,A,AR,AR,AR,A30,,,,,,,A30,A
7478,133673809,1997,199712,3,994,0,0,N,N,N,N,N,N,N,N,N,N,N,N,N,N,N,N,N,N,N,994.0,90.0,0.0,199404.0,MAJESTIC OPERA ASSOCIATION INC,NEW YORK,NY,10038,5 BEEKMAN ST,10038-2206,0,0,0,0,0,0,0,0,0,0,0,0,0,0,0,0,0,0,0,0,0,0,0,0,0,0,0,0,0,0,0,0,0,0,0,0,0,0,0,0,0,0,0,0,0,0,0,0,0,0,0,0,0,0,0,0,0,0,0,0,0,0,0,0,0,0,0,0,0,0,0,0,0,0,0,0,0,0,0,0,0,0,0,0,0,0,0,% IRVING LEHAT,0.0,3.0,1.0,1.0,4.0,1.0,13.0,0.0,1.0,12,,,36061.0,5602.0,5600.0,0.00621166,1997,NY,10038,NEW YORK,PF,O,AR,A,IN,,A,A,AR,AR,AR,A6A,,,,,,,A6A,A
7483,133674360,1996,199612,3,90,5073395,10198391,N,N,N,N,Y,N,N,N,Y,N,N,N,N,N,N,N,Y,N,N,90.0,62.0,93.0,199302.0,CIVITELLA RANIERI FOUNDATION,NEW YORK,NY,10016,10 E 40TH ST,10016-0200,4131584,0,183605,231385,0,515501,31468,0,993663,4079732,871739,1112132,194039,0,6982507,0,6982507,0,10198392,0,332925,11320,1140453,194039,993663,28321,871739,28321,0,4999,0,0,10198392,0,10198391,22243,0,0,22400,0,0,0,0,157,6759900,310700,194039,103160,35159,12326,344684,871739,452615,403854,386381,2114589,10198391,5489399,1759617,994551,18441958,10198391,5489399,1759617,994551,18441958,0,0,0,0,0,0,0,0,0,0,0,0,0,0,0,0,0,0,0,0,22243,% GERALD E RUPP TTEE,0.0,3.0,1.0,1.0,4.0,2.0,13.0,0.0,1.0,12,,,36061.0,5602.0,5600.0,0.186082,1996,NY,10016,NEW YORK,PF,O,AR,A,IN,,A,A,AR,AR,AR,A20,,,,,,,A20,A
7489,133676158,1996,199606,3,88,162,43873,N,N,N,N,N,N,Y,Y,N,Y,N,N,N,N,N,N,N,N,N,88.0,90.0,0.0,199212.0,BASINGSTOKE PRODUCTIONS LTD,NEW YORK,NY,10036,543 WEST 43RD STREET 8015,10036-4305,0,162,0,0,0,0,0,0,15809,-15647,12486,162,162,0,0,0,0,204314,32483,12134,0,0,162,162,15809,0,12486,0,0,0,0,0,32483,0,-160441,3,0,0,0,0,0,0,0,0,0,0,0,0,0,0,0,0,0,0,0,0,0,0,0,0,0,0,0,0,0,0,0,0,0,0,0,0,0,0,0,0,0,0,0,0,0,0,0,0,0,0,3,,0.0,3.0,1.0,1.0,4.0,1.0,13.0,0.0,1.0,6,,,36061.0,5602.0,5600.0,0.0757182,1995,NY,10036,NEW YORK,PF,O,AR,A,IN,,A,A,AR,AR,AR,A60,,,,,,,A60,A
7497,133680271,1998,199807,3,60,35378,24282,N,Y,N,N,N,N,N,N,N,N,N,N,N,N,N,N,N,N,N,60.0,0.0,0.0,199301.0,MUSEUM VIEWS LTD,NEW YORK,NY,10010,2 PETER COOPER RD,10010-6723,33333,0,835,0,0,1210,18000,0,31643,3735,30412,814,0,0,0,0,0,0,24282,0,1196,0,835,1210,31643,21,30412,21,1210,24282,0,0,24282,0,24282,8,0,0,0,0,0,0,0,0,24300,0,0,0,0,0,0,0,0,0,0,0,0,0,0,0,0,0,0,0,0,0,0,0,0,0,0,0,0,0,0,0,0,0,0,0,0,0,0,0,0,0,8,% LILA A SHERMAN,0.0,3.0,1.0,1.0,4.0,1.0,13.0,0.0,1.0,7,MUSEUM VIEWS,,36061.0,5602.0,5600.0,0.133894,1997,NY,10010,NEW YORK,PF,O,AR,A,IN,,A,A,AR,AR,AR,A50,,,,,,,A50,A
7515,133685701,1996,199612,3,90,138372,89758,N,N,N,N,N,N,N,N,N,N,N,N,N,N,N,N,N,N,N,90.0,0.0,0.0,199305.0,LIVING ARTS INC,NEW YORK,NY,10019,250 W 57TH ST,10019-3741,0,0,0,0,138372,0,35000,0,98913,39459,0,0,138372,0,0,0,0,0,89758,0,0,0,0,138372,98913,0,0,0,0,1259,0,0,89758,0,89758,0,0,0,0,0,0,0,0,0,0,0,0,0,0,0,0,0,0,0,0,0,0,0,0,0,0,0,0,0,0,0,0,0,0,0,0,0,0,0,0,0,0,0,0,0,0,0,0,0,0,0,0,% PETER KLEIN,0.0,3.0,1.0,1.0,4.0,1.0,13.0,0.0,1.0,12,,,36061.0,5602.0,5600.0,0.260419,1996,NY,10019,NEW YORK,PF,O,AR,A,IN,,A,A,AR,AR,AR,A26,,,,,,,A26,A
7536,133693565,1997,199706,3,994,1,1,N,N,N,N,Y,N,N,N,N,N,N,N,N,N,N,N,N,N,N,994.0,122.0,0.0,199306.0,CROWING ROOSTER ARTS INC,NEW YORK,NY,10013,180 W BROADWAY RM 302,10013-2906,0,0,0,0,0,0,0,0,0,1,0,768,0,0,0,0,0,0,1,0,0,0,768,0,0,0,0,0,0,0,0,0,1,0,0,15,0,0,0,0,0,0,0,0,0,0,1,0,0,0,1,0,0,0,0,0,1,0,0,0,1,0,0,0,0,0,0,0,0,0,0,0,0,0,0,0,0,0,0,0,0,0,0,0,0,0,15,% RUDI STERN,0.0,3.0,1.0,1.0,4.0,1.0,13.0,199706.0,1.0,6,,M,36061.0,5602.0,5600.0,0.361701,1996,NY,10013,NEW YORK,PF,O,AR,A,IN,,A,A,AR,AR,AR,A20,,,,,,,A20,A
7560,133699100,1997,199712,3,602,52152,76738,N,N,N,N,N,N,N,N,N,N,N,N,N,N,N,N,N,N,N,602.0,0.0,0.0,199305.0,MR AND MRS RAYMOND J HOROWITZ FOUNDATION FOR THE ARTS INC,NEW YORK,NY,10016,600 THIRD AVE,10016-1901,40633,29,12174,0,0,0,0,2000,2139,50013,2000,12064,12203,0,74988,0,74988,0,74669,144,2478,0,12203,12203,139,139,0,139,0,675,0,0,74669,0,76738,241,0,0,0,0,0,0,0,0,50300,2200,0,0,0,0,0,0,0,0,0,0,0,0,0,0,0,0,0,0,0,0,0,0,0,0,0,0,0,0,0,0,0,0,0,0,0,0,0,0,0,0,241,% RAYMOND J HOROWITZ,0.0,3.0,1.0,1.0,4.0,1.0,13.0,0.0,1.0,12,,,36061.0,5602.0,5600.0,0.735845,1997,NY,10016,NEW YORK,PF,S,ZB,A,IN,,A,A,AR,AR,AR,A12,,,,,,,A12,A
7583,133711111,1997,199712,3,994,0,1,N,N,N,N,N,N,N,N,N,N,N,N,N,N,N,N,N,N,N,994.0,0.0,0.0,199306.0,COBH HERITAGE FOUNDATION,NEW YORK,NY,10005,88 PINE ST,10005-1801,0,0,0,0,0,0,0,0,0,0,0,0,0,0,0,0,0,0,1737,0,0,0,0,0,0,0,0,0,0,0,0,0,1737,0,0,0,0,0,0,0,0,0,0,0,0,0,0,0,0,0,0,0,0,0,0,0,0,0,0,0,0,0,0,0,0,0,0,0,0,0,0,0,0,0,0,0,0,0,0,0,0,0,0,0,0,0,0,% CHARLES D MOONEY,0.0,3.0,1.0,1.0,4.0,1.0,13.0,0.0,1.0,12,,,36061.0,5602.0,5600.0,0.34335,1997,NY,10005,NEW YORK,PF,O,AR,A,IN,,A,A,AR,AR,AR,A82,,,,,,,T99,T
7601,133719303,1997,199703,3,914,23200,3389,N,N,N,N,Y,N,N,N,N,N,N,N,N,N,N,N,N,N,N,914.0,119.0,0.0,199504.0,KAWAMURA CULTURAL FOUNDATION INC,NEW YORK,NY,10017,675 3RD AVE STE 3008,10017-5704,23200,0,0,0,0,0,0,0,29050,-5850,28179,0,0,0,0,0,0,21029,3389,315,315,0,0,0,29050,0,28179,0,0,32,0,0,3389,0,-17640,0,0,0,0,0,0,0,0,0,6400,300,1,0,0,0,1,28179,24323,24902,140635,218039,0,0,0,0,0,0,0,0,0,0,210,227,17,164,618,0,0,0,0,0,0,0,0,0,0,0,0,0,0,0,0,% KISO & TANAKA,0.0,3.0,2.0,1.0,3.0,1.0,13.0,0.0,1.0,3,,,36061.0,5602.0,5600.0,0.7161270000000001,1996,NY,10017,NEW YORK,PF,S,ZB,A,IN,,A,A,AR,AR,AR,A12,,,,,,,A1220,A
7606,133721844,1995,199512,3,40,23923,234613,N,Y,N,N,N,N,N,N,N,N,N,N,N,N,N,N,N,N,N,40.0,0.0,0.0,199311.0,MICHAEL HAUSMAN FILMHAUS FOUNDATION INC,NEW YORK,NY,10003,736 BROADWAY,10003-9519,9118,1326,9421,4058,0,0,0,12100,15720,8203,15720,14805,0,0,121228,51259,172487,0,238905,0,11197,0,14805,0,3620,0,3620,0,0,0,0,5034,238905,0,234613,148,0,0,109,0,0,0,0,0,227400,11000,0,0,0,0,0,0,0,0,0,0,0,0,0,0,0,0,0,0,0,0,0,0,0,0,0,0,0,0,0,0,0,0,0,0,0,0,0,0,0,0,148,% MICHAEL HAUSMAN,0.0,3.0,1.0,1.0,4.0,1.0,13.0,0.0,1.0,12,,,36061.0,5602.0,5600.0,0.8243229999999999,1995,NY,10003,NEW YORK,PF,O,AR,A,IN,,A,A,AR,AR,AR,A31,,,,,,,A31,A
7617,133729181,1997,199712,3,994,0,1,N,N,N,N,N,N,N,N,N,N,N,N,N,N,N,N,N,N,N,994.0,88.0,0.0,199308.0,FIREDRAKE INC,ASTORIA,NY,11105,22 61 38TH STEET 3RD FLOOR,11105-1833,0,0,0,0,0,0,0,0,0,0,0,0,0,0,0,0,0,0,1,0,0,0,0,0,0,0,0,0,0,0,0,0,0,0,0,0,0,0,0,0,0,0,0,0,0,0,0,0,0,0,0,0,0,0,0,0,0,0,0,0,0,0,0,0,0,0,0,0,0,0,0,0,0,0,0,0,0,0,0,0,0,0,0,0,0,0,0,% JOSEPH W RINALDI,0.0,3.0,1.0,1.0,4.0,1.0,11.0,200212.0,1.0,12,,,36081.0,5602.0,5600.0,0.39759099999999997,1997,NY,11105,ASTORIA,PF,O,AR,A,IN,,A,A,AR,AR,AR,A65,,,,,,,A65,A
7693,133747036,1996,199611,3,62,1852484,5101956,N,N,N,N,Y,N,N,N,N,N,N,N,N,N,N,N,N,N,N,62.0,0.0,0.0,199409.0,CLASSICAL AMERICAN HOMES PRESERVATION TR,NEW YORK,NY,10172,277 PARK AVE,10172-0003,1822956,0,0,0,0,29528,0,0,161486,1690998,96320,0,0,0,0,0,0,0,5101956,0,0,0,0,29528,161486,0,96320,0,65166,57644,0,0,5101956,0,5101956,0,0,0,0,0,0,0,0,0,0,0,1,0,0,0,1,96320,91360,90018,0,277698,5259925,4710222,3208096,0,13178243,5202281,4671000,3156153,0,13029434,0,0,0,0,0,0,127910,122500,0,250410,0,0,0,0,0,0,0,0,0,0,0,% WINTHROP TRUST COMPANY,0.0,3.0,1.0,1.0,3.0,1.0,13.0,0.0,1.0,11,,,36061.0,5602.0,5600.0,0.699749,1995,NY,10172,NEW YORK,PF,O,AR,A,IN,,A,A,AR,AR,AR,A82,,,,,,,A82,A
7724,133749071,1997,199712,3,602,0,1190,N,N,N,N,N,N,N,N,N,N,N,N,N,N,N,N,N,N,N,602.0,0.0,0.0,199403.0,VATICAN MUSEUMS FOUNDATION,NEW YORK,NY,10022,919 THIRD AVE,10022-3901,0,0,0,0,0,0,0,0,0,0,0,0,0,0,0,0,0,0,1190,59,59,0,0,0,0,0,0,0,0,0,0,0,1190,0,1190,0,0,0,0,0,0,0,0,0,1200,100,0,0,0,0,0,0,0,0,0,0,0,0,0,0,0,0,0,0,0,0,0,0,0,0,0,0,0,0,0,0,0,0,0,0,0,0,0,0,0,0,0,% KRAMER LEVIN NAFTALIS & FRANKEL,0.0,3.0,1.0,1.0,4.0,1.0,13.0,0.0,1.0,12,,,36061.0,5602.0,5600.0,0.303199,1997,NY,10022,NEW YORK,PF,O,AR,A,IN,,A,A,AR,AR,AR,A50,,,,,,,A50,A
7740,133753037,1997,199712,3,124,0,-923,N,N,N,N,N,N,Y,N,N,N,N,N,N,N,N,N,N,N,N,124.0,125.0,0.0,199408.0,PUBLIC OPINION INC,NEW YORK,NY,10022,429 E 52ND ST,10022-6430,0,0,0,0,0,0,276,0,276,-276,0,0,0,0,0,0,0,0,1027,0,0,0,0,0,0,0,0,0,0,162,0,1027,1027,1950,-923,0,0,0,0,0,0,0,0,0,0,0,0,0,0,0,0,0,0,0,0,0,0,0,0,0,0,0,0,0,0,0,0,0,0,0,0,0,0,0,0,0,0,0,0,0,0,0,0,0,0,0,0,% MICHAEL BARNETT,0.0,3.0,1.0,1.0,4.0,1.0,13.0,0.0,1.0,12,,,36061.0,5602.0,5600.0,0.138898,1997,NY,10022,NEW YORK,PF,O,AR,A,IN,,A,A,AR,AR,AR,A70,,,,,,,A70,A
7798,133781874,1996,199612,3,60,204352,264115,N,N,N,N,N,N,N,N,N,N,N,N,N,N,N,N,N,N,N,60.0,0.0,0.0,199503.0,COBY FOUNDATION LTD,NEW YORK,NY,10005,1 CHASE MANHATTAN PLZ,10005-1401,188023,0,16329,0,0,0,0,0,1675,202677,0,14654,14654,150372,0,100151,250523,0,261611,0,12338,0,16329,16329,1675,0,0,1675,1675,7183,0,0,261611,0,264115,293,0,0,0,0,0,0,0,0,250500,0,0,0,0,0,0,0,0,0,0,0,0,0,0,0,0,0,0,0,0,0,0,0,0,0,0,0,0,0,0,0,0,0,0,0,0,0,0,0,0,0,293,MILBANK TWEED HADLEY & MCCLOY,0.0,3.0,1.0,1.0,4.0,1.0,13.0,0.0,1.0,12,,,36061.0,5602.0,5600.0,0.341175,1996,NY,10005,NEW YORK,PF,O,AR,A,IN,,A,A,AR,AR,AR,A51,,,,,,,A51,A
7813,133787051,1996,199612,3,350,0,6036,N,N,N,N,N,N,N,N,N,N,N,N,N,N,N,N,N,N,N,350.0,0.0,0.0,199409.0,NEW YORK ART & CULTURE FOUNDATION INC,NEW YORK,NY,10019,10 W 56TH ST,10019-3801,0,0,0,0,0,0,0,0,0,0,0,0,0,0,0,0,0,6036,6036,0,0,0,0,0,0,0,0,0,0,0,0,0,6036,0,0,0,0,0,0,0,0,0,0,0,0,0,0,0,0,0,0,0,0,0,0,0,0,0,0,0,0,0,0,0,0,0,0,0,0,0,0,0,0,0,0,0,0,0,0,0,0,0,0,0,0,0,0,,0.0,3.0,1.0,1.0,4.0,1.0,13.0,0.0,1.0,12,,,36061.0,5602.0,5600.0,0.370309,1996,NY,10019,NEW YORK,PF,S,ZB,A,IN,,A,A,AR,AR,AR,A12,,,,,,,A12,A
7836,133794021,1996,199612,3,602,130000,109286,N,Y,N,N,N,N,N,N,N,N,N,N,N,N,N,N,N,N,N,602.0,0.0,0.0,199505.0,GOTTLIEB-SCHWARTZ FAMILY FOUNDATION INC,STATEN ISLAND,NY,10314,724 COLLFIELD AVE,10314-4253,130000,0,0,0,0,0,0,149010,149244,-19244,149010,0,0,0,0,0,0,0,109286,0,5856,0,0,0,234,0,0,0,0,109286,0,0,109286,0,109286,0,0,0,0,0,0,0,0,0,118900,5900,0,0,0,0,0,0,0,0,0,0,0,0,0,0,0,0,0,0,0,0,0,0,0,0,0,0,0,0,0,0,0,0,0,0,0,0,0,0,0,0,0,% WEISS & COMPANY,0.0,3.0,1.0,1.0,4.0,1.0,13.0,0.0,1.0,12,,,36085.0,5602.0,5600.0,0.235217,1996,NY,10314,STATEN ISLAND,PF,O,AR,A,IN,,A,A,AR,AR,AR,A60,,,,,,,A60,A
7845,133795843,1997,199709,3,559,82071,169116,N,Y,N,N,Y,N,N,N,N,N,N,N,N,N,N,N,N,N,N,559.0,0.0,0.0,199507.0,DEANE & SUSAN PENN ART FOUNDATION INC,NEW YORK,NY,10118,350 FIFTH AVE STE 2822,10118-2899,20500,30868,0,0,0,30703,0,0,1224,80847,0,61571,61571,0,0,0,0,0,490155,28809,20560,0,61571,61571,1224,0,0,0,0,0,0,133136,490155,0,169116,616,0,0,0,0,0,0,0,0,417500,0,20560,12345,209,0,33114,29425,21280,7968,0,58673,0,0,0,0,0,0,0,0,0,0,13707,8230,4465,0,26402,0,0,0,0,0,0,0,0,0,0,0,0,0,0,0,616,% WOLLIN,0.0,3.0,1.0,1.0,3.0,1.0,13.0,0.0,1.0,9,,,36061.0,5602.0,5600.0,0.837516,1996,NY,10118,NEW YORK,PF,S,ZB,A,IN,,A,A,AR,AR,AR,A12,,,,,,,A12,A
7923,133802490,1997,199712,3,93,570880,243450,N,N,N,N,Y,N,N,N,N,N,N,N,N,N,N,N,N,N,N,93.0,0.0,0.0,199504.0,FOUNDATION FOR HELLENIC CULTURE INC,NEW YORK,NY,10019,7 W 57TH ST,10019-3402,552216,0,0,0,0,18664,57400,178817,587398,-16518,178817,0,0,0,0,0,0,28892,243450,0,493,0,0,18664,408581,0,0,0,36676,16151,0,0,243450,0,214558,0,0,0,0,0,0,0,0,0,10000,0,0,0,0,0,0,178817,230037,32180,0,441034,243450,210274,402654,0,856378,10000,12737,116165,0,138902,0,0,0,0,0,0,0,0,0,0,0,0,0,0,0,0,0,0,0,0,0,% GREGORY A SIORIS,0.0,3.0,1.0,1.0,3.0,1.0,13.0,0.0,1.0,12,,,36061.0,5602.0,5600.0,0.976548,1997,NY,10019,NEW YORK,PF,S,ZB,A,IN,,A,A,AR,AR,AR,A12,,,,,,,A12,A
7928,133802861,1996,199611,3,602,0,951,N,N,N,N,N,N,N,N,N,N,N,N,N,N,N,N,N,N,N,602.0,0.0,0.0,199604.0,SAUL P STEINBERG ART FOUNDATION,NEW YORK,NY,10055,PARK AVE PLZ,10055-0000,0,0,0,0,0,0,0,840000,841436,-841436,0,0,0,0,0,0,0,0,951,0,88,0,0,0,1436,0,0,0,0,951,0,0,951,0,951,0,0,0,0,0,0,0,0,0,1800,100,0,0,0,0,0,0,0,0,0,0,0,0,0,0,0,0,0,0,0,0,0,0,0,0,0,0,0,0,0,0,0,0,0,0,0,0,0,0,0,0,0,% RELIANCE GROUP HOLDINGS,0.0,3.0,1.0,1.0,4.0,1.0,13.0,0.0,1.0,11,,,36061.0,5602.0,5600.0,0.8187949999999999,1995,NY,10055,NEW YORK,PF,S,ZB,A,IN,,A,A,AR,AR,AR,A12,,,,,,,T20,T
7941,133808182,1996,199612,3,561,0,1,N,N,N,N,N,N,N,N,N,N,N,N,N,N,N,N,N,N,N,561.0,90.0,602.0,199509.0,SUSAN W ROSE FUND FOR MUSIC INC,NEW YORK,NY,10016,200 MADISON AVE,10016-3903,0,0,0,0,0,0,0,0,0,0,0,0,0,0,0,0,0,0,1,0,1,0,0,0,0,0,0,0,0,0,0,0,1,0,1,0,0,0,0,0,0,0,0,0,0,0,0,0,0,0,0,0,0,0,0,0,0,0,0,0,0,0,0,0,0,0,0,0,0,0,0,0,0,0,0,0,0,0,0,0,0,0,0,0,0,0,0,% MORRIS MANSFIELD,0.0,3.0,1.0,1.0,4.0,1.0,13.0,0.0,1.0,12,,,36061.0,5602.0,5600.0,0.872331,1996,NY,10016,NEW YORK,PF,O,AR,A,IN,,A,A,AR,AR,AR,A68,,,,,,,A68,A
7942,133809561,1997,199712,3,90,57097,61137,N,N,N,N,N,N,N,N,N,N,N,N,N,N,N,N,N,N,N,90.0,0.0,0.0,199505.0,ARTUR BALSAM FOUNDATION FOR CHAMBER MUSIC,NEW YORK,NY,10025,825 W END AVE 2C,10025-5349,52483,167,1911,1234,24,1278,0,500,27101,29996,26326,2537,2537,0,42673,0,42673,0,73007,0,2683,0,3312,3312,26601,775,25826,775,775,0,0,0,73007,0,61137,25,0,0,0,0,0,0,0,0,54500,2700,0,0,0,0,0,0,0,0,0,0,0,0,0,0,0,0,0,0,0,0,0,0,0,0,0,0,0,0,0,0,0,0,0,0,0,0,0,0,0,0,25,% MOSHE MIRSKY,0.0,3.0,1.0,1.0,4.0,1.0,13.0,0.0,1.0,12,,,36061.0,5602.0,5600.0,0.6542180000000001,1997,NY,10025,NEW YORK,PF,O,AR,A,IN,,A,A,AR,AR,AR,A6C,,,,,,,A6C,A
7944,133818000,1996,199612,3,200,0,0,N,N,N,N,N,N,N,N,N,N,N,N,N,N,N,N,N,N,N,200.0,0.0,0.0,199508.0,AMERICAN FRIENDS OF THE YEMENITE JEWISH MUSEUM,NEW YORK,NY,10038,132 NASSAU ST STE 812,10038-2400,0,0,0,0,0,0,0,0,0,0,0,0,0,0,0,0,0,0,0,0,0,0,0,0,0,0,0,0,0,0,0,0,0,0,0,0,0,0,0,0,0,0,0,0,0,0,0,0,0,0,0,0,0,0,0,0,0,0,0,0,0,0,0,0,0,0,0,0,0,0,0,0,0,0,0,0,0,0,0,0,0,0,0,0,0,0,0,% NAGAR ORGANIZATION,0.0,3.0,1000.0,1.0,4.0,1.0,13.0,0.0,1.0,12,,,36061.0,5602.0,5600.0,0.307838,1996,NY,10038,NEW YORK,PF,S,ZA,A,IN,,A,A,AR,AR,AR,A11,,,,,,,A1150,A
7949,133830526,1997,199712,3,602,4761,1921100,N,Y,N,N,N,N,N,N,N,N,N,Y,N,N,N,N,N,N,N,602.0,0.0,0.0,199506.0,DOROTHY DEHNER FOUNDATION FOR THE VISUAL ARTS,NEW YORK,NY,10006,61 BROADWAY 18TH FLR,10006-2701,24465,1093,0,0,0,0,0,112350,148253,-143492,148238,1093,0,0,0,0,0,0,1921100,0,98148,0,1093,0,35903,0,35888,0,0,23537,0,0,1921100,0,1921100,11,0,0,0,0,0,0,0,0,1992800,98100,0,0,0,0,0,0,0,0,0,0,0,0,0,0,0,0,0,0,0,0,0,0,0,0,0,0,0,0,0,0,0,0,0,0,0,0,0,0,0,0,11,% BRAUNER BARON ROSENZWEIG & KLEIN,0.0,3.0,1.0,1.0,4.0,1.0,13.0,0.0,1.0,12,,,36061.0,5602.0,5600.0,0.21599899999999997,1997,NY,10006,NEW YORK,PF,O,AR,A,IN,,A,A,AR,AR,AR,A40,,,,,,,A40,A
7955,133832587,1997,199706,3,60,1061077,153135,N,N,N,N,Y,N,N,N,N,N,N,N,N,N,N,N,N,N,N,60.0,199.0,119.0,199508.0,INSTITUTE FOR AEGEAN PREHISTORY STUDY CENTER FOR EAST CRETE,NE YORK,NY,10020,1270TH AVE OF THE AMERICAS,10020-1700,1055500,92,0,0,0,5485,0,758500,910552,150525,906377,92,5577,0,0,0,0,0,153135,0,1468,0,92,5577,152052,0,147877,0,0,94916,0,0,153135,0,153135,2,0,0,0,0,0,0,0,0,29800,0,1468,0,0,0,1468,906377,742440,0,0,1648817,0,0,0,0,0,0,0,0,0,0,979,366,3,0,1348,0,0,0,0,0,0,0,0,0,0,0,0,0,0,0,2,% MILLBURN CORPORATION,0.0,3.0,1.0,1.0,3.0,1.0,13.0,0.0,1.0,6,,,36061.0,5602.0,5600.0,0.8903909999999999,1996,NY,10020,NE YORK,PF,O,AR,A,IN,,A,A,AR,AR,AR,A70,,,,,,,A70,A
7966,133838457,1996,199612,3,91,5561,2364,N,N,N,N,Y,N,N,N,N,N,N,N,N,N,N,N,N,N,N,91.0,0.0,0.0,199512.0,PIERRE AND MARIA-GAETANA MATISSE CHARITABLE FOUNDATION,NEW YORK,NY,10022,1 E 53RD ST,10022-4200,5500,61,0,0,0,0,0,0,13197,-7636,2286,0,0,0,0,0,0,0,2364,0,232,0,61,61,13197,837,2286,837,837,0,0,0,2364,0,2364,0,0,0,0,0,0,0,0,0,4700,0,1,0,0,0,1,2286,0,0,0,2286,0,10000,0,0,10000,0,10000,0,0,10000,155,25,0,0,180,0,0,0,0,0,0,0,0,0,0,0,0,0,0,0,0,,0.0,3.0,1.0,1.0,3.0,1.0,11.0,0.0,1.0,12,,,36061.0,5602.0,5600.0,0.47211400000000003,1996,NY,10022,NEW YORK,PF,O,AR,A,IN,,A,A,AR,AR,AR,A40,,,,,,,A40,A
8003,133861108,1997,199712,3,602,89,2402,N,N,N,N,N,N,N,N,N,N,N,N,N,N,N,N,N,N,N,602.0,0.0,0.0,199611.0,BRAZILIAN ARTS FOUNDATION INC,NEW YORK,NY,10022,645 MADISON AVE 17TH FLR,10022-1010,0,89,0,0,0,0,0,0,3534,-3445,0,89,0,0,0,0,0,0,2402,0,186,0,89,89,3534,0,0,0,3534,0,0,0,2402,0,2402,1,0,0,0,0,0,0,0,0,3800,200,0,0,0,0,0,0,0,0,0,0,0,0,0,0,0,0,0,0,0,0,0,0,0,0,0,0,0,0,0,0,0,0,0,0,0,0,0,0,0,0,1,% GRANT HERRMANN SCHWARTZ & KLINGER,0.0,3.0,1.0,1.0,4.0,1.0,13.0,0.0,1.0,12,,,36061.0,5602.0,5600.0,0.84298,1997,NY,10022,NEW YORK,PF,S,ZB,A,IN,,A,A,AR,AR,AR,A12,,,,,,,A12,A
8053,133876967,1997,199712,3,119,584091,147750,N,N,N,N,Y,N,Y,N,N,N,N,N,N,N,N,N,N,N,N,119.0,602.0,0.0,199606.0,ELF AQUITAINE INTERNATIONAL FOUNDATION INC,NEW YORK,NY,10022,444 MADISON AVE 20TH FLR,10022-6903,639492,0,0,0,-55401,0,0,0,170408,413683,170408,0,0,0,0,0,0,158622,147750,0,0,0,0,-55401,170408,0,170408,0,170408,75137,0,0,147750,0,-10872,0,0,0,0,0,0,0,0,0,6300,0,0,0,0,0,0,170408,977983,0,0,1148391,147750,477918,0,0,625668,0,0,0,0,0,0,0,0,0,0,628116,599377,0,0,1227493,11376,46476,0,0,57852,0,0,0,0,0,0,% EUGENE G MCGUIRE,0.0,3.0,1.0,1.0,3.0,1.0,13.0,0.0,1.0,12,,,36061.0,5602.0,5600.0,0.140597,1997,NY,10022,NEW YORK,PF,O,AR,A,IN,,A,A,AR,AR,AR,A54,,,,,,,A54,A
8064,133885307,1997,199709,3,91,10021402,9859734,N,N,N,N,Y,N,N,N,Y,N,N,N,N,N,N,N,N,N,N,91.0,0.0,0.0,199704.0,NANCY GRAVES FOUNDATION INC,NEW YORK,NY,10012,69 WOOSTER ST 4A,10012-4351,10015056,2877,0,2017,0,1452,66859,0,161668,9859734,158379,2877,2877,0,0,0,0,0,9859734,0,14881,0,2877,4329,161668,0,158379,0,1452,0,0,0,9859734,0,9859734,1,0,0,0,0,0,0,0,0,302100,0,2877,0,0,0,2877,2445,0,0,0,2445,9859734,0,0,0,9859734,9688621,0,0,0,9688621,9921,0,0,0,9921,0,0,0,0,0,0,0,0,0,0,0,0,0,0,0,1,% HECHT & COMPANY,0.0,3.0,1.0,1.0,3.0,1.0,13.0,0.0,1.0,9,,,36061.0,5602.0,5600.0,0.857987,1996,NY,10012,NEW YORK,PF,O,AR,A,IN,,A,A,AR,AR,AR,A51,,,,,,,A51,A
8072,133888511,1997,199703,3,119,726489,22296,N,N,N,N,N,N,N,N,N,N,N,N,N,N,N,N,N,N,N,119.0,0.0,0.0,199610.0,INTERNATIONAL FOUNDATION FOR ARTS & CULTURE INC,NEW YORK,NY,10017,100 UNITED NATIONS PLZ APT 40C,10017-1756,605518,1099,0,0,0,119872,0,120000,728408,-1919,703209,1099,0,0,0,0,0,24215,22296,0,813,0,1099,0,608408,0,583209,0,0,0,0,0,22296,0,-1919,22,0,0,0,0,0,0,0,0,17900,800,0,0,0,0,0,0,0,0,0,0,0,0,0,0,0,0,0,0,0,0,0,0,0,0,0,0,0,0,0,0,0,0,0,0,0,0,0,0,0,0,22,% TOSHU FUKAMI,0.0,3.0,2.0,1.0,4.0,1.0,13.0,0.0,1.0,3,,,36061.0,5602.0,5600.0,0.920891,1996,NY,10017,NEW YORK,PF,S,ZB,A,IN,,A,A,AR,AR,AR,A12,,,,,,,A1220,A
8076,133893379,1997,199703,3,91,405291,1482,N,N,N,N,Y,N,N,Y,N,N,N,N,N,N,N,N,N,N,N,91.0,119.0,120.0,199703.0,AMERICAN FOUNDATION FOR TEXTILE ART INC,NEW YORK,NY,10022,499 PARK AVENUE,10022-1240,405200,91,0,0,0,0,0,0,423518,-18227,423376,91,91,0,0,0,0,19709,1482,0,1714,0,91,91,423518,0,423676,0,0,0,0,0,1482,0,-18227,2,0,0,0,0,0,0,0,0,34800,0,91,0,0,0,91,424371,0,0,0,424371,0,0,0,0,0,0,0,0,0,0,1143,0,0,0,1143,0,0,0,0,0,0,0,0,0,0,0,0,0,0,0,2,,0.0,3.0,1.0,1.0,3.0,1.0,13.0,0.0,1.0,3,,,36061.0,5602.0,5600.0,0.586318,1996,NY,10022,NEW YORK,PF,O,AR,A,IN,,A,A,AR,AR,AR,A40,,,,,,,A40,A
8092,133902358,1997,199712,3,602,118294,104697,N,N,N,N,N,N,N,N,N,N,N,N,N,N,N,N,N,N,N,602.0,119.0,0.0,199702.0,JONATHAN LARSON PERFORMING ARTS FOUNDATION INC,NEW YORK,NY,10012,PO BOX 672 PRINCE ST STATION,10012-0013,117978,316,0,0,0,0,0,10000,33597,84697,10000,316,316,0,0,0,0,0,104697,0,3071,0,316,316,23597,0,0,0,0,0,0,0,104697,0,104697,6,0,0,0,0,0,0,0,0,62400,3100,0,0,0,0,0,0,0,0,0,0,0,0,0,0,0,0,0,0,0,0,0,0,0,0,0,0,0,0,0,0,0,0,0,0,0,0,0,0,0,0,6,% JAY S HARRIS,0.0,3.0,1.0,1.0,4.0,1.0,13.0,0.0,1.0,12,,,36061.0,5602.0,5600.0,0.608819,1997,NY,10012,NEW YORK,PF,S,ZB,A,IN,,A,A,AR,AR,AR,A12,,,,,,,A1260,A
8121,133915359,1997,199712,3,602,24752,45001,N,N,N,N,N,N,N,N,N,N,N,N,N,N,N,N,N,N,N,602.0,0.0,0.0,199701.0,VIOLA FOUNDATION,NEW YORK,NY,10036,1140 AVENUE OF THE AMERICAS,10036-5803,22105,177,121,2349,0,0,0,6255,6751,18001,6255,2151,0,0,0,0,0,0,45001,0,1773,0,2647,0,496,496,0,496,0,14774,0,0,45001,0,45001,22,0,0,0,0,0,0,0,0,36000,1800,0,0,0,0,0,0,0,0,0,0,0,0,0,0,0,0,0,0,0,0,0,0,0,0,0,0,0,0,0,0,0,0,0,0,0,0,0,0,0,0,22,% JAMES BERNATH,0.0,3.0,1.0,1.0,4.0,2.0,13.0,0.0,1.0,12,,,36061.0,5602.0,5600.0,0.24231999999999998,1997,NY,10036,NEW YORK,PF,O,AR,A,IN,,A,A,AR,AR,AR,A68,,,,,,,A68,A
8122,133915372,1997,199712,3,914,31961,9962,N,N,N,N,Y,N,N,N,N,N,N,N,N,N,N,N,N,N,N,914.0,92.0,119.0,199803.0,DACTYL FOUNDATION FOR THE ARTS & HUMANITIES INC,NEW YORK,NY,10013,64 GRAND STREET,10013-2267,31655,0,0,0,0,306,0,0,21999,9962,21693,0,0,0,0,0,0,0,9962,0,310,0,0,306,21999,0,21693,0,306,9962,0,0,9962,0,9962,0,0,0,0,0,0,0,0,0,6300,0,310,0,0,0,310,21387,0,0,0,21387,0,0,0,0,0,0,0,0,0,0,207,0,0,0,207,0,0,0,0,0,0,0,0,0,0,0,0,0,0,0,0,% VICTORIA N ALEXANDER,0.0,3.0,1.0,1.0,3.0,1.0,11.0,0.0,1.0,12,,,36061.0,5602.0,5600.0,0.9250229999999999,1997,NY,10013,NEW YORK,PF,S,ZB,A,IN,,A,A,AR,AR,AR,A12,,,,,,,W70,W
8202,133923541,1996,199612,3,602,60300,60300,N,N,N,N,N,N,N,N,N,N,N,N,N,N,N,N,N,N,N,602.0,0.0,0.0,199805.0,FOUNDATION FOR THE ADVANCEMENT OF ARCHITECTURAL THOUGHT,NEW YORK,NY,10036,1114 AVENUE OF THE AMERICAS,10036-7703,60300,0,0,0,0,0,0,0,0,60300,0,0,0,0,60300,0,60300,0,60300,16,16,0,0,0,0,0,0,0,0,0,0,0,60300,0,60300,0,0,0,0,0,0,0,0,0,60300,0,0,0,0,0,0,0,0,0,0,0,0,0,0,0,0,0,0,0,0,0,0,0,0,0,0,0,0,0,0,0,0,0,0,0,0,0,0,0,0,0,0,% KRONISH LIEB ET AL,0.0,3.0,1.0,1.0,4.0,2.0,11.0,0.0,1.0,12,,,36061.0,5602.0,5600.0,0.75537,1996,NY,10036,NEW YORK,PF,O,AR,A,IN,,A,A,AR,AR,AR,A01,,,,,,,A0140,A
8213,133926887,1997,199712,3,119,838260,471995,N,N,N,N,N,N,N,N,N,N,N,N,N,N,N,N,N,N,N,119.0,90.0,0.0,199703.0,LAURA PELS INTERNATIONAL FOUNDATION INC,NEW YORK,NY,10036,234 W 44TH STREET,10036-3909,800115,36559,1706,0,0,0,0,364333,366265,471995,365244,37244,0,299859,0,0,299859,0,481418,30153,30898,0,38265,0,1932,1021,911,1021,0,188,0,0,481418,0,471995,745,0,0,0,0,0,0,51,0,627400,200,0,0,0,0,0,0,0,0,0,0,0,0,0,0,0,0,0,0,0,0,0,0,0,0,0,0,0,0,0,0,0,0,0,0,0,0,0,0,0,0,745,% LAURA PELS,0.0,3.0,1.0,1.0,4.0,1.0,13.0,0.0,1.0,12,,,36061.0,5602.0,5600.0,0.6151220000000001,1997,NY,10036,NEW YORK,PF,O,AR,A,IN,,A,A,AR,AR,AR,A60,,,,,,,A60,A
8261,133935995,1997,199712,3,602,51233623,51189136,N,N,N,N,N,N,N,N,N,N,N,N,N,N,N,N,N,N,N,602.0,0.0,0.0,199706.0,LILY AUCHINCLOSS FOUNDATION INC,NEW YORK,NY,10111,630 FIFTH AVE,10111-0100,50416171,0,379522,437930,0,0,0,0,44463,51189160,16193,898557,0,18227530,28888112,0,47115642,0,54113354,1248304,536677,0,926827,0,44463,28270,16193,28270,0,44128,0,2000000,54113354,0,51189136,17971,0,0,0,0,35000,0,0,17029,10897000,518700,0,0,0,0,0,0,0,0,0,0,0,0,0,0,0,0,0,0,0,0,0,0,0,0,0,0,0,0,0,0,0,0,0,0,0,0,0,0,0,0,17971,% ALEXANDRA HERZAN,0.0,3.0,1.0,1.0,4.0,1.0,13.0,0.0,1.0,12,,,36061.0,5602.0,5600.0,0.215928,1997,NY,10111,NEW YORK,PF,O,AR,A,IN,,A,A,AR,AR,AR,A40,,,,,,,A40,A
8453,135635801,1995,199512,3,200,3568003,16021645,N,Y,N,N,Y,N,N,N,N,N,N,N,N,N,N,N,N,N,N,200.0,0.0,0.0,199201.0,ADIRONDACK HISTORICAL ASSOCIATION,NEW YORK,NY,10022,477 MADISON AVE,10022-5802,2079347,75307,78867,448908,0,885574,65563,0,2644234,923769,2503030,461878,1001505,0,5462624,0,5462624,174415,17611615,0,367991,0,603082,1142709,2644234,141204,2503030,141204,141204,324572,0,0,17611615,0,15847230,4619,0,0,0,0,0,0,0,0,7471900,0,367991,323367,299583,262074,1253015,2503030,2091884,2171749,2179727,8946390,17611615,17312501,17046544,15670350,67641010,0,0,9984311,9768096,19752407,245327,215578,199722,174716,835343,0,0,0,0,0,0,0,0,0,0,0,0,0,0,0,4619,% YOHALEM GILLMAN & CO,0.0,3.0,1.0,1.0,15.0,1.0,13.0,199612.0,10.0,12,,,36061.0,5602.0,5600.0,0.640074,1995,NY,10022,NEW YORK,PC,O,AR,A,IN,,A,A,AR,AR,AR,A54,,,,,,,A54,A
8466,136000245,1997,199706,3,119,49632,151,N,N,N,N,N,N,N,N,N,N,N,N,N,N,N,N,N,N,N,119.0,59.0,927.0,194710.0,BALLET SOCIETY INC,NEW YORK,NY,10128,1107 FIFTH AVE,10128-0145,49632,0,0,0,0,0,0,0,63101,-13469,63101,0,0,0,0,0,0,21609,151,0,237,0,0,0,63101,0,63101,0,0,151,0,0,151,0,-21458,0,0,0,0,0,0,0,0,0,4800,200,0,0,0,0,0,0,0,0,0,0,0,0,0,0,0,0,0,0,0,0,0,0,0,0,0,0,0,0,0,0,0,0,0,0,0,0,0,0,0,0,0,,0.0,3.0,2.0,1.0,4.0,1.0,13.0,0.0,1.0,6,,,36061.0,5602.0,5600.0,0.16784000000000002,1996,NY,10128,NEW YORK,PF,O,AR,A,IN,,A,A,AR,AR,AR,A63,,,,,,,A63,A
8481,136019220,1996,199609,3,119,425290,403037,N,N,N,N,Y,N,N,N,Y,N,N,N,N,N,N,N,N,N,N,119.0,0.0,0.0,193705.0,POETRY SOCIETY OF AMERICA,NEW YORK,NY,10003,15 GRAMERCY PARK,10003-1705,299127,0,13296,0,0,112867,46125,8300,425451,-161,295820,6638,5739,115433,0,0,115433,245184,407657,0,13535,0,13296,126163,417151,6658,287520,6658,120424,18467,0,0,407657,0,157853,133,0,0,6,0,0,0,0,0,274800,0,5739,6867,5255,8138,25999,295820,244372,231001,238542,1009735,0,0,0,0,0,0,0,0,0,0,9023,4578,3503,5425,22529,0,0,0,0,0,0,0,0,0,0,0,0,0,0,0,133,,0.0,3.0,3.0,1.0,4.0,5.0,13.0,0.0,1.0,9,,,36061.0,5602.0,5600.0,0.6875180000000001,1995,NY,10003,NEW YORK,PF,O,AR,A,IN,,A,A,AR,AR,AR,A03,,,,,,,A0370,A
8522,136031962,1997,199712,3,602,124736,994317,N,N,N,N,N,N,N,N,Y,N,N,N,N,N,N,N,N,N,N,602.0,0.0,0.0,197302.0,NEIGHBORHOOD PLAYHOUSE TR,NEW YORK,NY,10081,1 CMP STE 5TH FL,10081-0000,0,0,36674,88062,0,0,14377,21240,38016,86720,22932,111714,0,0,0,0,0,0,1354531,25546,60711,0,124617,0,16776,12903,1692,12903,0,0,0,992641,1354531,0,994317,2234,0,0,1791,0,0,0,0,0,1232700,58500,0,0,0,0,0,0,0,0,0,0,0,0,0,0,0,0,0,0,0,0,0,0,0,0,0,0,0,0,0,0,0,0,0,0,0,0,0,0,0,0,2234,% CHASE MANHATTAN BANK,0.0,3.0,1.0,1.0,4.0,2.0,13.0,0.0,1.0,12,T-15246,,36061.0,5602.0,5600.0,0.848608,1997,NY,10081,NEW YORK,PF,O,AR,A,IN,,A,A,AR,AR,AR,A61,,,,,,,A61,A
8597,136059836,1997,199712,3,161,61242,478511,N,Y,N,N,N,N,N,N,N,N,N,N,N,N,N,N,N,N,N,161.0,180.0,59.0,196204.0,HISTORICAL RESEARCH FOUNDATION,NEW YORK,NY,10018,1430 BROADWAY STE 6TH FLR,10018-3308,245,643,28991,31362,0,0,0,94560,111857,-50615,111629,51059,0,231838,115238,125653,472729,470,619507,0,31018,0,60996,0,17297,9937,17069,9937,0,1051,0,0,619507,0,478041,511,0,0,0,0,0,0,36,0,629800,30500,0,0,0,0,0,0,0,0,0,0,0,0,0,0,0,0,0,0,0,0,0,0,0,0,0,0,0,0,0,0,0,0,0,0,0,0,0,0,0,0,511,% DINO J PIONZIO,0.0,3.0,2.0,1.0,4.0,1.0,13.0,0.0,1.0,12,,,36061.0,5602.0,5600.0,0.7166560000000001,1997,NY,10018,NEW YORK,PF,S,ZB,A,IN,,A,A,AR,AR,AR,A12,,,,,,,A1282,A
8656,136066414,1997,199712,3,602,2,111,N,N,N,N,N,N,N,N,N,N,N,N,N,N,N,N,N,N,N,602.0,0.0,0.0,195508.0,JOSEPH M MAY MEMORIAL ASSOCIATION INC,NEW YORK,NY,10170,420 LEXINGTON AVE STE 2817,10170-0002,0,2,0,0,0,0,0,0,36,-34,0,0,0,0,0,0,0,0,111,0,7,0,2,0,36,36,0,36,0,0,0,0,111,0,111,0,0,0,0,0,0,0,0,0,100,0,0,0,0,0,0,0,0,0,0,0,0,0,0,0,0,0,0,0,0,0,0,0,0,0,0,0,0,0,0,0,0,0,0,0,0,0,0,0,0,0,0,% JACOBS EVALL & BLUMENFELD,0.0,3.0,1.0,1.0,4.0,1.0,13.0,0.0,1.0,12,,,36061.0,5602.0,5600.0,0.7018939999999999,1997,NY,10170,NEW YORK,PF,O,AR,A,IN,,A,A,AR,AR,AR,A80,,,,,,,A80,A
8687,136069185,1997,199712,3,602,100277,3833,N,N,N,N,N,N,N,N,N,N,N,N,N,N,N,N,N,N,N,602.0,0.0,0.0,195406.0,S FOREST COMPANY INC,NEW YORK,NY,10016,90 PARK AVE,10016-1301,100277,0,0,0,0,0,0,94500,101042,-765,94500,0,0,0,0,0,0,0,3833,0,1004,0,0,0,6542,0,0,0,0,2571,0,0,3833,0,3833,0,0,0,0,0,0,0,0,0,20400,1000,0,0,0,0,0,0,0,0,0,0,0,0,0,0,0,0,0,0,0,0,0,0,0,0,0,0,0,0,0,0,0,0,0,0,0,0,0,0,0,0,0,% ALEXANDER & GREEN,0.0,3.0,1.0,1.0,4.0,1.0,13.0,0.0,1.0,12,,,36061.0,5602.0,5600.0,0.939415,1997,NY,10016,NEW YORK,PF,O,AR,A,IN,,A,A,AR,AR,AR,A60,,,,,,,C99,C
8841,136085361,1996,199605,3,602,24640,0,N,N,N,Y,N,N,N,N,N,N,N,N,N,N,N,N,N,N,N,602.0,0.0,0.0,196012.0,WARNER COMMUNICATIONS FOUNDATION INC,NEW YORK,NY,10020,1271 AVE OF THE AMERICAS,10020-1401,0,0,14745,9895,0,0,0,0,0,24640,0,24640,0,0,0,0,0,0,0,0,16988,0,24640,0,0,0,0,0,0,0,0,0,0,0,0,493,0,0,0,0,0,0,0,0,567300,16500,0,0,0,0,0,0,0,0,0,0,0,0,0,0,0,0,0,0,0,0,0,0,0,0,0,0,0,0,0,0,0,0,0,0,0,0,0,0,0,0,493,,0.0,3.0,1000.0,1.0,4.0,1.0,13.0,0.0,1.0,5,,,36061.0,5602.0,5600.0,0.692522,1995,NY,10020,NEW YORK,PF,O,AR,A,IN,,A,A,AR,AR,AR,A30,,,,,,,A30,A
8878,136086859,1997,199712,3,602,65077125,633212206,N,N,N,N,N,N,N,N,Y,N,N,N,Y,N,N,N,Y,N,N,602.0,0.0,0.0,196004.0,LILA WALLACE READERS DIGEST FUND INC,NEW YORK,NY,10016,2 PARK AVE 23RD FLR,10016-5603,171018,2652318,29088542,33165247,0,0,330752,26683198,34266480,30810645,31703896,63302509,0,55418559,417015145,116001282,588434986,10047943,633212206,4244199,32009851,0,64906107,0,7583282,1603598,4495532,1603598,0,0,0,0,633212206,0,623164263,1266050,0,0,1332700,0,0,0,14108,52542,649946200,30743800,0,0,0,0,0,0,0,0,0,0,0,0,0,0,0,0,0,0,0,0,0,0,0,0,0,0,0,0,0,0,0,0,0,0,0,0,0,0,0,0,1266050,% CFO,0.0,3.0,1.0,1.0,4.0,1.0,13.0,0.0,1.0,12,,M,36061.0,5602.0,5600.0,0.120598,1997,NY,10016,NEW YORK,PF,O,AR,A,IN,,A,A,AR,AR,AR,A33,,,,,,,A33,A
8921,136089816,1996,199610,3,602,0,0,N,N,N,N,N,N,N,N,N,N,N,N,N,N,N,N,N,N,N,602.0,0.0,0.0,195508.0,VH-1 SAVE THE MUSIC FOUNDATION,NEW YORK,NY,10036,1515 BROADWAY 20TH FLR,10036-8901,0,0,0,0,0,0,0,0,0,0,0,0,0,0,0,0,0,0,0,0,0,0,0,0,0,0,0,0,0,0,0,0,0,0,0,0,0,0,0,0,0,0,0,0,0,0,0,0,0,0,0,0,0,0,0,0,0,0,0,0,0,0,0,0,0,0,0,0,0,0,0,0,0,0,0,0,0,0,0,0,0,0,0,0,0,0,0,% VIACOM INTERNATIONAL INC,0.0,3.0,1.0,1.0,4.0,1.0,13.0,0.0,1.0,10,,,36061.0,5602.0,5600.0,0.45418500000000006,1995,NY,10036,NEW YORK,PF,O,AR,A,IN,,A,A,AR,AR,AR,A68,,,,,,,A68,A
9017,136096069,1997,199712,3,908,269035,1537738,N,N,N,N,N,N,N,N,N,N,N,N,N,N,N,N,Y,N,N,908.0,40.0,0.0,194308.0,DAUGHTERS OF THE CINCINNATI,NEW YORK,NY,10036,36 W 44TH ST STE 1010,10036-8102,22665,0,61041,154194,0,31135,0,47800,135019,134016,66503,159881,88607,0,1462199,0,1462199,0,2028347,4576,93396,0,215235,101769,87219,55354,18703,55354,13162,74399,0,0,2028347,0,1537738,3198,0,0,3200,0,0,0,43,0,1896400,90200,0,0,0,0,0,0,0,0,0,0,0,0,0,0,0,0,0,0,0,0,0,0,0,0,0,0,0,0,0,0,0,0,0,0,0,0,0,0,0,0,3198,,0.0,3.0,1.0,1.0,4.0,1.0,13.0,0.0,1.0,12,,,36061.0,5602.0,5600.0,0.745555,1997,NY,10036,NEW YORK,PF,O,AR,A,IN,,A,A,AR,AR,AR,A80,,,,,,,A80,A
9315,136115059,1996,199612,3,59,35425,416054,N,N,N,N,N,N,N,N,N,N,N,N,N,N,N,N,N,N,N,59.0,0.0,0.0,194705.0,LITERARY SOCIETY FOUNDATION INC,NEW YORK,NY,10028,PO BOX 155 GRACIE STATION,10028-0002,0,0,35351,0,0,0,0,26680,29241,6184,26783,34770,0,0,298000,50001,348001,0,1009505,46948,47643,0,35425,0,2561,655,103,655,0,3484,0,0,1009505,0,416054,695,0,0,1700,0,0,0,3,0,967400,46900,0,0,0,0,0,0,0,0,0,0,0,0,0,0,0,0,0,0,0,0,0,0,0,0,0,0,0,0,0,0,0,0,0,0,0,0,0,0,0,0,695,HANS SCHUMACHER,0.0,3.0,2.0,1.0,4.0,1.0,13.0,0.0,1.0,12,,,36061.0,5602.0,5600.0,0.8906290000000001,1996,NY,10028,NEW YORK,PF,O,AR,A,IN,,A,A,AR,AR,AR,A70,,,,,,,A70,A
9349,136116536,1998,199804,3,602,42666,302406,N,Y,N,N,N,N,N,N,N,N,N,N,N,N,N,N,N,N,N,602.0,0.0,0.0,195811.0,JACOB BLUESTEIN FOUNDATION,NEW YORK,NY,10023,115 CENTRAL PARK W,10023-4153,0,572,13315,0,0,28779,0,22000,30701,11965,22860,12901,0,0,129327,0,129327,0,618208,4336,30009,0,13887,0,8701,986,0,986,0,46610,0,0,618208,0,302406,129,0,0,0,0,0,0,0,0,609300,29900,0,0,0,0,0,0,0,0,0,0,0,0,0,0,0,0,0,0,0,0,0,0,0,0,0,0,0,0,0,0,0,0,0,0,0,0,0,0,0,0,129,% MARION GALISON,0.0,3.0,1.0,1.0,4.0,1.0,13.0,0.0,1.0,4,,,36061.0,5602.0,5600.0,0.9185629999999999,1997,NY,10023,NEW YORK,PF,O,AR,A,IN,,A,A,AR,AR,AR,A68,,,,,,,A68,A
9375,136118881,1997,199712,3,561,478,17838,N,N,N,N,N,N,N,N,N,N,N,N,N,N,N,N,N,N,N,561.0,0.0,0.0,194208.0,BELGIAN SOCIETY OF BENEVOLENCE,RIVERDALE,NY,10463,2521 PALISADE AVE,10463-6137,0,478,0,0,0,0,0,465,525,-47,465,418,418,0,0,0,0,0,17838,0,881,0,478,478,60,60,0,60,60,17838,0,0,17838,0,17838,0,0,0,0,0,0,0,0,0,17900,0,0,0,0,0,0,0,0,0,0,0,0,0,0,0,0,0,0,0,0,0,0,0,0,0,0,0,0,0,0,0,0,0,0,0,0,0,0,0,0,0,0,% E VERHULST,0.0,3.0,1.0,1.0,4.0,1.0,13.0,0.0,1.0,12,,,36005.0,5602.0,5600.0,0.10727,1997,NY,10463,RIVERDALE,PF,O,AR,A,IN,,A,A,AR,AR,AR,A23,,,,,,,A23,A
9408,136121046,1997,199712,3,119,1272,58929,N,N,N,N,N,N,N,N,N,N,N,N,N,N,N,N,N,N,N,119.0,59.0,561.0,195204.0,NATIONAL ARTS FOUNDATION INC,NEW YORK,NY,10166,200 PARK AVE KIESEL,10166-0005,0,1272,0,0,0,0,0,0,600,672,0,672,672,0,0,0,0,3000,58929,1310,1317,0,1272,1272,600,600,0,600,600,831,0,0,58929,0,55929,7,0,0,0,0,0,0,0,0,26700,1300,0,0,0,0,0,0,0,0,0,0,0,0,0,0,0,0,0,0,0,0,0,0,0,0,0,0,0,0,0,0,0,0,0,0,0,0,0,0,0,0,7,% WHITMAN & RANSOM,0.0,1.0,2.0,1.0,4.0,1.0,13.0,0.0,1.0,12,,,36061.0,5602.0,5600.0,0.680751,1997,NY,10166,NEW YORK,PF,O,AR,A,IN,,A,A,AR,AR,AR,A26,,,,,,,A26,A
9491,136127858,1997,199705,3,119,85,153,N,N,N,N,N,N,N,N,N,N,N,N,N,N,N,N,N,N,N,119.0,0.0,0.0,196202.0,BELGIAN ART FOUNDATION IN THE UNITED STATES INC,NEW YORK,NY,10019,146 W 57TH ST APT 43 A,10019-3323,85,0,0,0,0,0,0,0,85,0,85,0,0,0,0,0,0,0,153,0,0,0,0,0,85,0,85,0,0,0,0,0,153,0,153,0,0,0,0,0,0,0,0,0,0,0,0,0,0,0,0,0,0,0,0,0,0,0,0,0,0,0,0,0,0,0,0,0,0,0,0,0,0,0,0,0,0,0,0,0,0,0,0,0,0,0,0,,0.0,3.0,2.0,1.0,4.0,1.0,13.0,0.0,1.0,5,,,36061.0,5602.0,5600.0,0.46099700000000005,1996,NY,10019,NEW YORK,PF,O,AR,A,IN,,A,A,AR,AR,AR,A23,,,,,,,A23,A
9539,136133259,1997,199712,3,602,45,1881,N,N,N,N,N,N,N,N,N,N,N,N,N,N,N,N,N,N,N,602.0,0.0,0.0,194503.0,IRISH EMIGRANT SOCIETY OF NEW YORK,NEW YORK,NY,10017,5 E 42ND ST,10017-6904,0,45,0,0,0,0,0,0,1,44,0,44,44,0,0,0,0,0,1881,91,91,0,45,45,0,0,0,1,1,1881,0,0,1881,0,1881,1,0,0,0,0,0,0,0,0,1900,100,0,0,0,0,0,0,0,0,0,0,0,0,0,0,0,0,0,0,0,0,0,0,0,0,0,0,0,0,0,0,0,0,0,0,0,0,0,0,0,0,1,,0.0,3.0,1.0,1.0,4.0,1.0,13.0,0.0,1.0,12,,,36061.0,5602.0,5600.0,0.547189,1997,NY,10017,NEW YORK,PF,O,AR,A,IN,,A,A,AR,AR,AR,A23,,,,,,,A23,A
9577,136139518,1996,199612,3,40,2102231,10024302,N,Y,N,N,N,N,N,N,Y,N,N,N,N,N,N,N,Y,N,N,40.0,59.0,0.0,196407.0,KURT WEILL FOUNDATION FOR MUSIC,NEW YORK,NY,10003,7 E 20TH ST,10003-1106,0,23026,215555,318603,0,1545047,119570,50000,780696,1321535,431647,1762930,0,1095641,5852812,0,6948453,29538,10024302,0,415339,0,2086232,0,730696,323302,381647,323302,0,56739,0,0,10024302,0,9994764,17629,0,0,24236,0,13000,0,0,1632,8433300,397700,0,0,0,0,0,0,0,0,0,0,0,0,0,0,0,0,0,0,0,0,0,0,0,0,0,0,0,0,0,0,0,0,0,0,0,0,0,0,0,0,17629,% HOROWITZ COLEMAN & WALDMAN,0.0,3.0,1.0,1.0,4.0,1.0,13.0,0.0,1.0,12,,,36061.0,5602.0,5600.0,0.6576850000000001,1996,NY,10003,NEW YORK,PF,O,AR,A,IN,,A,A,AR,AR,AR,A68,,,,,,,A68,A
9650,136149781,1997,199708,3,90,402628,4357906,N,N,N,N,Y,N,N,N,N,N,N,N,N,N,N,N,N,N,N,90.0,0.0,0.0,196411.0,PERFORMING ARTS FOUNDATION INC,NEW YORK,NY,10016,21 E 40TH ST RM 1006,10016-0570,900,79777,287693,188,0,16318,0,215575,396338,6290,156955,362277,383972,0,2893176,595235,3488411,0,4707018,0,225314,17752,385410,385222,180763,23133,156380,23133,1250,23854,781995,19313,4707018,0,4357906,7245,0,0,8890,0,0,0,0,1645,4574900,0,225314,208444,191234,185485,810477,156955,134928,139359,124163,555405,0,0,0,0,0,0,0,0,0,0,150209,138963,127489,123657,540318,0,0,0,0,0,0,0,0,0,0,0,0,0,0,0,7245,% SPITZ & EDELSTEIN CPAS,0.0,3.0,1.0,1.0,3.0,1.0,13.0,0.0,1.0,8,,,36061.0,5602.0,5600.0,0.588577,1996,NY,10016,NEW YORK,PF,S,ZB,A,IN,,A,A,AR,AR,AR,A12,,,,,,,A1260,A
9724,136157956,1997,199712,3,59,13649,9073,N,N,N,N,N,N,N,N,N,N,N,N,N,N,N,N,N,N,N,59.0,0.0,0.0,196404.0,LARCHMONT CHAMBER MUSIC CIRCLE INC,NEW YORK,NY,10036,1185 AVE OF AMERICAS,10036-2601,13535,114,0,0,0,0,0,14250,14994,-1345,14992,114,0,0,0,0,0,0,9073,0,458,0,114,0,744,0,742,0,0,9073,0,0,9073,0,9073,2,0,0,0,0,0,0,0,0,9300,500,0,0,0,0,0,0,0,0,0,0,0,0,0,0,0,0,0,0,0,0,0,0,0,0,0,0,0,0,0,0,0,0,0,0,0,0,0,0,0,0,2,% LILLIE BERNSTEIN,0.0,3.0,2.0,1.0,4.0,1.0,13.0,0.0,1.0,12,,,36061.0,5602.0,5600.0,0.43269300000000005,1997,NY,10036,NEW YORK,PF,O,AR,A,IN,,A,A,AR,AR,AR,A6C,,,,,,,A6C,A
9805,136161047,1997,199710,3,119,985,37982,N,N,N,N,N,N,N,N,N,N,N,N,N,N,N,N,N,N,N,119.0,602.0,0.0,195703.0,LIVING ARTS FOUNDATION INC,NEW YORK,NY,10029,1200 FIFTH AVE,10029-5208,0,180,805,0,0,0,0,3940,4827,-3842,3940,1037,0,0,16938,0,16938,3795,37596,1855,1876,0,1061,0,887,24,0,24,0,736,0,0,37596,3795,34187,21,0,0,37,0,63,0,0,79,38100,1900,0,0,0,0,0,0,0,0,0,0,0,0,0,0,0,0,0,0,0,0,0,0,0,0,0,0,0,0,0,0,0,0,0,0,0,0,0,0,0,0,21,% DAVID A TEICHMAN,0.0,3.0,1.0,1.0,4.0,1.0,13.0,0.0,1.0,10,,,36061.0,5602.0,5600.0,0.411674,1996,NY,10029,NEW YORK,PF,S,ZB,A,IN,,A,A,AR,AR,AR,A12,,,,,,,A12,A
9866,136161473,1996,199612,3,119,2307,6841,N,Y,N,N,N,N,N,N,N,N,N,N,N,N,N,N,N,N,N,119.0,602.0,59.0,194909.0,EDWARD F & HILDA S KOOK ARTS OF THE THEATRE FOUNDATION INC,NEW YORK,NY,10106,888 SEVENTH AVE STE 3000 1,10106-0001,2060,126,121,0,0,0,0,5266,5351,-3044,5291,162,162,0,0,0,0,1548,4616,0,207,0,247,247,85,85,25,85,85,0,0,0,4616,0,5293,0,0,0,0,0,0,0,0,0,5100,200,0,0,0,0,0,0,0,0,0,0,0,0,0,0,0,0,0,0,0,0,0,0,0,0,0,0,0,0,0,0,0,0,0,0,0,0,0,0,0,0,0,% BUDD H GIBBS ESQ,0.0,3.0,2.0,1.0,4.0,1.0,13.0,0.0,1.0,12,,,36061.0,5602.0,5600.0,0.776688,1996,NY,10106,NEW YORK,PF,S,ZB,A,IN,,A,A,AR,AR,AR,A12,,,,,,,A1265,A
9903,136161674,1997,199712,3,60,168550,881686,N,N,N,N,N,N,N,N,N,N,N,N,N,N,N,N,N,N,N,60.0,0.0,0.0,199404.0,NICHOLAS ROERICH MUSEUM,NEW YORK,NY,10025,319 W 107TH ST,10025-2715,149377,1422,0,0,7641,10110,12000,100,172855,-4305,148988,1422,0,0,0,0,0,1575,981686,0,6511,0,1422,19173,172755,0,148888,0,23352,82682,0,0,981686,0,880111,28,0,0,0,0,0,0,0,0,132200,0,0,0,0,0,0,0,0,0,0,0,0,0,0,0,0,0,0,0,0,0,0,0,0,0,0,0,0,0,0,0,0,0,0,0,0,0,0,0,0,0,28,,0.0,3.0,1.0,1.0,4.0,1.0,13.0,0.0,1.0,12,,,36061.0,5602.0,5600.0,0.659412,1997,NY,10025,NEW YORK,PF,O,AR,A,IN,,A,A,AR,AR,AR,A50,,,,,,,A50,A
9987,136163969,1997,199712,3,59,50181,310581,N,Y,N,N,N,N,N,N,N,N,N,N,N,N,N,N,N,N,N,59.0,602.0,0.0,194211.0,SOCIETY OF DAUGHTERS OF HOLLAND DAMES,NEW YORK,NY,10021,620 PARK AVE,10021-6591,9200,2208,8936,22691,0,7146,0,23500,92706,-42525,82732,29069,28627,19794,264158,0,283952,0,540076,0,24161,0,33835,33835,69206,4766,59232,4766,5208,11024,0,0,540076,0,310581,291,0,0,0,0,0,0,0,0,490600,23900,0,0,0,0,0,0,0,0,0,0,0,0,0,0,0,0,0,0,0,0,0,0,0,0,0,0,0,0,0,0,0,0,0,0,0,0,0,0,0,0,291,% ANNA G B VIETOR,0.0,3.0,1.0,1.0,4.0,5.0,13.0,0.0,1.0,12,,,36061.0,5602.0,5600.0,0.320443,1997,NY,10021,NEW YORK,PF,O,AR,A,IN,,A,A,AR,AR,AR,A80,,,,,,,A80,A
9992,136164757,1998,199803,3,602,746051,1428481,N,N,N,N,N,N,N,N,N,N,N,N,N,N,N,N,N,N,N,602.0,0.0,0.0,194506.0,SOCIETY OF THE FRIENDLY SONS OF SAINT PATRICK IN THE CITY OF NEW Y,NEW YORK,NY,10005,80 WALL ST,10005-3601,0,11204,39734,20088,0,675025,0,110000,639749,106302,335588,68678,420603,451258,303003,0,754261,361112,1727042,0,65606,0,71026,725963,529749,2348,225588,2348,305360,0,0,0,1727042,0,1067369,1374,0,0,0,0,1463,0,88,1,1332100,64200,0,0,0,0,0,0,0,0,0,0,0,0,0,0,0,0,0,0,0,0,0,0,0,0,0,0,0,0,0,0,0,0,0,0,0,0,0,0,0,0,1374,,0.0,3.0,1.0,1.0,4.0,1.0,13.0,0.0,1.0,3,,,36061.0,5602.0,5600.0,0.796964,1997,NY,10005,NEW YORK,PF,O,AR,A,IN,,A,A,AR,AR,AR,A80,,,,,,,A80,A
10040,136168827,1997,199712,3,602,32575,151210,N,Y,N,N,N,N,N,N,N,N,N,N,N,N,N,N,N,N,N,602.0,0.0,0.0,196412.0,EDWARD ALBEE FOUNDATION INC,NEW YORK,NY,10016,192 LEXINGTON AVE 1100,10016-6823,20500,0,0,0,0,12075,0,0,35700,-3125,29578,5952,9084,0,0,0,0,0,200273,0,9873,0,12075,12075,35700,6123,29578,6123,2991,273,0,0,200273,0,151210,60,0,0,0,0,0,0,0,0,200500,0,0,0,0,0,0,0,0,0,0,0,0,0,0,0,0,0,0,0,0,0,0,0,0,0,0,0,0,0,0,0,0,0,0,0,0,0,0,0,0,0,60,% A KOZAK CO,0.0,3.0,1.0,1.0,4.0,1.0,13.0,0.0,1.0,12,,,36061.0,5602.0,5600.0,0.532985,1997,NY,10016,NEW YORK,PF,O,AR,A,IN,,A,A,AR,AR,AR,A20,,,,,,,A20,A
10115,136182926,1996,199606,3,119,25925,547343,N,Y,N,N,N,N,Y,N,N,N,N,N,N,N,N,N,N,N,N,119.0,0.0,0.0,196508.0,DAVID MERRICK ARTS FOUNDATION,NEW YORK,NY,10176,551 5TH AVE STE 900,10176-0999,0,18009,10697,0,0,0,0,25000,25446,479,25446,28260,28260,110773,0,0,110773,49750,544955,28194,29041,0,28706,28706,446,446,446,446,446,2319,0,0,544955,0,497593,283,0,0,0,0,283,0,0,0,589700,28800,0,0,0,0,0,0,0,0,0,0,0,0,0,0,0,0,0,0,0,0,0,0,0,0,0,0,0,0,0,0,0,0,0,0,0,0,0,0,0,0,283,% SCOTT GILDEA & CO,0.0,3.0,1.0,1.0,16.0,2.0,13.0,0.0,20.0,6,,,36061.0,5602.0,5600.0,0.6384449999999999,1995,NY,10176,NEW YORK,PC,O,AR,A,IN,,A,A,AR,AR,AR,A26,,,,,,,A26,A
10364,136227356,1996,199612,3,119,53292,81882,N,N,N,N,N,N,N,N,N,N,N,N,N,N,N,N,N,N,N,119.0,40.0,59.0,196709.0,DANCE PERSPECTIVES FOUNDATION INC,NEW YORK,NY,10022,433 E 51ST 8D,10022-6472,51800,491,1001,0,0,0,0,0,1476,51816,1476,3850,0,0,0,0,0,0,81882,0,3950,0,3850,0,1476,0,1476,0,0,0,0,71434,81882,0,81882,0,0,0,0,0,0,0,0,0,80300,0,0,0,0,0,0,0,0,0,0,0,0,0,0,0,0,0,0,0,0,0,0,0,0,0,0,0,0,0,0,0,0,0,0,0,0,0,0,0,0,0,0,,0.0,3.0,1.0,1.0,4.0,1.0,13.0,0.0,1.0,12,,,36061.0,5602.0,5600.0,0.675847,1996,NY,10022,NEW YORK,PF,O,AR,A,IN,,A,A,AR,AR,AR,A62,,,,,,,A62,A
10540,136625578,1997,199708,3,602,27028,137660,N,N,N,N,N,N,N,N,N,N,N,N,N,N,N,N,N,N,N,602.0,0.0,0.0,198810.0,AMERICAN SOCIETY OF JOURNALISTS AND AUTHORS CHARITABLE TRUST,NEW YORK,NY,10036,1501 BROADWAY STE 302,10036-5501,18225,8803,0,0,0,0,0,7000,8631,18397,7000,8803,8803,0,0,0,0,850,137660,0,6327,0,8803,8803,1631,0,0,0,0,137660,0,0,137660,0,136810,176,0,0,0,0,0,0,0,0,128500,6200,0,0,0,0,0,0,0,0,0,0,0,0,0,0,0,0,0,0,0,0,0,0,0,0,0,0,0,0,0,0,0,0,0,0,0,0,0,0,0,0,176,,0.0,3.0,1.0,1.0,4.0,1.0,13.0,199308.0,1.0,8,,,36061.0,5602.0,5600.0,0.670393,1996,NY,10036,NEW YORK,PF,O,AR,A,IN,,A,A,AR,AR,AR,A70,,,,,,,A70,A
10550,136734265,1997,199712,3,602,35146,507728,N,N,N,N,N,N,N,N,Y,N,N,N,N,N,N,N,N,N,N,602.0,0.0,0.0,197806.0,TRUST U/W CARL OTTO VONKIENBUSCH A/B/O PHILADELPHIA MUSEUM OF ART,NEW YORK,NY,10005,ONE WALL ST,10005-2500,0,0,20025,15121,0,0,9281,18952,29414,5732,19002,25804,0,75320,365129,54903,495352,0,760832,33029,34238,0,35146,0,10462,9342,50,9342,0,0,0,0,760832,0,507729,516,0,0,880,0,0,0,0,364,695200,33700,0,0,0,0,0,0,0,0,0,0,0,0,0,0,0,0,0,0,0,0,0,0,0,0,0,0,0,0,0,0,0,0,0,0,0,0,0,0,0,0,516,,0.0,3.0,1.0,1.0,4.0,2.0,13.0,0.0,1.0,12,,,36061.0,5602.0,5600.0,0.702685,1997,NY,10005,NEW YORK,PF,O,AR,A,IN,,A,A,AR,AR,AR,A50,,,,,,,A50,A
10574,136814491,1997,199707,3,602,3410236,28590297,N,N,N,N,N,N,N,N,Y,N,N,N,N,N,N,N,N,N,N,602.0,0.0,0.0,198403.0,FRANCES & EDWIN COMMINGS MEMORIAL,NEW YORK,NY,10005,ONE WALL ST RAX DEPT 28TH FLR,10005-2500,0,92544,1558716,1758976,0,0,199432,1189675,1670460,1739776,1429118,3262642,0,10680095,13457125,1504622,25641842,0,39963774,0,1778293,0,3410236,0,480785,147594,239443,147594,0,2515,0,0,39963774,0,28590297,65253,0,0,63150,0,0,0,0,0,36107500,1713000,0,0,0,0,0,0,0,0,0,0,0,0,0,0,0,0,0,0,0,0,0,0,0,0,0,0,0,0,0,0,0,0,0,0,0,0,0,0,0,0,65253,% THE BANK OF NEW YORK TAX DEPT,0.0,3.0,1.0,1.0,4.0,6.0,13.0,0.0,1.0,7,,,36061.0,5602.0,5600.0,0.5776020000000001,1996,NY,10005,NEW YORK,PF,O,AR,A,IN,,A,A,AR,AR,AR,A80,,,,,,,A80,A
10882,137045257,1997,199712,3,602,1777807,38921,N,N,N,N,N,N,N,N,N,N,N,N,N,N,N,N,N,N,N,602.0,0.0,0.0,199502.0,MOSAIC FUND,NEW YORK,NY,10017,230 PARK AVE 15TH FL STE 1567,10017-3102,1777760,47,0,0,0,0,0,1687917,1706617,71190,1687917,1777807,0,0,0,0,0,51000,38921,0,387,0,1777807,0,18700,0,0,0,0,38874,0,0,38921,0,-12079,35556,0,0,35400,0,0,0,162,0,7900,0,0,0,0,0,0,0,0,0,0,0,0,0,0,0,0,0,0,0,0,0,0,0,0,0,0,0,0,0,0,0,0,0,0,0,0,0,0,0,0,0,35556,% OCONNOR MURPHY RYAN & SEITZ,0.0,3.0,1.0,1.0,4.0,2.0,13.0,0.0,1.0,12,SEITZ HOWARD G TTEE,,36061.0,5602.0,5600.0,0.889058,1997,NY,10017,NEW YORK,PF,O,AR,A,IN,,A,A,AR,AR,AR,A40,,,,,,,A40,A
10927,137061011,1997,199706,3,60,0,20,N,N,N,N,Y,N,N,N,N,N,N,N,N,N,N,N,N,N,N,60.0,0.0,0.0,199701.0,WEISS MEMORIAL FOUNDATION TR,NEW YORK,NY,10016,440 PARK AVE,10016-8012,0,0,0,0,0,0,0,0,0,0,0,0,0,0,0,0,0,0,20,0,1,0,0,0,0,0,0,0,0,0,0,0,20,0,20,0,0,0,0,0,0,0,0,0,0,0,0,0,0,0,0,0,0,0,0,0,20,20,0,0,40,20,20,0,0,40,0,0,0,0,0,0,0,0,0,0,0,0,0,0,0,0,0,0,0,0,0,% JACKSON & NASH LLP,0.0,3.0,1.0,1.0,3.0,2.0,13.0,0.0,1.0,6,WEISS HERBERT TTEE,,36061.0,5602.0,5600.0,0.723813,1996,NY,10016,NEW YORK,PF,O,AR,A,IN,,A,A,AR,AR,AR,A50,,,,,,,A50,A
10968,137082559,1996,199612,3,602,3988782,3604058,N,N,N,N,N,N,N,N,N,N,N,N,N,N,N,N,N,N,N,602.0,0.0,0.0,199603.0,NEW YORK FINE ARTS SUPPORT TR,NEW YORK,NY,10112,30 ROCKEFELLER PLZ,10112-0002,3710679,44032,0,234071,0,0,16605,428272,445781,3543001,434382,930748,0,3559197,0,0,3559197,0,3614561,0,82907,0,941818,0,17509,11070,6110,11070,0,44861,0,0,3614561,0,3604058,18615,0,0,19359,0,0,0,0,744,1683400,64300,0,0,0,0,0,0,0,0,0,0,0,0,0,0,0,0,0,0,0,0,0,0,0,0,0,0,0,0,0,0,0,0,0,0,0,0,0,0,0,0,18615,% ROCKEFELLER TRUST COMPANY TTEE,0.0,3.0,1.0,1.0,4.0,2.0,13.0,0.0,1.0,12,,,36061.0,5602.0,5600.0,0.589615,1996,NY,10112,NEW YORK,PF,O,AR,A,IN,,A,A,AR,AR,AR,A19,,,,,,,A1940,A
11008,137101223,1997,199712,3,91,2281966,2281801,N,N,N,N,Y,N,N,N,N,N,N,N,N,N,N,N,N,N,N,91.0,0.0,0.0,199705.0,KIKI KOGELNIK FOUNDATION,NEW YORK,NY,10012,330 LAFAYETTE ST 7,10012-2739,2281966,0,0,0,0,0,0,0,165,2281801,165,0,0,0,0,0,0,0,2244805,0,75130,0,0,0,165,0,165,0,0,335,0,2281466,2244805,0,2281801,0,0,0,0,0,0,0,0,0,2263400,0,0,0,0,0,0,165,0,0,0,165,0,0,0,0,0,0,0,0,0,0,0,0,0,0,0,0,0,0,0,0,0,0,0,0,0,0,0,0,0,0,0,% STEPHEN KILDUNNE,0.0,3.0,2.0,1.0,3.0,2.0,13.0,0.0,1.0,12,,,36061.0,5602.0,5600.0,0.8656780000000001,1997,NY,10012,NEW YORK,PF,O,AR,A,IN,,A,A,AR,AR,AR,A40,,,,,,,A40,A
12477,222436291,1997,199710,3,29,11300,5018,N,N,N,N,N,N,N,N,N,N,N,N,N,N,N,N,N,N,N,29.0,994.0,0.0,198305.0,AMERICAN FRIENDS OF ITALIAN JEWRY INC,NEW YORK,NY,10019,152 W 57TH ST,10019-3310,11300,0,0,0,0,0,0,0,8751,2549,8751,0,0,0,0,0,0,0,5018,0,167,0,0,0,8751,8751,8751,8751,8751,0,0,0,5018,0,5018,0,0,0,0,0,0,0,0,0,3300,200,0,0,0,0,0,0,0,0,0,0,0,0,0,0,0,0,0,0,0,0,0,0,0,0,0,0,0,0,0,0,0,0,0,0,0,0,0,0,0,0,0,% KOENIG RATNER & MOTT PC,0.0,3.0,1.0,1.0,4.0,1.0,13.0,198310.0,1.0,10,,,36061.0,5602.0,5600.0,0.213373,1996,NY,10019,NEW YORK,PF,S,ZA,A,IN,,A,A,AR,AR,AR,A11,,,,,,,A1123,A
12960,222711422,1997,199712,3,40,277413,2916680,N,N,N,N,N,N,N,N,Y,N,N,N,N,N,N,N,Y,N,N,40.0,123.0,0.0,198609.0,CHINA TIMES CULTURAL FOUNDATION,FLUSHING,NY,11355,136 39 41ST AVE 1A,11355-2426,0,11541,111067,154805,0,0,24000,108500,208436,68977,181750,258207,0,0,1569029,758647,2327676,536,3455485,0,159389,0,277413,0,99936,19206,73250,19206,0,2513,0,0,3455485,0,2916144,5164,0,0,0,0,0,0,312,0,3236300,154200,0,0,0,0,0,0,0,0,0,0,0,0,0,0,0,0,0,0,0,0,0,0,0,0,0,0,0,0,0,0,0,0,0,0,0,0,0,0,0,0,5164,,0.0,3.0,1.0,1.0,4.0,1.0,11.0,0.0,1.0,12,,,36081.0,5602.0,5600.0,0.012504799999999998,1997,NY,11355,FLUSHING,PF,S,ZB,A,IN,,A,A,AR,AR,AR,A12,,,,,,,A1233,A
13248,222795753,1997,199706,3,602,275943,1731387,N,Y,N,N,N,N,N,N,N,N,N,N,N,N,N,N,N,N,N,602.0,0.0,0.0,198706.0,THE INDIAN POINT FOUNDATION INC,NEW YORK,NY,10128,1095 PARK AVE 11A,10128-1154,0,81,59233,162960,0,53669,0,109170,124494,151449,109976,266652,0,0,1112766,0,1112766,0,2252414,0,80660,0,275943,0,15324,9291,806,9291,0,0,0,387769,2252414,0,1731387,2667,0,0,2800,0,0,0,0,133,1637800,78000,0,0,0,0,0,0,0,0,0,0,0,0,0,0,0,0,0,0,0,0,0,0,0,0,0,0,0,0,0,0,0,0,0,0,0,0,0,0,0,0,2667,,0.0,3.0,1.0,1.0,4.0,1.0,13.0,0.0,1.0,6,,,36061.0,5602.0,5600.0,0.23546199999999998,1996,NY,10128,NEW YORK,PF,O,AR,A,IN,,A,A,AR,AR,AR,A23,,,,,,,A23,A
13667,223047700,1996,199612,3,59,371283,822944,N,Y,N,N,N,N,N,N,N,N,N,N,N,N,N,N,N,N,N,59.0,0.0,0.0,196703.0,NEW YORK FOUNDATION FOR ARCHITECTURE INC,NEW YORK,NY,10016,200 LEXINGTON AVE,10016-6201,67227,4163,37834,262059,0,0,0,94320,112164,259119,98356,301719,0,433435,0,0,433435,42576,822944,0,37607,0,304056,0,17844,2337,9973,2337,0,0,0,271513,822944,0,780368,3017,0,0,273,0,4000,0,0,0,763600,34600,0,0,0,0,0,0,0,0,0,0,0,0,0,0,0,0,0,0,0,0,0,0,0,0,0,0,0,0,0,0,0,0,0,0,0,0,0,0,0,0,3017,,0.0,3.0,1.0,1.0,4.0,1.0,13.0,0.0,1.0,12,,,36061.0,5602.0,5600.0,0.669363,1996,NY,10016,NEW YORK,PF,O,AR,A,IN,,A,A,AR,AR,AR,A40,,,,,,,A40,A
13716,223073374,1997,199711,3,93,26,1,N,N,N,Y,N,N,N,N,N,N,N,N,N,N,N,N,N,N,N,93.0,0.0,0.0,199011.0,AMERICAN FRIENDS OF RADIO FRANCE INTERNATIONAL INC,NEW YORK,NY,10017,767 THIRD AVE,10017-0000,26,0,0,0,0,0,0,26,26,0,0,0,0,0,0,0,0,0,1,0,0,0,0,0,0,0,0,0,0,0,0,0,1,0,1,0,0,0,0,0,0,0,0,0,0,0,0,0,0,0,0,0,0,0,0,0,0,0,0,0,0,0,0,0,0,0,0,0,0,0,0,0,0,0,0,0,0,0,0,0,0,0,0,0,0,0,0,,0.0,3.0,1000.0,1.0,4.0,1.0,13.0,0.0,1.0,11,,,36061.0,5602.0,5600.0,0.9667110000000001,1996,NY,10017,NEW YORK,PF,S,ZA,A,IN,,A,A,AR,AR,AR,A113,,,,,,,A1134,A
17166,237044630,1997,199705,3,119,0,1500,N,N,N,N,N,N,N,N,N,N,N,N,N,N,N,N,N,N,N,119.0,59.0,0.0,196912.0,RIVERSIDE THEATER WORKSHOP INC,NEW YORK,NY,10025,280 RIVERSIDE DR,10025-5220,0,0,0,0,0,0,0,0,1280,-1280,1280,0,0,0,0,0,0,0,1500,0,1,0,0,0,1280,0,1280,0,0,0,0,0,1500,0,1500,0,0,0,0,0,0,0,0,0,0,0,0,0,0,0,0,0,0,0,0,0,0,0,0,0,0,0,0,0,0,0,0,0,0,0,0,0,0,0,0,0,0,0,0,0,0,0,0,0,0,0,0,,0.0,3.0,1.0,1.0,4.0,1.0,13.0,0.0,1.0,5,,,36061.0,5602.0,5600.0,0.953103,1996,NY,10025,NEW YORK,PF,O,AR,A,IN,,A,A,AR,AR,AR,A65,,,,,,,A65,A
17288,237055841,1997,199712,3,119,300539,2096091,N,N,N,N,N,N,N,N,N,N,N,N,N,N,N,N,N,N,N,119.0,602.0,40.0,197002.0,INDONESIAN CULTURAL FOUNDATION INC,NEW YORK,NY,10158,605 THIRD AVE STE 1501,10158-1599,0,3142,172206,125191,0,0,0,81130,127401,173138,98732,275405,0,0,0,0,0,0,2021042,0,98978,0,300539,0,46271,25134,17602,25134,0,18859,0,2028692,2021042,0,2096091,5508,0,0,2655,0,2200,0,4,0,2009700,93500,0,0,0,0,0,0,0,0,0,0,0,0,0,0,0,0,0,0,0,0,0,0,0,0,0,0,0,0,0,0,0,0,0,0,0,0,0,0,0,0,5508,,0.0,3.0,1.0,1.0,4.0,1.0,13.0,0.0,1.0,12,,,36061.0,5602.0,5600.0,0.462008,1997,NY,10158,NEW YORK,PF,O,AR,A,IN,,A,A,AR,AR,AR,A23,,,,,,,A23,A
17298,237057127,1997,199712,3,59,7700,9328,N,N,N,N,N,N,N,N,N,N,N,N,N,N,N,N,N,N,N,59.0,29.0,0.0,197002.0,AFRICAN CHRISTIAN TEACHERS ASSOCIATION,LAURELTON,NY,11413,135 38 226TH ST,11413-2432,7700,0,0,0,0,0,0,2200,7700,0,7700,0,0,0,8520,0,8520,0,9328,0,0,0,0,0,5500,0,0,0,0,308,0,0,9328,0,9328,0,0,0,0,0,0,0,0,0,0,0,0,0,0,0,0,0,0,0,0,0,0,0,0,0,0,0,0,0,0,0,0,0,0,0,0,0,0,0,0,0,0,0,0,0,0,0,0,0,0,0,0,,0.0,3.0,2.0,1.0,4.0,5.0,11.0,0.0,1.0,12,,,36081.0,5602.0,5600.0,0.42268,1997,NY,11413,LAURELTON,PF,O,AR,A,IN,,A,A,AR,AR,AR,A23,,,,,,,B03,B
17518,237087276,1997,199709,3,59,646849,1765988,N,Y,N,N,Y,N,N,N,N,N,N,N,N,N,N,N,N,N,N,59.0,602.0,0.0,197011.0,PEARSON ART FOUNDATION INC,NEW YORK,NY,10118,350 FIFTH AVE STE 2822,10118-2899,0,0,9979,592823,0,44047,61000,246981,397878,248971,351115,627467,51230,0,519856,0,519856,23365,3894674,393840,133384,0,646849,70612,150897,19382,104134,19382,19382,4213,0,240313,3894674,0,1742623,6275,0,0,925,0,0,0,0,0,2708300,0,51230,0,11234,8878,71342,153134,253243,38861,481748,926986,0,0,0,0,0,0,0,0,0,0,88923,71295,52710,83248,296176,0,0,0,0,0,0,0,0,0,0,0,0,0,0,0,6275,% WOLLIN ASSOC INC,0.0,3.0,1.0,1.0,3.0,1.0,13.0,0.0,1.0,9,,,36061.0,5602.0,5600.0,0.327257,1996,NY,10118,NEW YORK,PF,S,ZB,A,IN,,A,A,AR,AR,AR,A12,,,,,,,A12,A
17631,237108615,1997,199710,3,119,6400,208251,N,N,N,N,N,N,N,N,N,N,N,N,N,N,N,N,N,N,N,119.0,0.0,0.0,197112.0,GABRIEL VON WAYDITCH MUSIC FOUNDATION,KEW GARDENS,NY,11415,80 61 LEFFERTS BLVD,11415-1715,3572,328,0,0,0,0,0,526,7137,-737,6137,1828,0,0,0,0,0,0,235453,0,11695,2500,2828,0,6611,1000,5611,1000,0,2106,0,0,235453,0,208251,37,0,0,0,0,0,0,0,0,237500,0,0,0,0,0,0,0,0,0,0,0,0,0,0,0,0,0,0,0,0,0,0,0,0,0,0,0,0,0,0,0,0,0,0,0,0,0,0,0,0,0,37,,0.0,3.0,1.0,1.0,4.0,1.0,11.0,0.0,1.0,10,,,36081.0,5602.0,5600.0,0.525816,1996,NY,11415,KEW GARDENS,PF,O,AR,A,IN,,A,A,AR,AR,AR,A68,,,,,,,A68,A
17827,237162976,1997,199712,3,119,7163,6343,N,N,N,N,N,N,N,N,N,N,N,N,N,N,N,N,N,N,N,119.0,91.0,0.0,197212.0,FOUNDATION FOR RESEARCH IN THE AFRO-AMERICAN CREATIVE ARTS,CAMBRIA HGTS,NY,11411,PO BOX I,11411-0000,7163,0,0,0,0,0,0,0,12692,-5529,8859,0,0,0,0,0,0,0,4009,0,200,0,0,0,12692,0,8859,0,0,1009,0,0,4009,0,6343,0,0,0,0,0,0,0,0,0,4300,0,0,0,0,0,0,0,0,0,0,0,0,0,0,0,0,0,0,0,0,0,0,0,0,0,0,0,0,0,0,0,0,0,0,0,0,0,0,0,0,0,0,,0.0,3.0,2.0,1.0,4.0,1.0,11.0,0.0,1.0,12,,,36081.0,5602.0,5600.0,0.9492860000000001,1997,NY,11411,CAMBRIA HGTS,PF,S,ZB,A,IN,,A,A,AR,AR,AR,A12,,,,,,,A12,A
17861,237170979,1997,199712,3,90,1800,0,N,N,N,N,N,N,N,N,N,N,N,N,N,N,N,N,N,N,N,90.0,0.0,0.0,198008.0,CREATIVE OPERA COMPANY LTD,NEW YORK,NY,10024,101 W 85TH ST 34,10024-4452,1800,0,0,0,0,0,0,0,8080,-6280,0,0,0,0,0,0,0,26173,0,0,0,0,0,0,8080,0,0,0,0,0,0,0,0,0,-26173,0,0,0,0,0,0,0,0,0,0,0,0,0,0,0,0,0,0,0,0,0,0,0,0,0,0,0,0,0,0,0,0,0,0,0,0,0,0,0,0,0,0,0,0,0,0,0,0,0,0,0,0,% FRANCES EBERMAN,0.0,3.0,1.0,1.0,4.0,1.0,13.0,0.0,1.0,12,,,36061.0,5602.0,5600.0,0.121892,1997,NY,10024,NEW YORK,PF,O,AR,A,IN,,A,A,AR,AR,AR,A6A,,,,,,,A6A,A
17891,237177774,1995,199512,3,59,-1000,0,N,N,N,Y,N,N,N,N,N,N,N,N,N,N,N,N,N,N,N,59.0,0.0,0.0,197211.0,ELEANOR ROOSEVELT NEWSPAPER WOMENS MEMORIAL FUND INC,NEW YORK,NY,10003,15 GRAMERCY PARK,10003-1705,8,0,598,0,0,0,0,8687,11467,-12467,11467,598,0,0,0,0,0,0,0,0,294,0,598,598,2780,0,2780,0,2780,0,0,0,0,0,0,12,0,0,0,0,0,0,0,0,6000,300,0,0,0,0,0,0,0,0,0,0,0,0,0,0,0,0,0,0,0,0,0,0,0,0,0,0,0,0,0,0,0,0,0,0,0,0,0,0,0,0,12,,0.0,3.0,2000.0,1.0,4.0,1.0,13.0,0.0,1.0,12,,,36061.0,5602.0,5600.0,0.35467600000000005,1995,NY,10003,NEW YORK,PF,O,AR,A,IN,,A,A,AR,AR,AR,A33,,,,,,,A33,A
17899,237179844,1998,199801,3,602,7316,99119,N,Y,N,N,N,N,N,N,N,N,N,N,N,N,N,N,N,N,N,602.0,0.0,0.0,197302.0,RANDI PRESS FOUNDATION,BROOKLYN,NY,11234,2284 FLATBUSH AVE,11234-4518,3609,3707,0,0,0,0,0,6000,6104,1212,6000,3707,3707,0,0,0,0,0,99119,0,4852,0,3707,3707,104,0,0,0,0,0,0,0,99119,0,99119,37,0,0,0,0,0,0,0,0,98500,0,0,0,0,0,0,0,0,0,0,0,0,0,0,0,0,0,0,0,0,0,0,0,0,0,0,0,0,0,0,0,0,0,0,0,0,0,0,0,0,0,37,,0.0,3.0,1.0,1.0,4.0,1.0,11.0,0.0,1.0,1,,,36047.0,5602.0,5600.0,0.542166,1997,NY,11234,BROOKLYN,PF,O,AR,A,IN,,A,A,AR,AR,AR,A33,,,,,,,A33,A
18045,237228901,1997,199712,3,65,1014,22271,N,N,N,N,N,N,N,N,N,N,N,N,N,N,N,N,N,N,N,65.0,207.0,0.0,197212.0,LUNDQUIST RELIGIOUS EXHIBITS INC,BRONX,NY,10462,2041 COLDEN AVE,10462-3170,0,14,999,0,0,0,0,0,165,849,0,849,0,0,0,0,0,0,22271,0,1074,0,1014,0,165,165,0,165,0,22271,0,0,22271,0,22271,17,0,0,0,0,0,0,0,0,21800,0,0,0,0,0,0,0,0,0,0,0,0,0,0,0,0,0,0,0,0,0,0,0,0,0,0,0,0,0,0,0,0,0,0,0,0,0,0,0,0,0,17,% RAYMOND LUKE,0.0,3.0,1.0,1.0,4.0,1.0,13.0,0.0,1.0,12,,,36005.0,5602.0,5600.0,0.490624,1997,NY,10462,BRONX,PF,O,AR,A,IN,,A,A,AR,AR,AR,A40,,,,,,,A50,A
18144,237259908,1997,199712,3,560,1980,10278,N,N,N,N,N,N,N,N,N,N,N,N,N,N,N,N,N,N,N,560.0,0.0,0.0,197302.0,IDA FINK MEMORIAL ASSOCIATION,BROOKLYN,NY,11230,1247 E 8TH ST,11230-5105,1980,0,0,0,0,0,0,1550,1855,125,1550,0,0,10121,0,0,10121,0,10278,0,498,0,0,0,305,0,0,0,0,157,0,0,10278,0,10278,0,0,0,100,0,0,0,0,100,10100,500,0,0,0,0,0,0,0,0,0,0,0,0,0,0,0,0,0,0,0,0,0,0,0,0,0,0,0,0,0,0,0,0,0,0,0,0,0,0,0,0,0,% DAVID GOLDMAN,0.0,3.0,1.0,1.0,4.0,1.0,11.0,0.0,1.0,12,,,36047.0,5602.0,5600.0,0.4825,1997,NY,11230,BROOKLYN,PF,O,AR,A,IN,,A,A,AR,AR,AR,A80,,,,,,,A80,A
18201,237292189,1997,199712,3,119,17450,434154,N,N,N,N,N,N,N,N,N,N,N,N,N,N,N,N,N,N,N,119.0,0.0,0.0,197312.0,INSTITUTE OF CHINESE PERFORMING ARTS INC,NEW YORK,NY,10016,600 THIRD AVE STE 22 FLR,10016-1901,0,12405,18025,0,0,0,0,0,951,16499,405,30430,30430,0,154492,0,154492,0,438654,0,20885,0,30430,30430,951,0,405,0,0,0,0,0,438654,0,434154,609,0,0,600,0,0,0,0,0,424100,20300,0,0,0,0,0,0,0,0,0,0,0,0,0,0,0,0,0,0,0,0,0,0,0,0,0,0,0,0,0,0,0,0,0,0,0,0,0,0,0,0,609,% EUGENIA SHIAH,0.0,3.0,3.0,1.0,4.0,1.0,13.0,0.0,1.0,12,,,36061.0,5602.0,5600.0,0.41795299999999996,1997,NY,10016,NEW YORK,PF,O,AR,A,IN,,A,A,AR,AR,AR,A60,,,,,,,A60,A
18409,237361022,1997,199709,3,60,255780,11918247,N,N,N,N,N,N,N,N,N,N,N,N,N,N,N,N,N,N,N,60.0,0.0,0.0,197404.0,NEUSTADT MUSEUM OF TIFFANY ART,NEW YORK,NY,10024,124 W 79 ST APT 15C,10024-6446,0,134560,37035,0,-31159,2150,49294,0,269261,-13481,199017,284574,286939,0,1300789,1363335,2664124,62102,13566579,251832,246141,113194,352614,286939,269261,68040,199017,68040,0,185605,0,0,13566579,0,11856145,5691,0,0,0,0,0,0,0,0,4997800,251800,0,0,0,0,0,0,0,0,0,0,0,0,0,0,0,0,0,0,0,0,0,0,0,0,0,0,0,0,0,0,0,0,0,0,0,0,0,0,0,0,5691,,0.0,3.0,2.0,1.0,4.0,1.0,13.0,0.0,1.0,9,,,36061.0,5602.0,5600.0,0.8436670000000001,1996,NY,10024,NEW YORK,PF,O,AR,A,IN,,A,A,AR,AR,AR,A40,,,,,,,A40,A
18428,237365629,1997,199708,3,64,47970,1008834,N,N,N,N,N,N,N,N,N,N,N,N,N,N,N,N,N,N,N,64.0,119.0,149.0,197404.0,WORLD GRATITUDE DAY INC,NEW YORK,NY,10001,132 W 31ST ST,10001-3406,0,20869,27194,0,0,0,0,50000,53338,-5368,50000,46291,0,522535,0,0,522535,0,1048465,51069,52172,0,48063,0,3338,1772,0,1772,0,0,0,0,1048465,0,1008834,926,0,0,1400,0,0,0,0,474,1059300,51200,0,0,0,0,0,0,0,0,0,0,0,0,0,0,0,0,0,0,0,0,0,0,0,0,0,0,0,0,0,0,0,0,0,0,0,0,0,0,0,0,926,,0.0,3.0,1.0,1.0,4.0,1.0,13.0,0.0,1.0,8,,,36061.0,5602.0,5600.0,0.782609,1996,NY,10001,NEW YORK,PF,O,AR,A,IN,,A,A,AR,AR,AR,A84,,,,,,,Q99,Q
18429,237365710,1995,199512,3,119,0,0,N,N,N,N,N,N,N,N,N,N,N,N,N,N,N,N,N,N,N,119.0,0.0,0.0,197405.0,ION NICOLA THEATRE FOUNDATION INC,NEW YORK,NY,10023,342 W 71ST ST,10023-3556,0,0,0,0,0,0,0,0,0,0,0,0,0,0,0,0,0,0,0,0,0,0,0,0,0,0,0,0,0,0,0,0,0,0,0,0,0,0,0,0,0,0,0,0,0,0,0,0,0,0,0,0,0,0,0,0,0,0,0,0,0,0,0,0,0,0,0,0,0,0,0,0,0,0,0,0,0,0,0,0,0,0,0,0,0,0,0,,0.0,3.0,2.0,1.0,4.0,1.0,13.0,0.0,1.0,12,,,36061.0,5602.0,5600.0,0.527668,1995,NY,10023,NEW YORK,PF,O,AR,A,IN,,A,A,AR,AR,AR,A65,,,,,,,A65,A
18489,237381454,1997,199709,3,90,0,1,N,N,N,N,N,N,N,N,N,N,N,N,N,N,N,N,N,N,N,90.0,0.0,0.0,197411.0,PHILHARMONIA EREDE INC,NEW YORK,NY,10036,400 W 43RD ST RM 37 N,10036-6315,0,0,0,0,0,0,0,0,0,0,0,0,0,0,0,0,0,0,1,0,0,0,0,0,0,0,0,0,0,0,0,0,1,0,1,0,0,0,0,0,0,0,0,0,0,0,0,0,0,0,0,0,0,0,0,0,0,0,0,0,0,0,0,0,0,0,0,0,0,0,0,0,0,0,0,0,0,0,0,0,0,0,0,0,0,0,0,,0.0,3.0,2.0,1.0,4.0,1.0,13.0,0.0,1.0,9,,,36061.0,5602.0,5600.0,0.970198,1996,NY,10036,NEW YORK,PF,O,AR,A,IN,,A,A,AR,AR,AR,A69,,,,,,,A69,A
18590,237412320,1997,199712,3,994,914,27995,N,N,N,N,N,N,N,N,N,N,N,N,N,N,N,N,N,N,N,994.0,119.0,64.0,197411.0,FLARE FOUNDATION FOR THE ARTS INC,NEW YORK,NY,10019,200 CENTRAL PARK S 21E,10019-1415,0,914,0,0,0,0,0,225,2019,-1105,2019,914,0,0,0,0,0,0,27995,1388,1406,0,914,0,1794,0,1794,0,0,1719,0,0,27995,0,27995,18,0,0,0,0,0,0,0,0,28600,1400,0,0,0,0,0,0,0,0,0,0,0,0,0,0,0,0,0,0,0,0,0,0,0,0,0,0,0,0,0,0,0,0,0,0,0,0,0,0,0,0,18,,0.0,3.0,2.0,1.0,4.0,1.0,13.0,0.0,1.0,12,,,36061.0,5602.0,5600.0,0.23997,1997,NY,10019,NEW YORK,PF,S,ZB,A,IN,,A,A,AR,AR,AR,A12,,,,,,,A12,A
18829,237443020,1997,199712,3,602,2177043,2781459,N,Y,N,N,N,N,N,N,N,N,N,N,N,N,N,N,N,N,N,602.0,0.0,0.0,197504.0,ABC BROADCASTING FOUNDATION INC,NEW YORK,NY,10023,77 W 66TH ST 11TH FLR,10023-6201,2000000,177043,0,0,0,0,0,3082616,3090886,-913843,3082616,177043,177043,0,0,0,0,0,2781459,0,144817,0,177043,177043,8270,0,0,0,0,-799423,0,0,2781459,0,2781459,1770,0,0,5623,0,0,0,0,3853,2940500,143000,0,0,0,0,0,0,0,0,0,0,0,0,0,0,0,0,0,0,0,0,0,0,0,0,0,0,0,0,0,0,0,0,0,0,0,0,0,0,0,0,1770,,0.0,3.0,1.0,1.0,4.0,1.0,13.0,0.0,1.0,12,,,36061.0,5602.0,5600.0,0.30521,1997,NY,10023,NEW YORK,PF,O,AR,A,IN,,A,A,AR,AR,AR,A30,,,,,,,A30,A
28244,382415253,1996,199612,3,90,41688,760466,Y,N,Y,N,Y,N,N,N,N,N,N,N,N,N,N,N,N,N,N,90.0,0.0,0.0,198303.0,CENTER FOR ALTERNATIVE MEDIA AND CULTURE,NEW YORK,NY,10022,350 PARK AVE,10022-6022,0,41688,0,0,0,0,0,57000,99941,-58253,94985,41688,41688,224431,0,0,224431,181,761551,0,38408,0,41688,41688,42941,0,37985,0,0,8978,0,0,761551,0,760285,0,0,0,0,0,0,0,0,0,779900,0,38408,35630,20257,19649,113944,94985,40977,30856,36784,203602,760465,821378,827303,839091,3248237,760465,821378,827303,839091,3248237,25605,27050,27309,27769,107733,0,0,0,0,0,0,0,0,0,0,0,0,0,0,0,0,% STARR & CO,0.0,3.0,1.0,1.0,2.0,1.0,13.0,0.0,1.0,12,,,36061.0,5602.0,5600.0,0.856174,1996,NY,10022,NEW YORK,PF,O,AR,A,IN,,A,A,AR,AR,AR,A30,,,,,,,A30,A
35413,510254205,1997,199712,3,602,463387,345135,N,N,N,N,N,N,N,N,N,N,N,N,N,N,N,N,N,N,N,602.0,0.0,0.0,198012.0,THE MUSEUM OF SCOTLAND AND HERITAGE TRUST FOUNDATION,NEW YORK,NY,10021,165 E 72ND ST,10021-4335,457430,0,142,5815,0,0,0,859194,823580,-360193,859194,142,5957,0,0,0,0,0,345135,0,14300,0,142,5957,-35614,0,0,0,0,231746,0,0,345135,0,345135,1,0,0,0,0,0,0,0,0,290300,14300,0,0,0,0,0,0,0,0,0,0,0,0,0,0,0,0,0,0,0,0,0,0,0,0,0,0,0,0,0,0,0,0,0,0,0,0,0,0,0,0,1,% SLOANE & HINSHAW INC,0.0,3.0,1.0,1.0,4.0,1.0,13.0,0.0,1.0,12,,,36061.0,5602.0,5600.0,0.43034700000000004,1997,NY,10021,NEW YORK,PF,O,AR,A,IN,,A,A,AR,AR,AR,A50,,,,,,,A50,A
36527,521798613,1997,199712,3,560,1000,1000,N,N,N,N,N,N,N,N,N,N,N,N,N,N,N,N,N,N,N,560.0,179.0,0.0,199306.0,AMERICAN FRIENDS OF THE CAMBODIA TRUST INC,NEW YORK,NY,10019,1675 BROADWAY,10019-5820,1000,0,0,0,0,0,0,0,0,1000,0,0,0,0,0,0,0,0,1000,3,3,0,0,0,0,0,0,0,0,1000,0,0,1000,0,1000,0,0,0,0,0,0,0,0,0,100,0,0,0,0,0,0,0,0,0,0,0,0,0,0,0,0,0,0,0,0,0,0,0,0,0,0,0,0,0,0,0,0,0,0,0,0,0,0,0,0,0,0,% PETER V DARROW,0.0,3.0,1.0,1.0,4.0,2.0,31.0,200306.0,1.0,12,,,36061.0,5602.0,5600.0,0.09313350000000001,1997,NY,10019,NEW YORK,PF,S,ZA,A,IN,,A,A,AR,AR,AR,A11,,,,,,,A1123,A
41510,592343891,1997,199712,3,92,114,174,N,N,N,N,N,N,N,N,N,N,N,N,N,N,N,N,N,N,N,92.0,0.0,0.0,198810.0,RED BASS PRODUCTIONS INC,NEW YORK,NY,10013,373 BROADWAY F 19,10013-3926,0,0,0,0,114,0,0,0,20,94,0,0,114,0,0,0,0,3260,174,0,6,0,0,114,20,0,0,0,0,174,0,0,174,0,-3086,0,0,0,0,0,0,0,0,0,100,0,0,0,0,0,0,0,0,0,0,0,0,0,0,0,0,0,0,0,0,0,0,0,0,0,0,0,0,0,0,0,0,0,0,0,0,0,0,0,0,0,0,,0.0,3.0,1000.0,1.0,4.0,1.0,13.0,0.0,1.0,12,,,36061.0,5602.0,5600.0,0.872851,1997,NY,10013,NEW YORK,PF,O,AR,A,IN,,A,A,AR,AR,AR,A60,,,,,,,A60,A
41641,592653271,1996,199612,3,60,47298,139395,N,N,N,N,N,N,N,N,N,N,N,N,N,N,N,N,N,N,N,60.0,62.0,0.0,198702.0,PAN AM HISTORICAL FOUNDATION INC,NEW YORK,NY,10169,230 PARK AVE RM 1450,10169-1499,19990,0,55,0,2943,24309,0,0,31088,16210,5524,55,0,0,5187,0,5187,0,140513,0,1683,0,55,0,31088,0,5524,0,0,35981,0,0,140513,0,139395,1,0,0,7,0,0,0,0,6,34200,1700,0,0,0,0,0,0,0,0,0,0,0,0,0,0,0,0,0,0,0,0,0,0,0,0,0,0,0,0,0,0,0,0,0,0,0,0,0,0,0,0,1,% JAUN T TRIPPE,0.0,3.0,2.0,1.0,4.0,1.0,13.0,0.0,1.0,12,,,36061.0,5602.0,5600.0,0.627201,1996,NY,10169,NEW YORK,PF,O,AR,A,IN,,A,A,AR,AR,AR,A82,,,,,,,A82,A
55466,953697181,1996,199606,3,88,478,0,N,N,N,Y,Y,N,N,N,N,N,N,N,N,N,N,N,N,N,N,88.0,90.0,0.0,198201.0,ONE WORLD ARTS FOUNDATION INC,NEW YORK,NY,10024,230 W 79TH ST 93 N,10024-6210,0,478,0,0,0,0,0,0,41035,-40557,40599,478,42,0,0,0,0,0,0,0,1932,0,478,478,41035,0,40599,0,436,0,0,0,0,0,0,10,0,0,0,0,10,0,0,0,38700,0,0,0,0,0,0,40599,507353,441404,418923,1408279,0,84363,169973,81961,336297,0,84363,169973,81961,336297,0,0,0,0,0,0,0,0,0,0,0,0,0,0,0,0,0,0,0,0,10,,0.0,3.0,2000.0,1.0,4.0,1.0,13.0,0.0,1.0,6,,,36061.0,5602.0,5600.0,0.4314,1995,NY,10024,NEW YORK,PF,S,ZB,A,IN,,A,A,AR,AR,AR,A12,,,,,,,A12,A
55877,954124438,1996,199612,3,120,447705,249681,N,N,N,N,Y,N,N,N,N,N,N,N,N,N,N,N,N,N,N,120.0,91.0,119.0,198801.0,ART RESOURCES TRANSFER INC,NEW YORK,NY,10001,210 11TH AVE 403,10001-1210,461171,0,1838,0,16522,2213,0,48302,367151,80554,364074,1838,18360,0,0,0,0,86382,249681,364056,12663,0,1838,18360,318849,0,315772,0,0,21665,0,0,249681,0,163299,0,0,0,0,0,0,0,0,0,257100,0,12663,13461,11442,8142,45708,364074,184215,184215,95589,828093,0,0,0,0,0,0,0,0,0,0,0,0,0,0,0,461171,183044,183044,74972,902231,0,0,0,0,0,1838,77,77,31,2023,0,,0.0,3.0,1.0,1.0,2.0,1.0,13.0,0.0,1.0,12,,,36061.0,5602.0,5600.0,0.787704,1996,NY,10001,NEW YORK,PF,O,AR,A,IN,,A,A,AR,AR,AR,A02,,,,,,,A02,A
57388,990109198,1997,199712,3,119,8105,1005888,N,N,N,N,Y,N,N,N,N,N,N,N,N,N,N,N,N,N,N,119.0,0.0,0.0,196409.0,FOUNDATION FOR SOUTHEAST ASIAN ART AND CULTURE,NEW YORK,NY,10019,1633 BROADWAY 39TH FLR,10019-6708,7800,305,0,0,0,0,0,0,87467,-79362,79659,305,305,0,0,0,0,140533,1005888,0,710,0,305,305,87467,0,79659,0,0,1814,0,0,1005888,0,865355,6,0,0,0,0,0,0,0,0,14400,0,305,413,453,435,1606,79659,32155,136796,104573,353183,1005888,608143,607132,607472,2828635,1047275,589883,589785,590110,2817053,0,0,0,0,0,0,0,0,0,0,0,0,0,0,0,0,0,0,0,0,6,,0.0,3.0,1.0,1.0,3.0,1.0,13.0,0.0,1.0,12,,,36061.0,5602.0,5600.0,0.782671,1997,NY,10019,NEW YORK,PF,O,AR,A,IN,,A,A,AR,AR,AR,A23,,,,,,,A23,A
