,EIN,FisYr,STYEAR,TAXPER,NTEE,SUBSECCD,ACTIV,P1TCONT,P1INTREV,P1DIVID,P1NGASTS,P1GINVPF,P1OTHINC,P1OFCOMP,P1CONTPD,P1TOTREV,P1TOTEXP,P1EXCREV,P1TEXMEX,P1NETINV,P1NADINC,P2TOTAST,P2GVTINV,P2CRPSTK,P2CRPBND,P2TINVSC,P2TLIABL,P2TASFMV,P13UNDST,P10MIR,P6EXMPF,P6DOMORG,P7POLIT,P7LIQUID,P7POFCLM,P7DISSAL,P7DISBOR,P7DISSER,P7DISPAY,P7DISTRA,P7PAYGVT,P7UNDINC,P7BUSINT,P7JEOINV,P7PROPAG,P7ELECT,P7INDGRT,P7ORGGRT,P7OTHPUR,P1GRENTS,P1INVRV,P1NADJRV,P1ADMEXP,P1INVEXP,P1CHAEXP,P1TINVEX,P1TADJEX,P2CASHBV,P2MORTG,P2EYOTIN,P2EYASST,P2MTGNTS,P3EYTFND,P6TX4940,P6TX511,P6TXSUBA,P6ESTTX,P6TXWTH,P6TXINV,P6TXWERR,P6TXPNLT,P6TXCRDT,P10TASST,P11DISTR,P14NADJA,P14NADJB,P14NADJC,P14NADJD,P14TNADJ,P14QDISA,P14QDISB,P14QDISC,P14QDISD,P14TQDIS,P14ASVLA,P14ASVLB,P14ASVLC,P14ASVLD,P14TASVL,P14A4942,P14B4942,P14C4942,P14D4942,P14T4942,P14ENDWA,P14ENDWB,P14ENDWC,P14ENDWD,P14TENDW,P14TSUPA,P14TSUPB,P14TSUPC,P14TSUPD,P14TTSUP,P14PSUPA,P14PSUPB,P14PSUPC,P14PSUPD,P14TPSUP,P14GINVA,P14GINVB,P14GINVC,P14GINVD,P14TGINV,NAME,CONTACT,ADDRESS,CITY,STATE,ZIP,GEN,AFCD,CLASSCD,RULEDATE,DEDUCTCD,FNDNCD,ACTIV1,ACTIV2,ACTIV3,ORGCD,DISTRICT,ARED,FRCD,ACCPER,SEC_NAME,ZIP5,P6TEXCTX,verify,NTEECC,NTEE1,LEVEL1,LEVEL2,LEVEL3,LEVEL4,MAJGRPB,OUTNCCS,OUTREAS,NTEESRC,ntmaj10,ntmaj12,ntmaj5,randnum,nteeConf,FIPS,MSA_NECH,PMSA,stateOld1,zip5Old1,cityOld1,LEVEL1old20090616,LEVEL2old20090616,LEVEL3old20090616,LEVEL4old20090616,OUTNCCSold20090616,OUTREASold20090616,nteeFinal,nteeFinal1
3230,53842834,1998,1997,199809,A23Z,3,60,0,0,0,0,0,0,0,0,1,0,1,0,0,0,1,0,0,0,0,0,0,0,0,N,N,N,N,N,N,N,N,N,N,N,N,N,N,N,N,N,N,N,0,0,0,0,0,0,0,0,0,0,0,0,0,0,0,0,0,0,0,0,0,0,0,0,0,0,0,0,0,0,0,0,0,0,0,0,0,0,0,0,0,0,0,0,0,0,0,0,0,0,0,0,0,0,0,0,0,0,0,0,0,0,0,0,0,FREDERICK BROWN MUSEUM INC,% L WOLLIN,350 FIFTH AVE STE 2822,NEW YORK,NY,10118-2899,0.0,3.0,1.0,199511.0,1.0,4.0,60.0,0.0,0.0,1.0,13.0,0.0,1.0,9,,10118.0,0,,A23,A,PF,O,AR,A,A,IN,,1,AR,AR,AR,0.10718599999999999,C,36061.0,5602.0,5600.0,NY,10118.0,NEW YORK,PF,S,AR,A,IN,,A50,A
4921,113121207,1998,1997,199802,A60Z,3,122,0,0,0,0,0,0,0,0,1,0,1,0,0,0,101510,0,0,0,0,75962,101510,1302,1302,N,N,N,N,N,N,N,N,N,N,N,N,N,N,N,N,N,N,N,0,0,0,0,0,0,0,0,890,0,0,101510,0,25548,0,0,0,0,0,0,0,0,0,26438,1302,0,0,0,0,0,0,0,0,0,0,0,0,0,0,0,0,0,0,0,0,0,0,0,0,0,0,0,0,0,0,0,0,0,0,0,0,0,0,0,0,B KING PRODUCTIONS INC,% STARR & CO,350 PARK AVE,NEW YORK,NY,10022-6022,0.0,3.0,1.0,199402.0,1.0,4.0,122.0,0.0,0.0,1.0,13.0,0.0,1.0,2,,10022.0,0,,A60,A,PF,O,AR,A,A,IN,,1,AR,AR,AR,0.668365,C,36061.0,5602.0,5600.0,NY,10022.0,NEW YORK,PF,S,AR,A,IN,,A60,A
4927,113131714,1998,1998,199812,A99Z,3,560,0,0,0,0,0,0,0,0,1,0,1,0,0,0,1,0,0,0,0,0,0,0,0,N,N,N,N,N,N,N,N,N,N,N,N,N,N,N,N,N,N,N,0,0,0,0,0,0,0,0,0,0,0,0,0,0,0,0,0,0,0,0,0,0,0,0,0,0,0,0,0,0,0,0,0,0,0,0,0,0,0,0,0,0,0,0,0,0,0,0,0,0,0,0,0,0,0,0,0,0,0,0,0,0,0,0,0,PEACE UNITY AND PROSPERITY FOUNDATION INC,% SARITA SACHOEUA,95 54 111TH ST,RICHMOND HILL,NY,11419-1023,0.0,3.0,1.0,199607.0,1.0,4.0,560.0,0.0,0.0,1.0,11.0,0.0,1.0,12,,11419.0,0,,A99,A,PF,O,AR,A,A,IN,,1,AR,AR,AR,0.6718930000000001,C,36081.0,5602.0,5600.0,NY,11419.0,RICHMOND HILL,PF,S,AR,A,IN,,A99,A
4939,113137086,1998,1998,199812,A99Z,3,560,90000,4499,0,0,0,0,0,75501,94499,76418,18081,75501,3582,3582,296916,0,0,0,0,0,296916,0,9497,N,Y,N,N,N,N,N,N,N,N,N,N,N,N,N,N,N,N,N,0,4499,4499,917,917,0,917,917,296916,0,0,296916,0,296916,36,0,0,0,0,0,0,0,0,192837,9461,0,0,0,0,0,0,0,0,0,0,0,0,0,0,0,0,0,0,0,0,0,0,0,0,0,0,0,0,0,0,0,0,0,0,0,0,0,0,0,0,J Z L FOUNDATION,% MICKEY WOHL,87 09 CLIO ST,HOLLISWOOD,NY,11423-1229,0.0,3.0,1.0,199508.0,1.0,4.0,560.0,0.0,0.0,2.0,11.0,0.0,1.0,12,,11423.0,36,,A99,A,PF,O,AR,A,A,IN,,1,AR,AR,AR,0.7132109999999999,C,36081.0,5602.0,5600.0,NY,11423.0,HOLLISWOOD,PF,S,AR,A,IN,,A99,A
4958,113162087,1998,1998,199812,,3,994,92509,0,0,0,0,118729,0,0,211238,237542,-26304,217540,0,105796,739707,0,569403,0,569403,14334,739707,0,46,N,N,N,N,N,N,N,N,N,N,N,N,N,N,N,N,N,N,N,0,0,118729,237542,0,217540,0,12933,0,0,0,739707,0,725373,0,0,0,0,0,0,0,0,0,929,0,0,0,0,0,0,0,0,0,0,0,0,0,0,0,0,0,0,0,0,0,0,0,0,0,0,0,0,0,0,0,0,0,0,0,0,0,0,0,0,0,AMERICAN MUSEUM FOR THE PRESERVATION OF HISTORIC AIRCRAFT,% AVIREX LTD,33 00 47TH AVE,LONG IS CITY,NY,11101-2430,0.0,3.0,1.0,199308.0,1.0,4.0,994.0,60.0,0.0,1.0,11.0,0.0,1.0,12,,11101.0,0,,A50,A,PF,O,AR,A,A,IN,,1,AR,AR,AR,0.839986,B,36081.0,5602.0,5600.0,NY,11101.0,LONG IS CITY,PF,S,AR,A,IN,,A50,A
4966,113174234,1997,1997,199712,,3,602,46995,0,7194,0,0,0,0,3450,54189,4088,50101,4088,7194,0,156605,11037,0,60000,71037,0,156605,1996,6156,N,Y,N,N,N,N,N,N,N,N,N,N,N,N,N,N,N,N,N,0,7194,0,638,0,638,0,0,0,0,0,156605,0,156605,72,0,0,0,0,72,0,0,0,125000,6084,0,0,0,0,0,0,0,0,0,0,0,0,0,0,0,0,0,0,0,0,0,0,0,0,0,0,0,0,0,0,0,0,0,0,0,0,0,0,0,0,FOUNDATION FOR THE ADVANCEMENT OF ARTS AND SCIENCES FROM INDIA INC,% RAVI S KULKARNI,150 56 MELBOURNE AVE,FLUSHING,NY,11367-1439,0.0,3.0,1.0,199310.0,1.0,4.0,602.0,0.0,0.0,1.0,11.0,0.0,1.0,12,,11367.0,72,,A99,A,PF,O,AR,A,A,IN,,1,AR,AR,AR,0.147971,B,36081.0,5602.0,5600.0,NY,11367.0,FLUSHING,PF,S,AR,A,IN,,A0123,A
5031,113227149,1998,1997,199806,A47P,3,91,0,0,0,0,0,52811,5000,150,52811,51202,1609,51202,0,0,10251,0,0,0,0,6234,10251,0,0,N,N,N,N,N,N,N,N,N,N,N,N,N,N,N,N,N,N,N,0,0,0,51052,0,51052,0,0,7667,0,0,10251,0,4017,0,0,0,0,0,0,0,0,0,8036,0,0,0,0,0,0,0,0,0,0,0,0,0,0,0,0,0,0,0,0,0,0,0,0,0,0,0,0,0,0,0,0,0,0,0,0,0,0,0,0,0,CLAYWORKS ON COLUMBIA INC,,195 COLUMBIA STREET,BROOKLYN,NY,11231-0000,0.0,3.0,3.0,199612.0,1.0,4.0,91.0,149.0,59.0,1.0,11.0,0.0,1.0,6,,11231.0,0,,A40,A,PF,O,AR,A,A,IN,,1,AR,AR,AR,0.607982,C,36047.0,5602.0,5600.0,NY,11231.0,BROOKLYN,PF,S,AR,A,IN,,A40,A
5148,113343213,1998,1997,199809,A25,3,0,74500,0,1194,42100,0,0,40000,4700,117794,48175,69619,26840,1194,1194,255252,0,0,0,0,20000,255252,0,6173,N,N,N,N,Y,N,N,Y,Y,N,N,N,N,N,N,N,N,N,N,0,1194,1194,43475,0,22140,0,0,64112,0,0,255252,0,235272,24,0,0,0,0,0,0,0,0,125345,0,1194,1227,0,0,2421,26840,63063,0,0,89903,0,0,0,0,0,0,0,0,0,0,4115,2597,0,0,6712,0,0,0,0,0,0,0,0,0,0,0,0,0,0,0,ROY AND SHERRY DECARAVA FOUNDATION,% ROY & SHERRY & SUSAN W DECARAVA,81 HALSEY ST,BROOKLYN,NY,11216-1902,0.0,3.0,1.0,199904.0,1.0,3.0,0.0,0.0,0.0,2.0,11.0,0.0,1.0,9,,11216.0,24,,A25,A,PF,O,AR,A,A,IN,,1,AR,AR,AR,0.09191410000000001,C,36047.0,5602.0,5600.0,NY,11216.0,BROOKLYN,PF,O,AR,A,IN,,A25,A
5678,131655152,1997,1997,199712,A41Z,3,59,18156,0,242051,268444,0,9196,65000,22600,953700,581079,372621,244400,654669,420168,5316783,0,0,0,0,80991,7106792,0,312590,N,N,N,N,Y,N,N,N,N,N,N,N,N,N,N,N,N,N,N,415853,926348,691847,558479,271679,221800,271679,271679,23205,0,3935526,7106792,0,5235792,13093,0,0,0,0,0,0,0,0,6347004,0,312590,287845,73185,259895,933515,244400,284018,51725,377454,957597,7106792,6482795,6106387,6016869,25712843,533333,533333,533333,533333,2133332,208393,191897,48790,189805,638885,18156,12965,2260,25049,58430,18156,12965,2260,25049,58430,641669,492947,92993,294514,1522123,VAN ALEN INSTITUTE PROJECTS IN PUBLIC ARCHITECTURE,,30 W 22ND ST 6TH FLR,NEW YORK,NY,10010-5884,0.0,1.0,2.0,193804.0,1.0,3.0,59.0,0.0,0.0,1.0,13.0,200312.0,1.0,12,,10010.0,13093,,A40,A,PF,O,AR,A,A,IN,,1,AR,AR,AR,0.8602780000000001,A,36061.0,5602.0,5600.0,NY,10010.0,NEW YORK,PF,O,AR,A,IN,,A40,A
5721,131873289,1998,1998,199812,A50Z,3,119,12625,163,61352,237767,0,0,0,38767,311909,107259,204650,84656,276803,0,1676977,397519,838695,418975,1655189,418,2428507,0,110518,N,N,N,N,N,N,N,N,N,N,N,N,N,N,N,N,Y,N,N,0,299284,0,68491,22481,45888,22481,0,0,0,0,2428507,0,1676559,5536,0,0,3000,0,0,0,0,0,2244038,104982,0,0,0,0,0,0,0,0,0,0,0,0,0,0,0,0,0,0,0,0,0,0,0,0,0,0,0,0,0,0,0,0,0,0,0,0,0,0,0,0,BAGBY FOUNDATION FOR THE MUSICAL ARTS INC,,501 FIFTH AVE,NEW YORK,NY,10017-6103,0.0,3.0,1.0,194211.0,1.0,4.0,119.0,0.0,0.0,1.0,13.0,0.0,1.0,12,,10017.0,5536,,A50,A,PF,O,AR,A,A,IN,,1,AR,AR,AR,0.796243,C,36061.0,5602.0,5600.0,NY,10017.0,NEW YORK,PF,S,AR,A,IN,,A68,A
5885,132898805,1998,1997,199806,,3,119,908433,50,33000,41903,0,472406,65000,0,1455792,1237479,218313,841756,34496,150190,1341591,179073,0,0,179073,113970,1341591,0,53908,N,Y,N,N,Y,N,N,N,N,N,N,N,N,N,N,N,N,N,N,0,74953,505456,1237479,40457,841756,40457,355266,59875,0,805721,1341591,0,1227621,345,0,0,0,0,400,0,0,0,1094575,0,53908,0,0,41896,95804,841756,415114,353947,687316,2298133,1341591,1007195,933372,1042925,4325083,0,0,0,0,0,35939,27151,26778,27931,117799,0,0,0,0,0,0,0,0,0,0,0,0,0,0,0,PUBLIC ART FUND INC,,1 E 53RD ST,NEW YORK,NY,10022-4200,0.0,3.0,2.0,197707.0,1.0,3.0,119.0,123.0,429.0,5.0,13.0,0.0,1.0,6,,10022.0,345,,A40,A,PF,O,AR,A,A,IN,,1,AR,AR,AR,0.812673,B,36061.0,5602.0,5600.0,NY,10022.0,NEW YORK,PF,O,AR,A,IN,,A1240,A
6264,133150248,1997,1997,199712,,3,149,4487,4687,126586,58247,0,0,0,57384,194007,102998,91009,75102,163298,0,2243363,1259609,757674,0,2017283,0,3015775,0,144085,N,N,N,N,N,N,N,N,N,N,N,N,N,N,N,N,Y,N,N,0,189520,0,45614,26222,17718,26222,0,13671,0,0,3015775,0,2243363,3266,0,0,3877,0,0,0,0,611,2925576,140819,0,0,0,0,0,0,0,0,0,0,0,0,0,0,0,0,0,0,0,0,0,0,0,0,0,0,0,0,0,0,0,0,0,0,0,0,0,0,0,0,SOCIETE DES PROFESSEORS FRANCAIS EN AMERIQUE,,PO BOX 6641,NEW YORK,NY,10128-0015,0.0,3.0,2.0,199410.0,1.0,4.0,149.0,0.0,0.0,1.0,13.0,0.0,1.0,12,,10128.0,3266,,A70,A,PF,O,AR,A,A,IN,,1,AR,AR,AR,0.609893,A,36061.0,5602.0,5600.0,NY,10128.0,NEW YORK,PF,S,AR,A,IN,,B82,B
6420,133229829,1999,1998,199904,A23Z,3,46,53072,0,0,0,0,0,0,0,53072,58400,-5328,0,0,0,8523,0,0,0,0,4150,8523,0,0,N,N,N,N,N,N,N,N,N,N,N,N,N,N,N,N,N,N,N,0,0,0,58400,0,0,0,0,8147,0,0,8523,0,4373,0,0,0,0,0,0,0,0,0,0,0,0,0,0,0,0,0,0,0,0,0,0,0,0,0,0,0,0,0,0,0,0,0,0,0,0,0,0,0,0,0,0,0,0,0,0,0,0,0,0,0,KOREAN LANGUAGE & CULTURAL INSTITUTE INC,,246 5TH AVE STE 500,NEW YORK,NY,10001-7603,0.0,3.0,1.0,199101.0,1.0,4.0,46.0,0.0,0.0,1.0,13.0,0.0,1.0,4,,10001.0,0,,A23,A,PF,O,AR,A,A,IN,,1,AR,AR,AR,0.916615,A,36061.0,5602.0,5600.0,NY,10001.0,NEW YORK,PF,S,AR,A,IN,,A23,A
6864,133389923,1998,1997,199810,,3,122,10000,0,0,0,0,10827,0,0,20827,147718,-126891,5036,0,0,158241,0,0,0,0,311668,36614,0,204,N,N,N,N,N,N,N,N,N,N,N,N,N,N,N,N,N,N,N,0,0,10827,147718,0,5036,0,35539,9870,0,0,36614,0,-153427,0,0,0,0,0,0,0,0,0,4144,0,0,0,0,0,0,0,0,0,0,0,0,0,0,0,0,0,0,0,0,0,0,0,0,0,0,0,0,0,0,0,0,0,0,0,0,0,0,0,0,0,THE TEREZIN FOUNDATION INC,,262 CENTRAL PARK WEST,NEW YORK,NY,10024-3512,0.0,3.0,1.0,198703.0,1.0,4.0,122.0,0.0,0.0,1.0,13.0,0.0,1.0,10,,10024.0,0,,A31,A,PF,O,AR,A,A,IN,,1,AR,AR,AR,0.213089,A,36061.0,5602.0,5600.0,NY,10024.0,NEW YORK,PF,S,AR,A,IN,,A31,A
6921,133406046,1997,1997,199712,,3,0,20000,0,0,0,0,0,0,17600,20000,17680,2320,17680,0,0,5586,0,0,0,0,0,5661,0,222,N,N,N,N,N,N,N,N,N,N,N,N,N,N,N,N,N,N,N,0,0,0,80,0,80,0,0,5586,0,0,5661,0,5586,0,0,0,0,0,0,0,0,0,4514,222,0,0,0,0,0,0,0,0,0,0,0,0,0,0,0,0,0,0,0,0,0,0,0,0,0,0,0,0,0,0,0,0,0,0,0,0,0,0,0,0,FRANCIS J GREENBURGER FOUNDATION INC,% TIME EQUITIES INC,55 5TH AVE,NEW YORK,NY,10003-4301,0.0,3.0,1.0,200106.0,1.0,4.0,0.0,0.0,0.0,1.0,75.0,0.0,1.0,12,,10003.0,0,,A99,A,PF,O,AR,A,A,IN,,1,AR,AR,AR,0.708274,C,36061.0,5602.0,5600.0,NY,10003.0,NEW YORK,PF,O,AR,A,IN,,A40,A
7022,133442712,1997,1997,199712,,3,122,215204,0,0,0,0,19291,0,0,234495,84327,150168,0,0,0,160760,0,0,0,0,0,160760,0,0,N,N,N,N,N,N,N,N,N,N,N,N,N,N,N,N,N,N,N,0,0,0,84327,0,0,0,0,160460,0,0,160760,0,160760,0,0,0,0,0,0,0,0,0,0,0,0,0,0,0,0,0,0,0,0,0,0,0,0,0,0,0,0,0,0,0,0,0,0,0,0,0,0,0,0,0,0,0,0,0,0,0,0,0,0,0,OUTSIDE IN JULY INC,% J L ROSENHOUSE CPA INC,250 W 57TH ST STE 2203,NEW YORK,NY,10019-3741,0.0,3.0,1.0,198810.0,1.0,4.0,122.0,0.0,0.0,1.0,13.0,0.0,1.0,12,GARRISON,10019.0,0,,A31,A,PF,O,AR,A,A,IN,,1,AR,AR,AR,0.41537700000000005,B,36061.0,5602.0,5600.0,NY,10019.0,NEW YORK,PF,S,AR,A,IN,,A31,A
7024,133442953,1998,1998,199812,,3,121,5000,36,0,0,0,0,0,0,5036,12888,-7852,0,36,36,-8874,0,0,0,0,0,1918,0,0,N,N,N,N,N,N,N,N,N,N,N,Y,N,N,N,N,N,N,N,0,36,36,12888,0,0,0,0,1918,0,0,1918,0,-8874,1,0,0,0,0,0,0,0,0,0,0,0,0,0,0,0,0,0,0,0,0,0,0,0,0,0,0,0,0,0,0,0,0,0,0,0,0,0,0,0,0,0,0,0,0,0,0,0,0,0,0,VIDEO INFORMATION NETWORK,,257 W 86TH ST APT 5A,NEW YORK,NY,10024-3105,0.0,3.0,1.0,198802.0,1.0,4.0,121.0,0.0,0.0,1.0,13.0,0.0,1.0,12,,10024.0,1,,A31,A,PF,O,AR,A,A,IN,,1,AR,AR,AR,0.748742,B,36061.0,5602.0,5600.0,NY,10024.0,NEW YORK,PF,S,AR,A,IN,,A31,A
7075,133464919,1997,1997,199712,,3,91,92495,0,0,0,0,0,0,0,92495,88811,3684,0,0,0,14551,0,0,0,0,25960,14551,0,0,N,N,N,N,N,N,N,N,N,N,N,N,N,N,N,N,N,N,N,0,0,0,88811,0,0,0,0,13980,0,0,14551,0,-11409,0,0,0,0,0,0,0,0,0,0,0,0,0,0,0,0,0,0,0,0,0,0,0,0,0,0,0,0,0,0,0,0,0,0,0,0,0,0,0,0,0,0,0,0,0,0,0,0,0,0,0,WORLD PRESS PHOTO USA FOUNDATION INC,% RABOBANK NEDERLAND,245 PARK AVE,NEW YORK,NY,10167-0002,0.0,3.0,1.0,198909.0,1.0,4.0,91.0,0.0,0.0,1.0,13.0,0.0,1.0,12,,10167.0,0,,A40,A,PF,O,AR,A,A,IN,,1,AR,AR,AR,0.433278,B,36061.0,5602.0,5600.0,NY,10167.0,NEW YORK,PF,S,AR,A,IN,,A40,A
7115,133486646,1998,1998,199812,,3,123,0,0,5399,-16801,0,0,0,10000,-11402,11750,-23152,10626,5138,0,243211,0,181017,53258,234275,0,301661,8787,15473,N,Y,N,N,N,N,N,N,N,N,N,N,N,N,N,N,N,N,N,0,5399,0,1750,261,626,261,0,1,0,0,301661,0,243211,51,0,0,525,0,0,0,0,474,314177,15422,0,0,0,0,0,0,0,0,0,0,0,0,0,0,0,0,0,0,0,0,0,0,0,0,0,0,0,0,0,0,0,0,0,0,0,0,0,0,0,0,RONALD A WILFORD FOUNDATION FOR CONDUCTORS INC,% US TRUST CO OF NY,114 W 47TH ST TAXVS,NEW YORK,NY,10036-1510,0.0,3.0,1.0,198906.0,1.0,4.0,123.0,0.0,0.0,1.0,13.0,0.0,1.0,12,,10036.0,51,,A60,A,PF,O,AR,A,A,IN,,1,AR,AR,AR,0.538797,B,36061.0,5602.0,5600.0,NY,10036.0,NEW YORK,PF,S,AR,A,IN,,A60,A
7290,133556699,1998,1998,199812,,3,60,18341,14,0,0,0,0,0,0,18355,29017,-10662,0,14,14,3763,0,0,0,0,0,3763,356,356,N,N,N,N,N,N,N,N,N,N,N,Y,N,N,N,N,N,N,N,0,14,14,29017,0,0,0,0,0,0,0,3763,0,3763,0,0,0,0,0,0,0,0,0,7219,356,0,0,0,0,0,0,0,0,0,0,0,0,0,0,0,0,0,0,0,0,0,0,0,0,0,0,0,0,0,0,0,0,0,0,0,0,0,0,0,0,CHAIM GROSS MUSEUM,% ADFEL LEVY ZLOTNICK & CO,526 LA GUARDIA PL,NEW YORK,NY,10012-1401,0.0,3.0,1.0,199008.0,1.0,4.0,60.0,0.0,0.0,1.0,13.0,0.0,1.0,12,,10012.0,0,,A50,A,PF,O,AR,A,A,IN,,1,AR,AR,AR,0.959684,B,36061.0,5602.0,5600.0,NY,10012.0,NEW YORK,PF,S,AR,A,IN,,A50,A
7333,133572120,1998,1997,199809,,3,122,9200,0,0,728,0,-420,0,0,9508,32911,-23403,27497,308,0,34150,0,0,0,0,114074,34150,0,1147,N,Y,N,N,Y,N,N,Y,N,N,N,N,N,N,N,N,N,N,N,0,308,0,32911,0,27497,0,0,3013,0,23295,34150,0,-79924,3,0,0,0,0,0,0,0,0,23295,0,1147,0,0,0,1147,27497,59944,70908,0,158349,34150,15054,19256,0,68460,34150,15054,19256,0,68460,765,0,0,0,765,0,0,0,0,0,0,0,0,0,0,0,0,0,0,0,FUND FOR NEW PERFORMANCE VIDEO INC,,175 W 73RD STE 12D,NEW YORK,NY,10023-2934,0.0,3.0,1.0,199401.0,1.0,3.0,122.0,0.0,0.0,1.0,13.0,0.0,1.0,9,,10023.0,3,,A11,A,PF,S,ZA,A,A,IN,,1,AR,AR,AR,0.146824,A,36061.0,5602.0,5600.0,NY,10023.0,NEW YORK,PF,S,ZA,A,IN,,A1131,A
7340,133573803,1997,1997,199712,,3,119,481360,4057,0,0,0,0,0,330000,485417,344035,141382,330000,4057,4057,243929,0,0,0,0,0,243929,122,8532,N,N,N,N,N,N,N,N,N,N,N,N,N,N,N,N,N,N,N,0,4057,4057,14035,0,0,0,0,0,0,0,243929,0,243929,81,0,0,0,0,0,0,0,0,173238,8451,0,0,0,0,0,0,0,0,0,0,0,0,0,0,0,0,0,0,0,0,0,0,0,0,0,0,0,0,0,0,0,0,0,0,0,0,0,0,0,0,FILM FOUNDATION INC,% STARR & COMPANY,350 PARK AVENUE 9TH FLOOR,NEW YORK,NY,10022-6022,0.0,3.0,1.0,199008.0,1.0,4.0,119.0,0.0,0.0,1.0,52.0,0.0,1.0,12,,10022.0,81,,A31,A,PF,O,AR,A,A,IN,,1,AR,AR,AR,0.775551,B,36061.0,5602.0,5600.0,NY,10022.0,NEW YORK,PF,S,AR,A,IN,,A31,A
7380,133591085,1998,1998,199812,A42Z,3,91,0,3640,0,0,11700,2578,0,0,17918,39524,-21606,0,3640,0,1418630,0,0,0,0,0,1418630,5492,5565,N,N,N,N,N,N,N,N,N,N,N,N,N,N,N,N,N,N,N,0,3640,17918,39524,0,0,0,39524,0,0,0,1418630,0,1418630,73,0,0,0,0,0,0,0,0,113000,5492,0,0,0,0,0,0,0,0,0,0,0,0,0,0,0,0,0,0,0,0,0,0,0,0,0,0,0,0,0,0,0,0,0,0,0,0,0,0,0,0,LISETTE MODEL FOUNDATION INC,% BLUM GERSEN AND WOOD ESQ,270 MADISON AVE,NEW YORK,NY,10016-0601,0.0,3.0,1.0,199604.0,1.0,4.0,91.0,0.0,0.0,1.0,11.0,0.0,1.0,12,,10016.0,73,,A40,A,PF,O,AR,A,A,IN,,1,AR,AR,AR,0.10120499999999999,C,36061.0,5602.0,5600.0,NY,10016.0,NEW YORK,PF,S,AR,A,IN,,A40,A
7391,133593900,1998,1998,199812,A99Z,3,123,0,275,0,0,0,0,0,0,275,31,244,25,250,250,11588,0,0,0,0,93,11588,534,564,N,N,N,N,N,N,N,N,N,N,N,N,N,N,N,N,N,N,N,0,275,275,31,0,0,25,25,0,0,0,11588,0,11495,5,0,0,0,0,0,0,0,0,11451,559,0,0,0,0,0,0,0,0,0,0,0,0,0,0,0,0,0,0,0,0,0,0,0,0,0,0,0,0,0,0,0,0,0,0,0,0,0,0,0,0,SOVIET BUSINESS AND COMMERCIAL LAW EDUCATION FOUNDATION INC,% EUGENE R SULLICAN ESQ CHADBOURNE,30 ROCKEFELLER PLAZA,NEW YORK,NY,10112-0002,0.0,3.0,1.0,199102.0,1.0,4.0,123.0,0.0,0.0,1.0,13.0,0.0,1.0,12,,10112.0,5,,A99,A,PF,O,AR,A,A,IN,,1,AR,AR,AR,0.021481599999999997,C,36061.0,5602.0,5600.0,NY,10112.0,NEW YORK,PF,S,AR,A,IN,,B11,B
7468,133626986,1999,1998,199906,,3,998,0,0,0,0,0,0,0,0,0,338,-338,0,0,0,46298,0,0,0,0,1580,46298,0,0,N,N,N,N,N,N,N,N,N,N,N,N,N,N,N,N,N,N,N,0,0,0,338,0,0,0,0,4623,0,0,46298,0,44718,0,0,0,0,0,0,0,0,0,0,0,0,0,0,0,0,0,0,0,0,0,0,0,0,0,0,0,0,0,0,0,0,0,0,0,0,0,0,0,0,0,0,0,0,0,0,0,0,0,0,0,FRIENDS OF LOUISIANA MUSEUM OF MODERN ART IN DENMARK INC,% ROSE & BOXER,620 FIFTH AVE STE 314,NEW YORK,NY,10020-2402,0.0,3.0,1.0,199201.0,1.0,4.0,998.0,0.0,0.0,1.0,13.0,0.0,1.0,6,,10020.0,0,,A11,A,PF,S,ZA,A,A,IN,,1,AR,AR,AR,0.766835,A,36061.0,5602.0,5600.0,NY,10020.0,NEW YORK,PF,S,ZA,A,IN,,A1151,A
7542,133646023,1998,1998,199812,A77P,3,200,373895,0,0,0,0,0,0,351114,373895,388254,-14359,388254,0,0,39966,0,0,0,0,0,39966,822,822,N,N,N,N,N,N,N,N,N,N,N,N,N,N,N,N,N,N,N,0,0,0,37140,0,37140,0,0,2486,0,0,39966,0,39966,0,0,0,0,0,0,0,0,0,16700,822,0,0,0,0,0,0,0,0,0,0,0,0,0,0,0,0,0,0,0,0,0,0,0,0,0,0,0,0,0,0,0,0,0,0,0,0,0,0,0,0,FRIENDS OF OHEL MOSHE INSTITUTE INC,% CHAVA GINSBURG,394 E 5TH ST,BROOKLYN,NY,11218-4005,0.0,3.0,1.0,199411.0,1.0,4.0,200.0,0.0,0.0,1.0,11.0,0.0,1.0,12,,11218.0,0,,A19,A,PF,O,AR,A,A,IN,,1,AR,AR,AR,0.311852,A,36047.0,5602.0,5600.0,NY,11218.0,BROOKLYN,PF,S,AR,A,IN,,A19,A
7594,133674360,1997,1997,199712,,3,90,0,0,229483,2019655,0,0,44207,0,2260515,963965,1296550,773109,3007002,240860,11494941,0,6975258,0,6975258,0,11494941,0,485998,N,N,N,N,N,N,N,N,Y,N,N,N,N,N,N,N,Y,N,N,11377,3046788,240860,963965,39786,773109,39786,0,0,0,0,11494941,0,11494941,60140,0,0,51482,0,31275,0,0,22617,9867984,425858,0,0,0,0,0,0,0,0,0,0,0,0,0,0,0,0,0,0,0,0,0,0,0,0,0,0,0,0,0,0,0,0,0,0,0,0,0,0,0,0,CIVITELLA RANIERI FOUNDATION,% GERALD E RUPP TTEE,10 E 40TH ST,NEW YORK,NY,10016-0200,0.0,3.0,1.0,199302.0,1.0,4.0,90.0,62.0,93.0,2.0,13.0,0.0,1.0,12,,10016.0,60140,,A20,A,PF,O,AR,A,A,IN,,1,AR,AR,AR,0.8236870000000001,C,36061.0,5602.0,5600.0,NY,10016.0,NEW YORK,PF,S,AR,A,IN,,A20,A
7621,133685295,1998,1998,199812,A40Z,3,91,17063,0,0,0,0,0,0,0,17063,15908,1155,15908,0,0,1203,0,0,0,0,0,1203,0,44,N,N,N,N,N,N,N,N,N,N,N,N,N,N,N,N,N,N,N,0,0,0,15908,0,15908,0,0,1203,0,0,1203,0,1203,0,0,0,0,0,0,0,0,0,900,0,0,0,0,0,0,0,0,0,0,0,0,0,0,0,0,0,0,0,0,0,0,0,0,0,0,0,0,0,0,0,0,0,0,0,0,0,0,0,0,0,CENTER FOR ART AND EARTH INC,% BARBARA R PETERSEN,PO BOX 4402,NEW YORK,NY,10163-4402,0.0,3.0,1.0,199506.0,1.0,4.0,91.0,0.0,0.0,1.0,13.0,0.0,1.0,12,,10163.0,0,,A20,A,PF,O,AR,A,A,IN,,1,AR,AR,AR,0.474788,A,36061.0,5602.0,5600.0,NY,10163.0,NEW YORK,PF,S,AR,A,IN,,A20,A
7622,133685701,1997,1997,199712,A60Z,3,90,0,0,0,0,361970,0,161000,0,361970,311920,50050,0,0,361970,141629,0,0,0,0,1821,141629,0,0,N,N,N,N,N,N,N,N,N,N,N,N,N,N,N,N,N,N,N,0,0,361970,311920,0,0,0,0,4191,0,0,141629,0,139808,0,0,0,0,0,0,0,0,0,0,0,0,0,0,0,0,0,0,0,0,0,0,0,0,0,0,0,0,0,0,0,0,0,0,0,0,0,0,0,0,0,0,0,0,0,0,0,0,0,0,0,LIVING ARTS INC,% PETER KLEIN,250 W 57TH ST,NEW YORK,NY,10019-3741,0.0,3.0,1.0,199305.0,1.0,4.0,90.0,0.0,0.0,1.0,13.0,0.0,1.0,12,,10019.0,0,,A26,A,PF,O,AR,A,A,IN,,1,AR,AR,AR,0.199646,B,36061.0,5602.0,5600.0,NY,10019.0,NEW YORK,PF,S,AR,A,IN,,A26,A
7645,133693565,1998,1997,199806,,3,994,730000,1152,0,0,-735024,500,0,0,-3372,58118,-61490,2369,1004,0,275704,0,0,0,0,0,275704,0,11392,N,N,N,N,N,N,N,N,N,N,N,N,N,N,N,N,N,N,N,0,1152,-168457,58118,148,2369,148,19143,182046,0,0,275704,0,275704,20,0,0,0,0,0,0,0,0,231301,0,0,0,0,0,0,0,0,0,0,0,0,0,0,0,0,0,0,0,0,0,0,0,0,0,0,0,0,0,0,0,0,0,0,0,0,0,0,0,0,0,CROWING ROOSTER ARTS INC,,180 W BROADWAY RM 302,NEW YORK,NY,10013-2906,0.0,3.0,1.0,199306.0,1.0,4.0,994.0,122.0,0.0,1.0,13.0,199706.0,1.0,6,,10013.0,20,,A20,A,PF,O,AR,A,A,IN,,1,AR,AR,AR,0.726801,B,36061.0,5602.0,5600.0,NY,10013.0,NEW YORK,PF,S,AR,A,IN,,A20,A
7675,133702827,1997,1997,199712,,3,994,74390,0,0,0,0,0,0,0,74390,75921,-1531,0,0,0,2473,0,0,0,0,59370,4959,0,0,N,N,N,N,N,N,N,N,N,N,N,N,N,N,N,N,N,N,N,0,0,0,58820,0,0,0,0,2473,0,0,4959,0,-56897,0,0,0,0,0,0,0,0,0,0,0,0,0,0,0,0,0,0,0,0,0,0,0,0,0,0,0,0,0,0,0,0,0,0,0,0,0,0,0,0,0,0,0,0,0,0,0,0,0,0,0,MILLENIAL ARTS INCORPORATED,% GMH CONSULTING INC,733 3RD AVE STE 1900,NEW YORK,NY,10017-3204,0.0,3.0,1.0,199407.0,1.0,4.0,994.0,90.0,94.0,1.0,13.0,0.0,1.0,12,,10017.0,0,,A99,A,PF,O,AR,A,A,IN,,1,AR,AR,AR,0.9643200000000001,B,36061.0,5602.0,5600.0,NY,10017.0,NEW YORK,PF,S,AR,A,IN,,A99,A
7707,133719303,1999,1998,199903,A75Z,3,914,22585,0,0,0,0,0,0,0,22585,30944,-8359,30083,0,0,2665,0,0,0,0,27675,2665,0,201,N,N,N,N,Y,N,N,N,N,N,N,N,N,N,N,N,N,N,N,0,0,0,30944,0,30083,0,0,986,0,0,2665,0,-25010,0,0,0,0,0,0,0,0,0,4082,0,1,0,0,0,1,30083,28305,28179,24323,110890,0,0,0,0,0,0,0,0,0,0,134,210,210,227,781,0,0,0,0,0,0,0,0,0,0,0,0,0,0,0,KAWAMURA CULTURAL FOUNDATION INC,% KISO & TANAKA,675 3RD AVE STE 3008,NEW YORK,NY,10017-5704,0.0,3.0,2.0,199504.0,1.0,3.0,914.0,119.0,0.0,1.0,13.0,0.0,1.0,3,,10017.0,0,,A70,A,PF,O,AR,A,A,IN,,1,AR,AR,AR,0.187471,C,36061.0,5602.0,5600.0,NY,10017.0,NEW YORK,PF,O,AR,A,IN,,A1220,A
7780,133745620,1998,1998,199812,A99Z,3,995,0,0,0,0,0,0,0,0,1,0,1,0,0,0,253,0,0,0,0,0,253,12,12,N,N,N,N,N,N,N,N,N,N,N,N,N,N,N,N,N,N,N,0,0,0,0,0,0,0,0,253,0,0,253,0,253,0,0,0,0,0,0,0,0,0,253,12,0,0,0,0,0,0,0,0,0,0,0,0,0,0,0,0,0,0,0,0,0,0,0,0,0,0,0,0,0,0,0,0,0,0,0,0,0,0,0,0,FRIENDS OF ICA MOSCOW INC,% PETER SCHUUR,57 JANE ST 2,NEW YORK,NY,10014-5131,0.0,3.0,2.0,199505.0,1.0,4.0,995.0,91.0,93.0,1.0,13.0,0.0,1.0,12,,10014.0,0,,A99,A,PF,O,AR,A,A,IN,,1,AR,AR,AR,0.8662,C,36061.0,5602.0,5600.0,NY,10014.0,NEW YORK,PF,S,AR,A,IN,,X11,X
7824,133749071,1998,1998,199812,,3,602,0,0,0,0,0,0,0,1125,0,1190,-1190,1190,0,0,1,0,0,0,0,0,1,0,48,N,N,N,Y,N,N,N,N,N,N,N,N,N,N,N,N,N,N,N,0,0,0,65,0,65,0,0,0,0,0,0,0,0,0,0,0,0,0,0,0,0,0,965,48,0,0,0,0,0,0,0,0,0,0,0,0,0,0,0,0,0,0,0,0,0,0,0,0,0,0,0,0,0,0,0,0,0,0,0,0,0,0,0,0,VATICAN MUSEUMS FOUNDATION,% KRAMER LEVIN NAFTALIS & FRANKEL,919 THIRD AVE,NEW YORK,NY,10022-3901,0.0,3.0,1.0,199403.0,1.0,4.0,602.0,0.0,0.0,1.0,13.0,0.0,1.0,12,,10022.0,0,,A50,A,PF,O,AR,A,A,IN,,1,AR,AR,AR,0.0841598,B,36061.0,5602.0,5600.0,NY,10022.0,NEW YORK,PF,S,AR,A,IN,,A50,A
7870,133772926,1998,1998,199812,A51Z,3,994,0,0,0,0,0,0,0,0,0,48,-48,0,0,0,528,0,0,0,0,0,528,0,27,N,N,N,N,N,N,N,N,N,N,N,N,N,N,N,N,N,N,N,0,0,0,48,0,0,0,0,528,0,0,528,0,528,0,0,0,0,0,0,0,0,0,552,27,0,0,0,0,0,0,0,0,0,0,0,0,0,0,0,0,0,0,0,0,0,0,0,0,0,0,0,0,0,0,0,0,0,0,0,0,0,0,0,0,V I A ART INC,% FRANK E BUNTS,15 W 24TH ST 7TH FLR,NEW YORK,NY,10010-3214,0.0,3.0,1.0,199505.0,1.0,4.0,994.0,91.0,0.0,1.0,13.0,199712.0,1.0,12,,10010.0,0,,A51,A,PF,O,AR,A,A,IN,,1,AR,AR,AR,0.32066300000000003,C,36061.0,5602.0,5600.0,NY,10010.0,NEW YORK,PF,S,AR,A,IN,,A51,A
7890,133781874,1998,1998,199812,A51Z,3,60,0,664,15267,0,0,0,0,11000,15931,31600,-15669,12694,11559,0,236019,50151,0,158373,208524,0,243107,10864,12754,N,Y,N,N,N,N,N,N,N,N,N,N,N,N,N,N,N,N,N,0,12869,0,20600,1310,1694,1310,0,2970,0,0,243107,0,236019,116,0,0,352,0,0,0,0,236,258965,12638,0,0,0,0,0,0,0,0,0,0,0,0,0,0,0,0,0,0,0,0,0,0,0,0,0,0,0,0,0,0,0,0,0,0,0,0,0,0,0,0,COBY FOUNDATION LTD,MILBANK TWEED HADLEY & MCCLOY,1 CHASE MANHATTAN PLZ,NEW YORK,NY,10005-1401,0.0,3.0,1.0,199503.0,1.0,4.0,60.0,0.0,0.0,1.0,13.0,0.0,1.0,12,,10005.0,116,,A51,A,PF,O,AR,A,A,IN,,1,AR,AR,AR,0.615734,C,36061.0,5602.0,5600.0,NY,10005.0,NEW YORK,PF,S,AR,A,IN,,A51,A
7922,133794021,1997,1997,199712,A60Z,3,602,50000,397,0,0,0,0,0,107100,50397,107428,-57031,107100,69,397,52255,0,0,0,0,0,52255,0,3978,N,Y,N,N,N,N,N,N,N,N,N,N,N,N,N,N,N,N,N,0,397,397,328,328,0,328,0,52255,0,0,52255,0,52255,1,0,0,0,0,0,0,0,0,80771,3978,0,0,0,0,0,0,0,0,0,0,0,0,0,0,0,0,0,0,0,0,0,0,0,0,0,0,0,0,0,0,0,0,0,0,0,0,0,0,0,0,GOTTLIEB-SCHWARTZ FAMILY FOUNDATION INC,% WEISS & COMPANY,724 COLLFIELD AVE,STATEN ISLAND,NY,10314-4253,0.0,3.0,1.0,199505.0,1.0,4.0,602.0,0.0,0.0,1.0,13.0,0.0,1.0,12,,10314.0,1,,A60,A,PF,O,AR,A,A,IN,,1,AR,AR,AR,0.68476,C,36085.0,5602.0,5600.0,NY,10314.0,STATEN ISLAND,PF,S,AR,A,IN,,A60,A
7923,133794219,1998,1997,199808,A99Z,3,119,6300,0,0,0,0,2655,0,665,8955,11897,-2942,0,76,0,3800,0,0,0,0,0,3800,0,237,N,N,N,N,Y,N,N,N,N,N,N,N,N,N,N,N,N,N,N,0,76,0,11232,0,0,0,0,0,0,0,3800,0,3800,2,0,0,200,0,0,0,0,198,4802,0,1,0,0,0,1,0,0,0,0,0,3800,7201,11055,12561,34617,3800,7201,11055,12561,34617,158,340,398,168,1064,0,0,0,0,0,0,0,0,0,0,76,246,315,126,763,SHINAGAWA FOUNDATION INC,% MIKIO SHINAGAWA,113 THOMPSON ST,NEW YORK,NY,10012-3714,0.0,3.0,1.0,199611.0,1.0,3.0,119.0,602.0,0.0,1.0,13.0,0.0,1.0,8,,10012.0,2,,A99,A,PF,O,AR,A,A,IN,,1,AR,AR,AR,0.7065819999999999,C,36061.0,5602.0,5600.0,NY,10012.0,NEW YORK,PF,O,AR,A,IN,,A99,A
7930,133795843,1998,1997,199809,A51Z,3,559,39000,0,23640,0,0,27842,0,0,90482,1729,88753,0,51482,51482,257869,0,0,0,0,0,524285,0,21319,N,Y,N,N,Y,N,N,N,N,N,N,N,N,N,N,N,N,N,N,0,51482,51482,1729,0,0,0,0,0,0,165414,524285,0,257869,515,0,0,0,0,0,0,0,0,432863,0,21319,20560,12345,209,54433,31850,29425,21280,7968,90523,0,0,0,0,0,0,0,0,0,0,14213,13707,8230,4465,40615,0,0,0,0,0,0,0,0,0,0,0,0,0,0,0,DEANE & SUSAN PENN ART FOUNDATION INC,% WOLLIN,350 FIFTH AVE STE 2822,NEW YORK,NY,10118-2899,0.0,3.0,1.0,199507.0,1.0,3.0,559.0,0.0,0.0,1.0,13.0,0.0,1.0,9,,10118.0,515,,A51,A,PF,O,AR,A,A,IN,,1,AR,AR,AR,0.932551,C,36061.0,5602.0,5600.0,NY,10118.0,NEW YORK,PF,O,AR,A,IN,,A12,A
7937,133797072,1998,1998,199812,A70Z,3,124,6217,0,108,0,0,-5647,0,0,678,6647,-5969,6248,18,0,22871,0,20954,0,20954,0,11292,0,0,N,Y,N,N,N,N,N,N,N,N,N,N,N,N,N,N,N,N,N,0,108,0,6647,90,6248,90,0,682,0,0,11292,0,22871,0,0,0,0,0,0,0,0,0,0,0,0,0,0,0,0,0,0,0,0,0,0,0,0,0,0,0,0,0,0,0,0,0,0,0,0,0,0,0,0,0,0,0,0,0,0,0,0,0,0,0,KAUFMANN-MARX FOUNDATION FOR TRANSATLANTIC CHRISTIAN-JEWISH DIA,% CARIN DRECHSLER-MARX,77 E 12TH ST STE 20 E,NEW YORK,NY,10035-0000,0.0,3.0,1.0,199503.0,1.0,4.0,124.0,123.0,0.0,1.0,13.0,0.0,1.0,12,,10035.0,0,,A70,A,PF,O,AR,A,A,IN,,1,AR,AR,AR,0.999432,C,36061.0,5602.0,5600.0,NY,10035.0,NEW YORK,PF,S,AR,A,IN,,X20,X
8001,133801734,1998,1997,199806,A99Z,3,119,0,15373,0,0,0,0,0,10000,15373,13980,1393,13980,15373,15373,325754,0,0,0,0,0,325754,0,14393,N,N,N,N,N,N,N,N,N,N,N,N,N,N,N,N,N,N,N,0,15373,15373,3980,0,3980,0,0,307,0,0,325754,0,325754,307,0,0,0,0,0,0,0,0,292242,14086,0,0,0,0,0,0,0,0,0,0,0,0,0,0,0,0,0,0,0,0,0,0,0,0,0,0,0,0,0,0,0,0,0,0,0,0,0,0,0,0,HARRY M STEVENS FAMILY FOUNDATION INC,% WILLIAM M HUNT,186 RIVERSIDE DR APT 16D,NEW YORK,NY,10024-1007,0.0,3.0,1.0,199601.0,1.0,4.0,119.0,0.0,0.0,1.0,13.0,0.0,1.0,6,,10024.0,307,,A99,A,PF,O,AR,A,A,IN,,1,AR,AR,AR,0.549183,C,36061.0,5602.0,5600.0,NY,10024.0,NEW YORK,PF,S,AR,A,IN,,A99,A
8018,133809561,1998,1998,199812,A50Z,3,90,55266,195,4301,5934,0,586,0,2400,66282,43208,23074,42625,9847,4466,84211,0,78177,0,78177,0,119951,0,3552,N,N,N,N,N,N,N,N,N,N,N,N,N,N,N,N,N,N,N,0,10430,5049,40808,583,40225,583,583,0,0,0,119951,0,84211,197,0,0,0,0,0,0,0,0,72119,3355,0,0,0,0,0,0,0,0,0,0,0,0,0,0,0,0,0,0,0,0,0,0,0,0,0,0,0,0,0,0,0,0,0,0,0,0,0,0,0,0,ARTUR BALSAM FOUNDATION FOR CHAMBER MUSIC,% MOSHE MIRSKY,825 W END AVE 2C,NEW YORK,NY,10025-5349,0.0,3.0,1.0,199505.0,1.0,4.0,90.0,0.0,0.0,1.0,13.0,0.0,1.0,12,,10025.0,197,,A50,A,PF,O,AR,A,A,IN,,1,AR,AR,AR,0.48876000000000003,C,36061.0,5602.0,5600.0,NY,10025.0,NEW YORK,PF,S,AR,A,IN,,A6C,A
8030,133832587,1998,1997,199806,A56I,3,60,226606,599,0,0,0,15321,0,67767,242526,301508,-58982,262679,599,0,94153,0,0,0,0,0,94153,0,3028,N,N,N,N,Y,N,N,N,N,N,N,N,N,N,N,N,N,N,N,0,599,15920,233741,0,194912,0,15920,39990,0,0,94153,0,94153,12,0,0,0,0,0,0,0,0,61484,0,0,1468,549,0,2017,262679,906377,742440,0,1911496,0,0,0,0,0,0,0,0,0,0,2019,979,366,0,3364,0,0,0,0,0,0,0,0,0,0,0,0,0,0,0,INSTITUTE FOR AEGEAN PREHISTORY STUDY CENTER FOR EAST CRETE,% MILLBURN CORPORATION,1270TH AVE OF THE AMERICAS,NE YORK,NY,10020-1700,0.0,3.0,1.0,199508.0,1.0,3.0,60.0,199.0,119.0,1.0,13.0,0.0,1.0,6,,10020.0,12,,A11,A,PF,S,ZA,A,A,IN,,1,AR,AR,AR,0.764556,C,36061.0,5602.0,5600.0,NY,10020.0,NE YORK,PF,S,ZA,A,IN,,A70,A
8038,133838457,1997,1997,199712,Z99Z,3,91,200000,3895,0,0,0,0,0,20000,203895,22221,181674,20988,3451,3451,184038,0,0,0,0,0,184038,0,9555,N,N,N,N,Y,N,N,N,N,N,N,N,N,N,N,N,N,N,N,0,3895,3895,2221,444,988,444,444,0,0,0,184038,0,184038,69,0,0,0,0,0,0,0,0,194000,0,1,0,0,0,1,0,0,0,0,0,0,0,0,0,0,0,0,0,0,0,0,0,0,0,0,0,0,0,0,0,0,0,0,0,0,0,0,0,0,0,PIERRE AND MARIA-GAETANA MATISSE CHARITABLE FOUNDATION,,1 E 53RD ST,NEW YORK,NY,10022-4200,0.0,3.0,1.0,199512.0,1.0,3.0,91.0,0.0,0.0,1.0,11.0,0.0,1.0,12,,10022.0,69,,A40,A,PF,O,AR,A,A,IN,,1,AR,AR,AR,0.491242,C,36061.0,5602.0,5600.0,NY,10022.0,NEW YORK,PF,O,AR,A,IN,,A40,A
8046,133842734,1998,1998,199812,A99Z,3,561,991,0,0,0,0,0,0,0,991,991,0,0,0,0,1,0,0,0,0,0,1,0,0,N,N,N,N,N,N,N,N,N,N,N,N,N,N,N,N,N,N,N,0,0,0,991,0,0,0,0,0,0,0,0,0,0,0,0,0,0,0,0,0,0,0,0,0,0,0,0,0,0,0,0,0,0,0,0,0,0,0,0,0,0,0,0,0,0,0,0,0,0,0,0,0,0,0,0,0,0,0,0,0,0,0,0,0,LINDA CHESTER FOUNDATION,% LINDA CHESTER,435 E 52ND ST STE 9 B,NEW YORK,NY,10022-6445,0.0,3.0,1.0,199604.0,1.0,4.0,561.0,0.0,0.0,1.0,13.0,0.0,1.0,12,,10022.0,0,,A99,A,PF,O,AR,A,A,IN,,1,AR,AR,AR,0.347744,C,36061.0,5602.0,5600.0,NY,10022.0,NEW YORK,PF,S,AR,A,IN,,A99,A
8082,133861845,1998,1997,199806,A99Z,3,123,21075,0,0,0,0,0,0,0,21075,405,20670,405,0,0,27413,0,0,0,0,0,27413,0,685,N,N,N,N,Y,N,N,N,N,N,N,N,N,N,N,N,N,N,N,0,0,0,405,0,405,0,0,27413,0,0,27413,0,27413,0,0,0,0,0,0,0,0,0,13918,685,685,0,0,0,685,0,0,0,0,0,1,0,0,0,1,0,0,0,0,0,0,0,0,0,0,0,0,0,0,0,0,0,0,0,0,0,0,0,0,0,INTERNATIONAL SECURITY AND PEACE FOUNDATION,% FIDUCIARY TRUST CO INTL,2 WORLD TRADE CTR,NEW YORK,NY,10048-0203,0.0,3.0,1.0,199606.0,1.0,3.0,123.0,124.0,910.0,1.0,13.0,0.0,1.0,6,,10048.0,0,,A99,A,PF,O,AR,A,A,IN,,1,AR,AR,AR,0.633146,C,36061.0,5602.0,5600.0,NY,10048.0,NEW YORK,PF,O,AR,A,IN,,Q40,Q
8119,133876967,1998,1998,199812,A54Z,3,119,68242,0,0,0,-49715,0,0,6000,18527,6695,11832,0,0,0,960,0,0,0,0,0,960,0,0,N,N,N,N,Y,N,Y,N,N,N,N,N,N,N,N,N,N,N,N,0,0,-49715,695,0,0,0,695,960,0,0,960,0,960,0,0,0,0,0,0,0,0,0,16660,0,1,0,0,0,1,6695,170408,977983,0,1155086,960,147750,477918,0,626628,0,0,0,0,0,0,0,0,0,0,68242,628116,599377,0,1295735,0,11376,46476,0,57852,0,0,0,0,0,ELF AQUITAINE INTERNATIONAL FOUNDATION INC,% EUGENE G MCGUIRE,444 MADISON AVE 20TH FLR,NEW YORK,NY,10022-6903,0.0,3.0,1.0,199606.0,1.0,3.0,119.0,602.0,0.0,1.0,13.0,0.0,1.0,12,,10022.0,0,,A54,A,PF,O,AR,A,A,IN,,1,AR,AR,AR,0.531319,C,36061.0,5602.0,5600.0,NY,10022.0,NEW YORK,PF,O,AR,A,IN,,A54,A
8129,133885307,1998,1997,199809,A51Z,3,91,473250,8487,0,0,0,2367,71346,0,509701,199813,309888,194375,8487,8487,10171627,0,0,0,0,2005,10171627,0,11118,N,Y,N,N,Y,N,N,N,Y,N,N,N,N,N,N,N,N,N,N,25597,8487,10854,199813,0,194375,0,2367,0,0,0,10171627,0,10169622,85,0,0,0,0,100,0,0,15,225750,0,8487,2877,0,0,11364,194375,158379,0,0,352754,10171627,9859734,0,0,20031361,9939671,9688621,0,0,19628292,7412,9921,0,0,17333,0,0,0,0,0,0,0,0,0,0,0,0,0,0,0,NANCY GRAVES FOUNDATION INC,% HECHT & COMPANY,69 WOOSTER ST 4A,NEW YORK,NY,10012-4351,0.0,3.0,1.0,199704.0,1.0,3.0,91.0,0.0,0.0,1.0,13.0,0.0,1.0,9,,10012.0,85,,A51,A,PF,O,AR,A,A,IN,,1,AR,AR,AR,0.9446620000000001,C,36061.0,5602.0,5600.0,NY,10012.0,NEW YORK,PF,O,AR,A,IN,,A51,A
8135,133888511,1999,1998,199903,A20Z,3,119,149848,478,0,0,0,0,4400,0,150326,78829,71497,0,478,0,785170,0,0,0,0,6000,785170,0,3072,N,N,N,N,N,N,N,N,N,N,N,N,N,N,N,N,N,N,N,0,478,0,78829,0,0,0,0,0,0,0,785170,0,779170,10,0,0,0,0,0,0,0,0,62370,3062,0,0,0,0,0,0,0,0,0,0,0,0,0,0,0,0,0,0,0,0,0,0,0,0,0,0,0,0,0,0,0,0,0,0,0,0,0,0,0,0,INTERNATIONAL FOUNDATION FOR ARTS & CULTURE INC,% TOSHU FUKAMI,100 UNITED NATIONS PLZ APT 40C,NEW YORK,NY,10017-1756,0.0,3.0,2.0,199610.0,1.0,4.0,119.0,0.0,0.0,1.0,13.0,0.0,1.0,3,,10017.0,10,,A20,A,PF,O,AR,A,A,IN,,1,AR,AR,AR,0.742718,C,36061.0,5602.0,5600.0,NY,10017.0,NEW YORK,PF,S,AR,A,IN,,A1220,A
8140,133893379,1998,1997,199803,A20Z,3,91,405000,0,0,0,-1669,0,0,0,403331,354818,48513,352197,0,0,30286,0,0,0,0,0,30286,0,1408,N,N,N,N,Y,N,N,Y,N,N,N,N,N,N,N,N,N,N,N,0,0,-1669,354818,0,352197,0,0,14086,0,0,30286,0,30286,0,0,0,0,0,0,0,0,0,28583,0,0,91,0,0,91,352197,424371,0,0,776568,0,0,0,0,0,0,0,0,0,0,939,1143,0,0,2082,0,0,0,0,0,0,0,0,0,0,0,0,0,0,0,AMERICAN FOUNDATION FOR TEXTILE ART INC,,499 PARK AVENUE,NEW YORK,NY,10022-1240,0.0,3.0,1.0,199703.0,1.0,3.0,91.0,119.0,120.0,1.0,13.0,0.0,1.0,3,,10022.0,0,,A20,A,PF,O,AR,A,A,IN,,1,AR,AR,AR,0.816705,C,36061.0,5602.0,5600.0,NY,10022.0,NEW YORK,PF,O,AR,A,IN,,A40,A
8154,133902358,1998,1998,199812,A60J,3,602,293580,1356,329,0,0,2510,33329,20000,297775,79021,218754,77423,93,0,323451,0,0,0,0,0,323451,0,10543,N,Y,N,N,N,N,N,N,N,N,N,N,N,N,N,N,N,N,N,0,1685,0,59021,1592,57423,1592,0,0,0,0,323451,0,323451,1,0,0,0,0,0,0,0,0,214073,10542,0,0,0,0,0,0,0,0,0,0,0,0,0,0,0,0,0,0,0,0,0,0,0,0,0,0,0,0,0,0,0,0,0,0,0,0,0,0,0,0,JONATHAN LARSON PERFORMING ARTS FOUNDATION INC,% JAY S HARRIS,PO BOX 672 PRINCE ST STATION,NEW YORK,NY,10012-0013,0.0,3.0,1.0,199702.0,1.0,4.0,602.0,119.0,0.0,1.0,13.0,0.0,1.0,12,,10012.0,1,,A12,A,PF,S,ZB,A,A,IN,,1,AR,AR,AR,0.6177189999999999,C,36061.0,5602.0,5600.0,NY,10012.0,NEW YORK,PF,S,ZB,A,IN,,A1260,A
8242,133921831,1998,1998,199812,A99Z,3,602,0,1497,32200,20659,0,0,0,129679,54356,130815,-76459,129889,72993,33697,774971,716313,0,0,716313,0,1125767,0,58523,N,Y,N,N,N,N,N,N,N,N,N,N,N,N,N,N,N,N,N,0,72993,33697,1136,0,210,0,0,0,0,0,1125767,0,774971,730,0,0,1024,0,0,0,0,294,1188281,57793,0,0,0,0,0,0,0,0,0,0,0,0,0,0,0,0,0,0,0,0,0,0,0,0,0,0,0,0,0,0,0,0,0,0,0,0,0,0,0,0,BARBARA M ZALAZNICK FOUNDATION,% ERIC KAPLAN,1285 6TH AVE STE 21 FLR,NEW YORK,NY,10019-6028,0.0,3.0,1.0,199704.0,1.0,4.0,602.0,0.0,0.0,2.0,13.0,0.0,1.0,12,,10019.0,730,,A99,A,PF,O,AR,A,A,IN,,1,AR,AR,AR,0.0613241,C,36061.0,5602.0,5600.0,NY,10019.0,NEW YORK,PF,S,AR,A,IN,,A99,A
8284,133929084,1998,1998,199812,A20Z,3,119,147988,850,929,-709,0,0,20500,27204,149058,88943,60115,86373,0,0,67640,0,29126,0,29126,104,68576,0,656,N,N,N,N,Y,N,N,N,N,N,N,N,N,N,N,N,N,N,N,0,1779,1779,61739,1779,59169,1779,1779,1884,0,0,68576,0,67536,0,0,0,0,0,0,0,0,0,13316,0,1,0,0,0,1,86373,42140,0,0,128513,0,0,0,0,0,0,0,0,0,0,437,519,0,0,956,0,0,0,0,0,0,0,0,0,0,0,0,0,0,0,ART BRIDGE ASSOCIATION INC,,22 WATTS ST,NEW YORK,NY,10013-1690,0.0,3.0,1.0,199709.0,1.0,3.0,119.0,0.0,0.0,1.0,13.0,0.0,1.0,12,,10013.0,0,,A20,A,PF,O,AR,A,A,IN,,1,AR,AR,AR,0.0239615,C,36061.0,5602.0,5600.0,NY,10013.0,NEW YORK,PF,O,AR,A,IN,,A03,A
8289,133930172,1998,1998,199812,A99Z,3,602,20292307,91484,0,0,0,0,0,883275,20383791,883441,19500350,883441,91484,0,32745353,0,17082307,0,17082307,11250000,39092725,0,384497,N,Y,N,N,N,N,N,N,N,N,N,N,N,N,N,N,N,N,N,0,91484,0,166,0,166,0,0,4676,0,0,39092725,0,21495353,915,0,0,0,0,1820,0,0,905,7807036,383582,0,0,0,0,0,0,0,0,0,0,0,0,0,0,0,0,0,0,0,0,0,0,0,0,0,0,0,0,0,0,0,0,0,0,0,0,0,0,0,0,TOMORROW FOUNDATION,% LAURA BAUDO SILLERMAN,650 MADISON AVE,NEW YORK,NY,10022-1029,0.0,3.0,1.0,199704.0,1.0,4.0,602.0,0.0,0.0,1.0,13.0,0.0,1.0,12,,10022.0,915,,A99,A,PF,O,AR,A,A,IN,,1,AR,AR,AR,0.739839,C,36061.0,5602.0,5600.0,NY,10022.0,NEW YORK,PF,S,AR,A,IN,,A99,A
8324,133935646,1998,1998,199812,A99Z,3,602,422844,19396,15742,335831,0,0,0,83000,793813,88321,705492,83000,367720,0,1736700,0,1307397,0,1307397,0,1497311,0,74360,N,N,N,N,N,N,N,N,N,N,N,N,N,N,N,N,N,N,N,0,370969,0,5321,3249,0,3249,0,27057,0,0,1497311,0,1736700,7354,0,0,1000,0,0,0,0,0,1509855,67006,0,0,0,0,0,0,0,0,0,0,0,0,0,0,0,0,0,0,0,0,0,0,0,0,0,0,0,0,0,0,0,0,0,0,0,0,0,0,0,0,SCHLOSS FAMILY FOUNDATION INC,% WALTER J SCHLOSS,52 VANDERBILT AVE 8TH FLR,NEW YORK,NY,10017-3808,0.0,3.0,1.0,199704.0,1.0,4.0,602.0,0.0,0.0,1.0,13.0,0.0,1.0,12,,10017.0,7354,,A99,A,PF,O,AR,A,A,IN,,1,AR,AR,AR,0.9437180000000001,C,36061.0,5602.0,5600.0,NY,10017.0,NEW YORK,PF,S,AR,A,IN,,A99,A
8328,133935995,1998,1998,199812,A40J,3,602,194935,16810,1956320,-1681193,0,0,41846,1989500,486872,2363969,-1877097,2100523,1760240,0,49312063,17238487,23556410,999326,41794223,0,53082762,1620129,2507562,N,N,N,N,N,N,N,N,N,N,N,N,N,N,N,N,N,N,N,0,1973130,0,374469,212890,111023,212890,0,48101,0,2000000,53082762,0,49312063,35205,0,0,32029,0,0,0,0,0,50914956,2472357,0,0,0,0,0,0,0,0,0,0,0,0,0,0,0,0,0,0,0,0,0,0,0,0,0,0,0,0,0,0,0,0,0,0,0,0,0,0,0,0,LILY AUCHINCLOSS FOUNDATION INC,% ALEXANDRA HERZAN,630 FIFTH AVE,NEW YORK,NY,10111-0100,0.0,3.0,1.0,199706.0,1.0,4.0,602.0,0.0,0.0,1.0,13.0,0.0,1.0,12,,10111.0,35205,M,A12,A,PF,S,ZB,A,A,IN,,1,AR,AR,AR,0.08306060000000001,C,36061.0,5602.0,5600.0,NY,10111.0,NEW YORK,PF,S,ZB,A,IN,,A40,A
8339,133936809,1998,1998,199812,A50Z,3,60,86000,0,0,0,0,0,0,0,86000,0,86000,0,0,0,86000,0,0,0,0,0,86000,0,0,N,N,N,N,Y,N,N,N,N,N,N,N,N,N,N,N,N,N,N,0,0,0,0,0,0,0,0,0,0,0,86000,0,86000,0,0,0,0,0,0,0,0,0,0,0,1,0,0,0,1,0,0,0,0,0,0,0,0,0,0,0,0,0,0,0,0,0,0,0,0,0,0,0,0,0,0,0,0,0,0,0,0,0,0,0,MELLIJOR CHARITABLE FOUNDATION INC,% WILLIAM BORDEN,200 W 57TH ST STE 802,NEW YORK,NY,10019-3211,0.0,3.0,1.0,199806.0,1.0,3.0,60.0,0.0,0.0,1.0,11.0,0.0,1.0,12,,10019.0,0,,A50,A,PF,O,AR,A,A,IN,,1,AR,AR,AR,0.774621,C,36061.0,5602.0,5600.0,NY,10019.0,NEW YORK,PF,O,AR,A,IN,,A50,A
8346,133938484,1998,1997,199806,A99I,3,119,187600,0,1260,0,0,0,0,180,188860,180,188680,180,1260,0,188860,0,187600,0,187600,0,240660,10725,10750,N,N,N,N,N,N,N,N,N,N,N,N,N,N,N,N,N,N,N,0,1260,0,0,0,0,0,0,0,0,0,240660,0,188860,25,0,0,0,0,0,0,0,0,215000,10725,0,0,0,0,0,0,0,0,0,0,0,0,0,0,0,0,0,0,0,0,0,0,0,0,0,0,0,0,0,0,0,0,0,0,0,0,0,0,0,0,BETTY RETTER FOUNDATION,% BETTY RETTER,210 CENTRAL PARK SOUTH,NEW YORK,NY,10019-1416,0.0,3.0,1.0,199707.0,1.0,4.0,119.0,0.0,0.0,2.0,13.0,0.0,1.0,6,,10019.0,25,,A11,A,PF,S,ZA,A,A,IN,,1,AR,AR,AR,0.667412,C,36061.0,5602.0,5600.0,NY,10019.0,NEW YORK,PF,S,ZA,A,IN,,A99,A
8439,133952016,1997,1997,199712,A20Z,3,91,1669304,4742,0,-25534,0,0,0,50000,1648512,50000,1598512,50000,4742,4742,1598512,0,1304029,0,1304029,0,1437001,0,0,N,N,N,N,N,N,N,N,N,N,N,N,N,N,N,N,N,N,N,0,4742,4742,0,0,0,0,0,0,0,0,1437001,0,1598512,0,0,0,0,0,0,0,0,0,414555,0,0,0,0,0,0,0,0,0,0,0,0,0,0,0,0,0,0,0,0,0,0,0,0,0,0,0,0,0,0,0,0,0,0,0,0,0,0,0,0,0,PAINTER HILL FOUNDATION,% REMINICK ARRONS & CO LLP,685 THIRD AVE 19 FL,NEW YORK,NY,10017-4024,0.0,3.0,1.0,199708.0,1.0,4.0,91.0,602.0,0.0,1.0,13.0,0.0,1.0,12,,10017.0,0,,A20,A,PF,O,AR,A,A,IN,,1,AR,AR,AR,0.31722100000000003,C,36061.0,5602.0,5600.0,NY,10017.0,NEW YORK,PF,S,AR,A,IN,,A20,A
8478,133968595,1997,1997,199712,A31,3,0,150000,0,0,0,0,0,0,0,150000,165,149835,0,0,0,149835,0,0,0,0,0,149835,2755,2755,N,N,N,N,N,N,N,N,N,N,N,N,N,N,N,N,N,N,N,0,0,0,165,0,0,0,0,73047,0,0,149835,0,149835,0,0,0,0,0,0,0,0,0,55934,2755,0,0,0,0,0,0,0,0,0,0,0,0,0,0,0,0,0,0,0,0,0,0,0,0,0,0,0,0,0,0,0,0,0,0,0,0,0,0,0,0,FOUNDATION FOR FILM PRESERVATION INC,% STARR & COMPANY LLC,350 PARK AVE,NEW YORK,NY,10022-6022,0.0,3.0,2.0,199906.0,1.0,3.0,0.0,0.0,0.0,1.0,11.0,0.0,1.0,12,SCORSESE MARTIN TTEE,10022.0,0,,A31,A,PF,O,AR,A,A,IN,,1,AR,AR,AR,0.988906,C,36061.0,5602.0,5600.0,NY,10022.0,NEW YORK,PF,O,AR,A,IN,,A31,A
8483,133970766,1999,1998,199903,A99Z,3,59,2554,1878,5943,-6926,0,0,0,916,3449,9089,-5640,9089,7821,0,367357,150119,151794,17875,319788,0,365069,0,10804,N,N,N,N,Y,N,N,N,N,N,N,N,N,N,N,N,N,N,N,0,7821,0,8173,0,8173,0,0,2663,0,0,365069,0,367357,156,0,0,0,0,0,0,0,0,377693,0,1,0,0,0,1,0,0,0,0,0,0,0,0,0,0,0,0,0,0,0,0,0,0,0,0,0,0,0,0,0,0,0,0,0,0,0,0,0,0,0,NEW YORK CLASSICAL CLUB INC,% DAVID J MURPHY-NIGHTINGALE-BAM FO,20 E 92ND ST,NEW YORK,NY,10128-0608,0.0,3.0,1.0,199806.0,1.0,3.0,59.0,0.0,0.0,1.0,13.0,0.0,1.0,3,,10128.0,156,,A99,A,PF,O,AR,A,A,IN,,1,AR,AR,AR,0.400949,C,36061.0,5602.0,5600.0,NY,10128.0,NEW YORK,PF,O,AR,A,IN,,A99,A
8565,133981562,1998,1997,199811,A51Z,3,60,312100,44,1723,-154716,0,0,0,8500,159151,9573,149578,8500,1767,694,149578,0,55021,0,55021,0,98930,0,8071,N,N,N,N,Y,N,N,N,N,N,N,N,N,N,N,N,N,N,N,0,1767,1767,1073,0,0,0,1073,94557,0,0,98930,0,149578,0,0,0,0,0,0,0,0,0,163879,0,694,0,0,0,694,8500,0,0,0,8500,98930,0,0,0,98930,0,0,0,0,0,5381,0,0,0,5381,312100,0,0,0,312100,3121,0,0,0,3121,1767,0,0,0,1767,MICA FOUNDATION,% MORSE ZELNICK ROSE & LANDER LLP,450 PARK AVENUE SUITE 902,NEW YORK,NY,10022-2605,0.0,3.0,1.0,199811.0,1.0,3.0,60.0,0.0,0.0,1.0,11.0,0.0,1.0,11,,10022.0,0,,A51,A,PF,O,AR,A,A,IN,,1,AR,AR,AR,0.36540500000000004,C,36061.0,5602.0,5600.0,NY,10022.0,NEW YORK,PF,O,AR,A,IN,,A51,A
8578,133984936,1998,1998,199812,A31Z,3,602,5111500,19363,0,0,0,0,227780,441000,5130863,1680647,3450216,1610583,19363,0,3667342,0,0,0,0,217126,3667342,0,43469,N,N,N,N,N,N,N,N,N,N,N,N,N,N,N,N,N,N,N,0,19363,0,1239647,0,1169583,0,0,0,0,0,3667342,0,3450216,387,0,0,0,0,0,0,0,0,910053,43082,0,0,0,0,0,0,0,0,0,0,0,0,0,0,0,0,0,0,0,0,0,0,0,0,0,0,0,0,0,0,0,0,0,0,0,0,0,0,0,0,ANDREA AND CHARLES BRONFMAN PHILANTROPIES INC,% JEFFREY SOLOMAN,375 PARK AVE 6TH FLR,NEW YORK,NY,10152-0002,0.0,3.0,2.0,199807.0,1.0,4.0,602.0,0.0,0.0,1.0,11.0,0.0,1.0,12,,10152.0,387,,A31,A,PF,O,AR,A,A,IN,,1,AR,AR,AR,0.963943,C,36061.0,5602.0,5600.0,NY,10152.0,NEW YORK,PF,S,AR,A,IN,,T23,T
8614,133995881,1998,1997,199806,A20,3,0,3000000,3189,0,0,0,224431,0,0,3227620,213832,3013788,0,3189,13788,3013788,0,0,0,0,0,3013788,0,190,N,N,N,N,N,N,N,N,N,N,N,N,N,N,N,N,N,N,N,0,3189,227620,213832,0,0,0,213832,0,0,0,3013788,0,3013788,64,0,0,0,0,0,0,0,0,11006,0,0,0,0,0,0,0,0,0,0,0,0,0,0,0,0,0,0,0,0,0,0,0,0,0,0,0,0,0,0,0,0,0,0,0,0,0,0,0,0,0,LUCILLE LORTEL THEATRE FOUNDATION INC,% HECHT AND COMPANY PC,111 W 40TH ST,NEW YORK,NY,10018-2506,0.0,3.0,1.0,199907.0,1.0,4.0,0.0,0.0,0.0,1.0,11.0,0.0,1.0,6,,10018.0,64,,A20,A,PF,O,AR,A,A,IN,,1,AR,AR,AR,0.597507,C,36061.0,5602.0,5600.0,NY,10018.0,NEW YORK,PF,S,AR,A,IN,,A65,A
8795,136019220,1998,1997,199809,,3,119,581432,0,19245,244,0,194602,49500,0,795523,578464,217059,494122,10824,48989,3377044,28803,0,0,28803,22288,3377044,0,17574,N,N,N,N,N,N,N,N,N,N,N,N,N,N,N,N,N,N,N,0,19489,126937,578464,8665,494122,8665,77948,156984,0,0,3377044,0,3354756,216,0,0,0,0,195,0,0,0,356841,0,0,0,0,0,0,0,0,0,0,0,0,0,0,0,0,0,0,0,0,0,0,0,0,0,0,0,0,0,0,0,0,0,0,0,0,0,0,0,0,0,POETRY SOCIETY OF AMERICA,,15 GRAMERCY PARK,NEW YORK,NY,10003-1705,0.0,3.0,3.0,193705.0,1.0,4.0,119.0,0.0,0.0,5.0,13.0,0.0,1.0,9,,10003.0,216,,A70,A,PF,O,AR,A,A,IN,,1,AR,AR,AR,0.10354300000000001,C,36061.0,5602.0,5600.0,NY,10003.0,NEW YORK,PF,S,AR,A,IN,,A0370,A
9876,136149781,1998,1997,199808,A60Z,3,90,500,70608,317701,202151,0,32321,0,625000,640072,876251,-236179,230154,587404,404726,4125295,0,3342245,123513,3465758,3568,4061158,0,215916,N,N,N,N,Y,N,N,N,N,N,N,N,N,N,N,N,N,N,N,16791,607251,405976,251251,19847,230154,19847,1250,9587,569061,17201,4061158,0,4121727,11748,0,0,8645,0,0,0,94,0,4384088,0,215916,225314,208444,191234,840908,230154,156955,134928,139359,661396,0,0,0,0,0,0,0,0,0,0,143944,150209,138963,127489,560605,0,0,0,0,0,0,0,0,0,0,0,0,0,0,0,PERFORMING ARTS FOUNDATION INC,% SPITZ & EDELSTEIN CPAS,21 E 40TH ST RM 1006,NEW YORK,NY,10016-0570,0.0,3.0,1.0,196411.0,1.0,3.0,90.0,0.0,0.0,1.0,13.0,0.0,1.0,8,,10016.0,11748,,A60,A,PF,O,AR,A,A,IN,,1,AR,AR,AR,0.623713,C,36061.0,5602.0,5600.0,NY,10016.0,NEW YORK,PF,O,AR,A,IN,,A1260,A
11046,137061011,1998,1997,199806,A50I,3,60,52210,0,0,0,0,0,0,0,52210,172,52038,0,0,0,52058,0,0,0,0,0,64593,0,3407,N,N,N,N,Y,N,N,N,N,N,N,N,N,N,N,N,N,N,N,0,0,0,0,0,0,0,0,178,0,0,64593,0,52058,0,0,0,0,0,0,0,0,0,68193,0,-172,0,0,0,-172,21670,0,0,0,21670,64593,20,20,0,64633,64593,20,20,0,64633,2272,0,0,0,2272,52210,0,20,0,52230,0,0,0,0,0,0,0,0,0,0,WEISS MEMORIAL FOUNDATION TR,% JACKSON & NASH LLP,440 PARK AVE,NEW YORK,NY,10016-8012,0.0,3.0,1.0,199701.0,1.0,3.0,60.0,0.0,0.0,2.0,13.0,0.0,1.0,6,WEISS HERBERT TTEE,10016.0,0,,A11,A,PF,S,ZA,A,A,IN,,1,AR,AR,AR,0.873567,C,36061.0,5602.0,5600.0,NY,10016.0,NEW YORK,PF,S,ZA,A,IN,,A50,A
11106,137091348,1998,1998,199812,A76Z,3,92,0,5946,0,0,0,0,0,0,5946,45196,-39250,43351,5946,0,152797,0,0,0,0,0,152797,0,8299,N,Y,N,N,N,N,N,N,N,N,N,N,N,N,N,N,N,N,N,0,5946,0,45196,0,43351,0,0,0,0,0,152797,0,152797,59,0,0,0,0,0,0,0,0,168500,8240,0,0,0,0,0,0,0,0,0,0,0,0,0,0,0,0,0,0,0,0,0,0,0,0,0,0,0,0,0,0,0,0,0,0,0,0,0,0,0,0,LEO BRONSTEIN TRUST UW ELEANOR L WOLFF,% KATHRYN K SOMAN,147 E 82ND ST RM 3G,NEW YORK,NY,10028-1859,0.0,3.0,3.0,199701.0,1.0,4.0,92.0,119.0,602.0,2.0,13.0,0.0,1.0,12,,10028.0,59,,A70,A,PF,O,AR,A,A,IN,,1,AR,AR,AR,0.38969000000000004,C,36061.0,5602.0,5600.0,NY,10028.0,NEW YORK,PF,S,AR,A,IN,,T22,T
11133,137100859,1998,1997,199805,A99Z,3,602,133200,258,101772,520219,0,0,0,516320,755449,517191,238258,516320,622249,0,703333,0,523920,0,523920,9600,9781663,0,356008,N,Y,N,N,N,N,N,N,N,N,N,N,N,N,N,N,N,N,N,0,622249,0,871,0,0,0,0,0,0,0,9781663,0,693733,6222,0,0,0,0,11100,0,0,4876,7228598,349786,0,0,0,0,0,0,0,0,0,0,0,0,0,0,0,0,0,0,0,0,0,0,0,0,0,0,0,0,0,0,0,0,0,0,0,0,0,0,0,0,THE JAMES E AND PATRICIA D CAYNE CHARITABLE TRUST,% JAMES E CAYNE BEAR STEARNS & CO,245 PARK AVE 9TH FL,NEW YORK,NY,10167-0002,0.0,3.0,1.0,199704.0,1.0,4.0,602.0,0.0,0.0,2.0,13.0,0.0,1.0,5,,10167.0,6222,M,A99,A,PF,O,AR,A,A,IN,,1,AR,AR,AR,0.41354399999999997,C,36061.0,5602.0,5600.0,NY,10167.0,NEW YORK,PF,S,AR,A,IN,,T22,T
11134,137101223,1998,1998,199812,A45Z,3,91,200,2,0,0,0,800,0,0,1002,519,483,0,802,283,2282284,0,0,0,0,0,2282284,0,112411,N,N,N,N,Y,N,N,N,N,N,N,N,N,N,N,N,N,N,N,0,802,802,519,0,0,0,519,18,0,2281466,2282284,0,2282284,16,0,0,0,0,0,0,0,0,2282451,0,283,0,0,0,283,0,165,0,0,165,0,0,0,0,0,0,0,0,0,0,0,0,0,0,0,0,0,0,0,0,0,0,0,0,0,0,0,0,0,0,KIKI KOGELNIK FOUNDATION,% STEPHEN KILDUNNE,330 LAFAYETTE ST 7,NEW YORK,NY,10012-2739,0.0,3.0,2.0,199705.0,1.0,3.0,91.0,0.0,0.0,2.0,13.0,0.0,1.0,12,,10012.0,16,,A40,A,PF,O,AR,A,A,IN,,1,AR,AR,AR,0.6223489999999999,C,36061.0,5602.0,5600.0,NY,10012.0,NEW YORK,PF,O,AR,A,IN,,A40,A
11139,137102174,1998,1997,199809,A51Z,3,326,0,0,153152,117649,0,0,53188,125000,270801,185872,84929,152656,244207,0,3251165,0,0,0,0,0,3195321,127206,163200,N,Y,N,N,N,N,N,N,Y,N,N,N,N,N,N,N,N,N,N,0,270801,0,60872,26594,27656,26594,0,0,0,877240,3195321,0,3251165,2442,0,0,2480,0,0,0,0,38,3313714,160758,0,0,0,0,0,0,0,0,0,0,0,0,0,0,0,0,0,0,0,0,0,0,0,0,0,0,0,0,0,0,0,0,0,0,0,0,0,0,0,0,RENATE HOFMANN ARTICLE 3 CHARITABLE TRUST 1874860,% CHASE MANHATTAN BANK TAX DEPT,1 CHASE MANHATTAN PLZ FL,NEW YORK,NY,10005-1401,0.0,3.0,1.0,199705.0,1.0,4.0,326.0,91.0,0.0,2.0,13.0,0.0,1.0,9,,10005.0,2442,,A51,A,PF,O,AR,A,A,IN,,1,AR,AR,AR,0.9166610000000001,C,36061.0,5602.0,5600.0,NY,10005.0,NEW YORK,PF,S,AR,A,IN,,T22,T
11273,137147740,1998,1998,199812,A51Z,3,91,0,0,0,0,0,0,0,0,0,4000,-4000,0,0,0,8369045,0,0,0,0,4000,8369045,0,0,N,N,N,N,Y,N,N,N,N,N,N,N,N,N,N,N,N,N,N,0,0,0,4000,0,0,0,4000,0,0,0,8369045,0,8365045,0,0,0,0,0,0,0,0,0,0,0,1,0,0,0,1,0,0,0,0,0,8369045,0,0,0,8369045,0,0,0,0,0,0,0,0,0,0,0,0,0,0,0,0,0,0,0,0,0,0,0,0,0,LEON POLK SMITH FOUNDATION TR,% ROBERT MEAD JAMIESON,31 UNION SQUARE WEST,NEW YORK,NY,10003-3203,0.0,3.0,1.0,199807.0,1.0,3.0,91.0,0.0,0.0,2.0,11.0,0.0,1.0,12,MARSH GORDON ET AL TTEE,10003.0,0,,A51,A,PF,O,AR,A,A,IN,,1,AR,AR,AR,0.472778,C,36061.0,5602.0,5600.0,NY,10003.0,NEW YORK,PF,O,AR,A,IN,,A51,A
13840,223047700,1997,1997,199712,,3,59,44830,2049,48601,18126,0,0,0,27937,113606,98247,15359,94967,65812,0,821411,382086,0,0,382086,16109,821411,0,40622,N,Y,N,N,N,N,N,N,N,N,N,N,N,N,N,N,N,N,N,0,68776,0,70310,2964,67030,2964,0,0,0,392303,821411,0,805302,658,0,0,2000,0,0,0,0,700,824804,39964,0,0,0,0,0,0,0,0,0,0,0,0,0,0,0,0,0,0,0,0,0,0,0,0,0,0,0,0,0,0,0,0,0,0,0,0,0,0,0,0,NEW YORK FOUNDATION FOR ARCHITECTURE INC,,200 LEXINGTON AVE,NEW YORK,NY,10016-6201,0.0,3.0,1.0,196703.0,1.0,4.0,59.0,0.0,0.0,1.0,13.0,0.0,1.0,12,,10016.0,658,,A40,A,PF,O,AR,A,A,IN,,1,AR,AR,AR,0.421595,B,36061.0,5602.0,5600.0,NY,10016.0,NEW YORK,PF,S,AR,A,IN,,A40,A
14600,223527668,1998,1997,199806,A40Z,3,60,350000,0,3753,0,0,0,0,0,353753,3335,350418,0,3753,3753,350418,0,0,0,0,0,350418,0,12734,N,Y,N,N,Y,N,N,N,N,N,N,N,N,N,N,N,N,N,N,0,3753,3753,3335,0,0,0,0,11598,0,0,350418,0,350418,38,0,0,0,0,0,0,0,0,258568,0,3753,0,0,0,3753,18500,0,0,0,18500,0,0,0,0,0,0,0,0,0,0,8489,0,0,0,8489,0,0,0,0,0,0,0,0,0,0,0,0,0,0,0,YATES ART FOUNDATION INC,% WOLLIN,350 FIFTH STE 2822,NEW YORK,NY,10118-2899,0.0,3.0,1.0,199803.0,1.0,3.0,60.0,0.0,0.0,1.0,13.0,0.0,1.0,6,,10118.0,38,,A40,A,PF,O,AR,A,A,IN,,1,AR,AR,AR,0.609941,C,36061.0,5602.0,5600.0,NY,10118.0,NEW YORK,PF,O,AR,A,IN,,A12,A
51082,770415802,1998,1998,199812,A99Z,3,124,710532,70616,0,1687,0,36951,49020,1215000,819786,1751059,-931273,1061808,70529,109254,5427082,0,0,0,0,1081170,5427082,0,290262,N,N,N,N,Y,N,N,N,N,N,N,N,N,N,N,N,N,N,N,0,72303,109254,536059,1774,531808,1774,0,1739195,0,0,5427082,0,4345912,1411,0,0,0,0,0,0,80,0,5893635,0,109254,79056,80026,60237,328573,1061808,1558792,2032265,2520659,7173524,5427082,6383247,3040475,4431423,19282227,5427082,6383247,3040475,4431423,19282227,193508,211185,96951,143519,645163,0,0,0,0,0,0,0,0,0,0,0,0,0,0,0,NATIONAL ACADEMY OF EDUCATION,% NEW YORK UNIVERSITY SCHOOL OF ED,726 BROADWAY 5TH FLOOR,NEW YORK,NY,10003-9502,0.0,3.0,1.0,199606.0,1.0,3.0,124.0,0.0,0.0,1.0,13.0,0.0,1.0,12,,10003.0,1411,,A99,A,PF,O,AR,A,A,IN,,1,AR,AR,AR,0.6891609999999999,C,36061.0,5602.0,5600.0,NY,10003.0,NEW YORK,PF,O,AR,A,IN,,A99,A
