,EIN,TAXPER,FisYr,CYCLE,DLN,NTEE,ARC,LRC,RESERVED,EOSTATUS,STYEAR,RECCODE,ASS_CODE,INC_CODE,SUBSECCD,ACTIV,P1TCONT,P1INTREV,P1DIVID,P1NGASTS,P1NLASTS,P1GINVPF,P1OTHINC,P1OFCOMP,P1CONTPD,P1TOTREV,P1TOTEXP,P1EXCREV,P1TEXMEX,P1NETINV,P6INVTAX,P1NADINC,P2TOTAST,P2GVTINV,P2CRPSTK,P2CRPBND,P2TINVSC,P2TLIABL,P2TASFMV,P13UNDST,P10MIR,P6EXMPF,P6DOMORG,P7POLIT,P7LIQUID,P7POFCLM,P7DISSAL,P7DISBOR,P7DISSER,P7DISPAY,P7DISTRA,P7PAYGVT,P7UNDINC,P7BUSINT,P7JEOINV,P7PROPAG,P7ELECT,P7INDGRT,P7ORGGRT,P7OTHPUR,P1GRENTS,P1GOODS,P1INVRV,P1NADJRV,P1ADMEXP,P1INVEXP,P1CHAEXP,P1TINVEX,P1TADJEX,P2CASHBV,P2MORTG,P2EYOTIN,P2EYASST,P2MTGNTS,P3EYTFND,P6TEXCTX,P6TX511,P6TXSUBA,P6ESTTX,P6TXWTH,P6TXINV,P6TXWERR,P6TXPNLT,P6TXCRDT,P6TX4940,P10TASST,P11DISTR,P14NADJA,P14NADJB,P14NADJC,P14NADJD,P14TNADJ,P14QDISA,P14QDISB,P14QDISC,P14QDISD,P14TQDIS,P14ASVLA,P14ASVLB,P14ASVLC,P14ASVLD,P14TASVL,P14A4942,P14B4942,P14C4942,P14D4942,P14T4942,P14ENDWA,P14ENDWB,P14ENDWC,P14ENDWD,P14TENDW,P14TSUPA,P14TSUPB,P14TSUPC,P14TSUPD,P14TTSUP,P14PSUPA,P14PSUPB,P14PSUPC,P14PSUPD,P14TPSUP,P14GINVA,P14GINVB,P14GINVC,P14GINVD,P14TGINV,ZIP5,NAME,CONTACT,ADDRESS,CITY,STATE,ZIP,GEN,AFCD,CLASSCD,RULEDATE,DEDUCTCD,FNDNCD,ACTIV1,ACTIV2,ACTIV3,ORGCD,DISTRICT,ARED,FRCD,ACCPER,SEC_NAME,FIPS,MSA_NECH,PMSA,NTEECC,NTEE1,MAJGRPB,OUTNCCS,OUTREAS,NTEESRC,ntmaj10,ntmaj12,ntmaj5,randnum,nteeConf,LEVEL1,LEVEL2,LEVEL3,LEVEL4,stateOld1,zip5Old1,cityOld1,SOURCE,LEVEL1old20090616,LEVEL2old20090616,LEVEL3old20090616,LEVEL4old20090616,OUTNCCSold20090616,OUTREASold20090616,nteeFinal,nteeFinal1
156,10547898,200112,2001,200247.0,29491306028152,A80,N,Y,0.0,1.0,2001,3.0,4.0,3.0,3,0,55000,0,0,0,0,0,0,0,0,55000,0,55000,0,0,0,0,230000,0,0,0,0,175000,230000,0,0,N,N,N,N,N,N,N,N,N,N,N,N,N,N,N,N,N,N,N,0,0,0,0,0,0,0,0,0,230000,0,0,230000,0,55000,0,0,0,0,0,0,0,0,0,0,112500,0,0,0,0,0,0,0,0,0,0,0,0,0,0,0,0,0,0,0,0,0,0,0,0,0,0,0,0,0,0,0,0,0,0,0,0,0,0,0,0,0,10003.0,WTC PLATFORM FOUNDATION INC,% MILGROM GALUSKIN BALMUTH & CO CPA,5 UNION SQ W,NEW YORK,NY,10003-3306,0.0,3.0,1.0,200205.0,1.0,4.0,0.0,0.0,0.0,1.0,13.0,0.0,1.0,12,,36061.0,5602.0,5600.0,A80,A,A,IN,,1,AR,AR,AR,0.07422589999999998,C,PF,O,AR,A,NY,10003.0,NEW YORK,core2001pf_ver1,PF,S,AR,A,IN,,A80,A
3530,53842834,200109,2001,200216.0,29491075031172,A23Z,N,Y,0.0,1.0,2000,3.0,1.0,1.0,3,60,0,0,0,0,0,0,0,0,0,1,0,1,0,0,0,0,1,0,0,0,0,0,1,0,0,N,N,N,N,N,N,N,N,N,N,N,N,N,N,N,N,N,N,N,0,0,0,0,0,0,0,0,0,0,0,0,0,0,0,0,0,0,0,0,0,0,0,0,0,0,0,0,0,0,0,0,0,0,0,0,0,0,0,0,0,0,0,0,0,0,0,0,0,0,0,0,0,0,0,0,0,0,0,0,0,0,0,0,0,0,0,10118.0,FREDERICK BROWN MUSEUM INC,% L WOLLIN,350 FIFTH AVE STE 2822,NEW YORK,NY,10118-2899,0.0,3.0,1.0,199511.0,1.0,4.0,60.0,0.0,0.0,1.0,13.0,0.0,1.0,9,,36061.0,5602.0,5600.0,A23,A,A,IN,,1,AR,AR,AR,0.46897,N,PF,O,AR,A,NY,10118.0,NEW YORK,core2001pf_ver1,PF,S,AR,A,IN,,A50,A
4221,61532031,200112,2001,200230.0,29491173230212,A12,N,Y,0.0,1.0,2001,3.0,6.0,3.0,3,0,40000,834,0,0,0,0,0,0,40000,40834,48135,-7301,48035,834,8,0,1716921,0,0,0,0,7500,1716921,74759,84567,N,Y,N,N,N,N,N,N,N,N,N,N,N,N,N,N,N,N,N,0,0,834,0,8135,0,8035,0,0,16921,0,0,1716921,0,1709421,8,0,0,0,0,0,0,0,8,0,1717106,84559,0,0,0,0,0,0,0,0,0,0,0,0,0,0,0,0,0,0,0,0,0,0,0,0,0,0,0,0,0,0,0,0,0,0,0,0,0,0,0,0,10021.0,ALEPH FOUNDATION FOR HUMANITIES,% JOEL ORNSTEIN,667 MADISON AVE 11TH FLR,NEW YORK,NY,10021-8029,0.0,3.0,1.0,199904.0,1.0,4.0,0.0,0.0,0.0,1.0,11.0,0.0,1.0,12,,36061.0,5602.0,5600.0,A12,A,A,IN,,1,AR,AR,AR,0.214986,N,PF,S,ZB,A,NY,10021.0,NEW YORK,core2001pf_ver1,PF,S,ZB,A,IN,,A70,A
5309,113121207,200202,2002,200229.0,29491173245232,A60Z,N,Y,0.0,1.0,2001,3.0,4.0,1.0,3,122,0,0,0,0,0,0,0,0,0,1,0,1,0,0,0,0,101510,0,0,0,0,75962,101510,0,0,N,N,N,N,N,N,N,N,N,N,N,Y,N,N,N,N,N,N,N,0,0,0,0,0,0,0,0,0,0,0,0,101510,0,25548,0,0,0,0,0,0,0,0,0,0,0,0,0,0,0,0,0,0,0,0,0,0,0,0,0,0,0,0,0,0,0,0,0,0,0,0,0,0,0,0,0,0,0,0,0,0,0,0,0,0,0,0,10022.0,B KING PRODUCTIONS INC,% STARR & CO,350 PARK AVE,NEW YORK,NY,10022-6022,0.0,3.0,1.0,199402.0,1.0,4.0,122.0,0.0,0.0,1.0,13.0,0.0,1.0,2,,36061.0,5602.0,5600.0,A60,A,A,IN,,1,AR,AR,AR,0.784231,N,PF,O,AR,A,NY,10022.0,NEW YORK,core2001pf_ver1,PF,S,AR,A,IN,,A60,A
5317,113131714,200112,2001,200220.0,29491096017052,A99Z,N,Y,0.0,1.0,2001,3.0,1.0,1.0,3,560,0,0,0,0,0,0,0,0,0,1,0,1,0,0,0,0,1,0,0,0,0,0,1,0,0,N,N,N,N,N,N,N,N,N,N,N,N,N,N,N,N,N,N,N,0,0,0,0,0,0,0,0,0,0,0,0,0,0,0,0,0,0,0,0,0,0,0,0,0,0,0,0,0,0,0,0,0,0,0,0,0,0,0,0,0,0,0,0,0,0,0,0,0,0,0,0,0,0,0,0,0,0,0,0,0,0,0,0,0,0,0,11419.0,PEACE UNITY AND PROSPERITY FOUNDATION INC,% SARITA SACHOEUA,95 54 111TH ST,RICHMOND HILL,NY,11419-1023,0.0,3.0,1.0,199607.0,1.0,4.0,560.0,0.0,0.0,1.0,11.0,0.0,1.0,12,,36081.0,5602.0,5600.0,A99,A,A,IN,,1,AR,AR,AR,0.369607,N,PF,O,AR,A,NY,11419.0,RICHMOND HILL,core2001pf_ver1,PF,S,AR,A,IN,,A99,A
5329,113137086,200012,2000,200203.0,29491005064232,A99Z,N,Y,0.0,1.0,2000,3.0,4.0,3.0,3,560,80000,8479,0,0,0,0,0,0,92911,88479,94170,-5691,92911,7220,144,7220,315258,0,0,0,0,0,315258,0,15721,N,N,N,N,N,N,N,N,N,N,N,N,N,N,N,N,N,N,N,0,0,8479,8479,1259,1259,0,1259,1259,315258,0,0,315258,0,315258,144,0,0,0,0,0,0,0,144,0,319210,15577,0,0,0,0,0,0,0,0,0,0,0,0,0,0,0,0,0,0,0,0,0,0,0,0,0,0,0,0,0,0,0,0,0,0,0,0,0,0,0,0,11423.0,J Z L FOUNDATION,% MICKEY WOHL,87 09 CLIO ST,HOLLISWOOD,NY,11423-1229,0.0,3.0,1.0,199508.0,1.0,4.0,560.0,0.0,0.0,2.0,11.0,0.0,1.0,12,,36081.0,5602.0,5600.0,A99,A,A,IN,,1,AR,AR,AR,0.88065,N,PF,O,AR,A,NY,11423.0,HOLLISWOOD,core2001pf_ver1,PF,S,AR,A,IN,,A99,A
5346,113162087,200012,2000,200220.0,29491117034162,,N,Y,0.0,1.0,2000,3.0,6.0,5.0,3,994,693611,0,0,0,0,0,264301,0,0,957912,643742,314170,627093,0,0,251595,1003579,0,568623,0,568623,87293,1003579,0,284,N,N,N,N,N,N,N,N,N,N,N,N,N,N,N,N,N,N,N,0,0,0,264301,643742,0,627093,0,12706,3330,0,0,1003579,0,916286,0,0,0,0,0,0,0,0,0,0,5756,0,0,0,0,0,0,0,0,0,0,0,0,0,0,0,0,0,0,0,0,0,0,0,0,0,0,0,0,0,0,0,0,0,0,0,0,0,0,0,0,0,11101.0,AMERICAN MUSEUM FOR THE PRESERVATION OF HISTORIC AIRCRAFT,% AVIREX LTD,33 00 47TH AVE,LONG IS CITY,NY,11101-2430,0.0,3.0,1.0,199308.0,1.0,4.0,994.0,60.0,0.0,1.0,11.0,0.0,1.0,12,,36081.0,5602.0,5600.0,A50,A,A,IN,,1,AR,AR,AR,0.929457,N,PF,O,AR,A,NY,11101.0,LONG IS CITY,core2001pf_ver1,PF,S,AR,A,IN,,A50,A
5354,113174234,200112,2001,200239.0,29491243033192,,N,Y,0.0,1.0,2001,3.0,4.0,2.0,3,602,11050,7049,2076,0,0,0,0,0,37300,20175,41102,-20927,28,8057,161,0,261365,0,0,60000,60000,0,283632,0,0,N,N,N,N,N,N,N,N,N,N,N,N,N,N,N,N,N,N,N,0,0,9125,0,3802,1068,28,1068,0,0,0,50596,283632,0,261365,161,0,0,140,0,0,0,0,21,0,0,0,0,0,0,0,0,0,0,0,0,0,0,0,0,0,0,0,0,0,0,0,0,0,0,0,0,0,0,0,0,0,0,0,0,0,0,0,0,0,0,0,11367.0,FOUNDATION FOR THE ADVANCEMENT OF ARTS AND SCIENCES FROM INDIA INC,% RAVI S KULKARNI,150 56 MELBOURNE AVE,FLUSHING,NY,11367-1439,0.0,3.0,1.0,199310.0,1.0,4.0,602.0,0.0,0.0,1.0,11.0,0.0,1.0,12,,36081.0,5602.0,5600.0,A99,A,A,IN,,1,AR,AR,AR,0.126318,N,PF,O,AR,A,NY,11367.0,FLUSHING,core2001pf_ver1,PF,S,AR,A,IN,,A0123,A
5420,113227149,200106,2001,200229.0,29491117031212,A47P,N,Y,0.0,1.0,2000,3.0,1.0,3.0,3,91,0,0,0,0,0,0,55176,4500,240,55176,60091,-4915,60091,0,0,0,8253,0,0,0,0,7770,8253,0,0,N,N,N,N,N,N,N,N,N,N,N,N,N,N,N,N,N,N,N,0,0,0,0,59851,0,59851,0,0,3078,0,0,8253,0,483,0,0,0,0,0,0,0,0,0,0,7830,0,0,0,0,0,0,0,0,0,0,0,0,0,0,0,0,0,0,0,0,0,0,0,0,0,0,0,0,0,0,0,0,0,0,0,0,0,0,0,0,0,11231.0,CLAYWORKS ON COLUMBIA INC,,195 COLUMBIA STREET,BROOKLYN,NY,11231-0000,0.0,3.0,3.0,199612.0,1.0,4.0,91.0,149.0,59.0,1.0,11.0,0.0,1.0,6,,36047.0,5602.0,5600.0,A19,A,A,IN,,1,AR,AR,AR,0.680917,N,PF,O,AR,A,NY,11231.0,BROOKLYN,core2001pf_ver1,PF,S,AR,A,IN,,A40,A
5481,113276202,200112,2001,200236.0,29491229007082,A25,N,Y,0.0,25.0,2001,3.0,1.0,3.0,3,994,36537,0,0,0,0,0,0,4628,250,36537,34881,1656,250,0,0,0,2034,0,0,0,0,0,2034,0,158,N,N,N,N,N,N,N,N,N,N,N,N,N,N,N,N,N,N,N,0,0,0,0,34631,0,0,0,0,2034,0,0,2034,0,2034,0,0,0,0,0,0,0,0,0,0,3217,158,0,0,0,0,0,0,0,0,0,0,0,0,0,0,0,0,0,0,0,0,0,0,0,0,0,0,0,0,0,0,0,0,0,0,0,0,0,0,0,0,10022.0,ART SPIRIT INC,% ROSENZWEIG & MAFFIA,845 3RD AVE,NEW YORK,NY,10022-6601,0.0,3.0,1.0,199602.0,1.0,15.0,994.0,91.0,0.0,1.0,13.0,199912.0,20.0,12,,36061.0,5602.0,5600.0,A99,A,A,IN,,1,AR,AR,AR,0.106281,N,PC,O,AR,A,NY,10022.0,NEW YORK,core2001pf_ver1,PF,O,AR,A,IN,,A25,A
5940,113559712,200112,2001,200248.0,29491173119152,A51,N,Y,0.0,1.0,2001,2.0,6.0,3.0,3,0,30816,0,0,0,-9741,0,0,0,0,21075,6750,14325,6186,40309,0,40309,2649125,0,0,0,0,0,2649125,0,0,N,N,N,N,Y,N,N,N,N,N,N,N,N,N,N,N,N,N,N,0,0,40309,40309,6750,0,6186,0,0,62120,0,0,2649125,0,2649125,0,0,0,0,0,0,0,0,0,0,0,0,1,0,0,0,1,6186,0,0,0,6186,1,0,0,0,1,0,0,0,0,0,0,0,0,0,0,0,0,0,0,0,0,0,0,0,0,0,0,0,0,0,11215.0,HAROLD WESTON FOUNDATION,% REBECCA FOSTER,388 8TH ST,BROOKLYN,NY,11215-3663,0.0,3.0,1.0,200108.0,1.0,3.0,0.0,0.0,0.0,2.0,11.0,0.0,1.0,12,,36047.0,5602.0,5600.0,A99,A,A,IN,,1,AR,AR,AR,0.749841,N,PF,O,AR,A,NY,11215.0,BROOKLYN,core2001pf_ver1,PF,O,AR,A,IN,,A51,A
6388,131655152,200012,2000,200222.0,29491117017072,A41Z,N,Y,0.0,25.0,2000,2.0,7.0,6.0,3,59,37512,0,196365,481578,0,0,10250,75000,0,1257251,739179,518072,404191,877476,8775,413970,5756729,0,0,0,0,117343,7517214,0,369313,N,Y,N,N,Y,N,N,N,N,N,N,N,N,N,N,N,N,N,N,531546,0,1209489,745983,739179,332013,404191,332013,332013,32186,0,4291695,7517214,0,5639386,8775,0,0,0,0,0,0,0,0,0,7498733,0,369313,329358,326695,312590,1337956,404191,425594,428242,244400,1502427,7517214,7404731,7115553,7106792,29144290,533333,533333,533333,533333,2133332,246209,219572,217797,208393,891971,37512,64342,36180,18156,156190,37512,64342,36180,18156,156190,199601,327948,296445,641669,1465663,10010.0,VAN ALEN INSTITUTE PROJECTS IN PUBLIC ARCHITECTURE,,30 W 22ND ST 6TH FLR,NEW YORK,NY,10010-5884,0.0,1.0,2.0,193804.0,1.0,3.0,59.0,0.0,0.0,1.0,13.0,200312.0,1.0,12,,36061.0,5602.0,5600.0,A40,A,A,IN,,1,AR,AR,AR,0.566503,N,PF,O,AR,A,NY,10010.0,NEW YORK,core2001pf_ver1,PF,O,AR,A,IN,,A40,A
6433,131873289,200112,2001,200219.0,29491103011162,A50Z,N,Y,0.0,1.0,2001,3.0,6.0,3.0,3,119,14675,51,75870,0,-37836,0,0,0,58080,52759,140184,-87425,116067,51925,519,0,1917805,199654,1036249,662927,1898830,728,2264041,45776,118758,N,Y,N,N,N,N,N,N,N,N,N,N,N,N,N,N,Y,N,N,0,0,75921,0,82104,23995,57986,23995,0,18413,0,0,2264041,0,1917076,519,0,0,4000,0,0,0,0,-3481,1000,2411334,118238,0,0,0,0,0,0,0,0,0,0,0,0,0,0,0,0,0,0,0,0,0,0,0,0,0,0,0,0,0,0,0,0,0,0,0,0,0,0,0,0,10017.0,BAGBY FOUNDATION FOR THE MUSICAL ARTS INC,,501 FIFTH AVE,NEW YORK,NY,10017-6103,0.0,3.0,1.0,194211.0,1.0,4.0,119.0,0.0,0.0,1.0,13.0,0.0,1.0,12,,36061.0,5602.0,5600.0,A50,A,A,IN,,1,AR,AR,AR,0.6187239999999999,N,PF,O,AR,A,NY,10017.0,NEW YORK,core2001pf_ver1,PF,S,AR,A,IN,,A68,A
7071,133224878,200112,2001,200240.0,29491250115012,A20Z,N,Y,0.0,1.0,2001,2.0,1.0,2.0,3,123,14514,7,0,0,0,0,1290,0,225,15811,15396,415,13589,7,0,7,4656,0,0,0,0,0,4656,0,0,N,N,N,N,Y,N,N,N,N,N,N,N,N,N,N,N,N,N,N,0,0,7,7,15171,0,13364,0,0,0,0,0,4656,0,4656,0,0,0,0,0,0,0,0,0,0,3310,0,0,0,0,124,124,13589,21427,34302,38510,107828,4656,4546,2538,1425,13165,4656,4546,2538,1425,13165,0,0,0,0,0,15804,18703,35396,38165,108068,15804,18703,35396,38165,108068,7,11,19,38,75,10025.0,CHILDRENS MUSIC WORKSHOP INC,,315 RIVERSIDE DRIVE SUITE 7C,NEW YORK,NY,10025-4100,0.0,3.0,1.0,199112.0,1.0,3.0,123.0,0.0,0.0,1.0,13.0,0.0,1.0,12,,36061.0,5602.0,5600.0,A20,A,A,IN,,1,AR,AR,AR,0.529779,N,PF,O,AR,A,NY,10025.0,NEW YORK,core2001pf_ver1,PF,O,AR,A,IN,,A20,A
7081,133229829,200204,2002,200242.0,29491278035202,A23Z,N,Y,0.0,1.0,2001,3.0,2.0,3.0,3,46,54952,0,0,0,0,0,0,0,0,54952,47745,7207,0,0,0,0,18257,0,0,0,0,1003,18257,0,0,N,N,N,N,N,N,N,N,N,N,N,N,N,N,N,N,N,N,N,0,0,0,0,47745,0,0,0,0,18257,0,0,18257,0,17254,0,0,0,0,0,0,0,0,0,0,0,0,0,0,0,0,0,0,0,0,0,0,0,0,0,0,0,0,0,0,0,0,0,0,0,0,0,0,0,0,0,0,0,0,0,0,0,0,0,0,0,0,10001.0,KOREAN LANGUAGE & CULTURAL INSTITUTE INC,,246 5TH AVE STE 500,NEW YORK,NY,10001-7603,0.0,3.0,1.0,199101.0,1.0,4.0,46.0,0.0,0.0,1.0,13.0,0.0,1.0,4,,36061.0,5602.0,5600.0,A23,A,A,IN,,1,AR,AR,AR,0.0355012,N,PF,O,AR,A,NY,10001.0,NEW YORK,core2001pf_ver1,PF,S,AR,A,IN,,A23,A
7320,133354834,200106,2001,200228.0,29491159306142,A31Z,N,Y,0.0,1.0,2000,3.0,1.0,3.0,3,122,30325,330,0,0,0,0,0,0,15300,30655,30779,-124,15300,175,2,0,3795,0,0,0,0,0,3795,0,0,N,Y,N,N,N,N,N,N,N,N,N,N,N,N,N,N,N,N,N,0,0,330,0,15479,155,0,155,0,0,0,0,3795,0,3795,2,0,0,0,0,0,0,0,2,0,0,0,0,0,0,0,0,0,0,0,0,0,0,0,0,0,0,0,0,0,0,0,0,0,0,0,0,0,0,0,0,0,0,0,0,0,0,0,0,0,0,0,10025.0,MEDIA ASSOCIATION OF SOCIAL SCIENTISTS AND ARTISTS INC,,292 RIVERSIDE DR 4A,NEW YORK,NY,10025-9003,0.0,3.0,1.0,199001.0,1.0,4.0,122.0,0.0,0.0,1.0,13.0,0.0,1.0,6,,36061.0,5602.0,5600.0,A31,A,A,IN,,1,AR,AR,AR,0.9225120000000001,N,PF,O,AR,A,NY,10025.0,NEW YORK,core2001pf_ver1,PF,S,AR,A,IN,,A0330,A
7493,133389923,200110,2001,200209.0,29491047012052,,N,Y,0.0,1.0,2000,3.0,4.0,1.0,3,122,0,0,0,0,0,0,522,0,0,522,8466,-7944,2632,0,0,0,128628,0,0,0,0,302168,25071,0,294,N,N,N,N,N,N,N,N,N,N,N,N,N,N,N,N,N,N,N,0,0,0,522,8466,0,2632,0,35539,5071,0,0,25071,0,-173540,0,0,0,0,0,0,0,0,0,0,5969,0,0,0,0,0,0,0,0,0,0,0,0,0,0,0,0,0,0,0,0,0,0,0,0,0,0,0,0,0,0,0,0,0,0,0,0,0,0,0,0,0,10024.0,THE TEREZIN FOUNDATION INC,,262 CENTRAL PARK WEST,NEW YORK,NY,10024-3512,0.0,3.0,1.0,198703.0,1.0,4.0,122.0,0.0,0.0,1.0,13.0,0.0,1.0,10,,36061.0,5602.0,5600.0,A31,A,A,IN,,1,AR,AR,AR,0.28162,N,PF,O,AR,A,NY,10024.0,NEW YORK,core2001pf_ver1,PF,S,AR,A,IN,,A31,A
7640,133442712,200012,2000,200218.0,29491103022112,,N,Y,0.0,1.0,2000,3.0,2.0,3.0,3,122,71685,0,0,0,0,0,11025,0,0,82710,139708,-56998,136323,0,0,0,10351,0,0,0,0,3385,10351,0,2231,N,N,N,N,N,N,N,N,N,N,N,N,N,N,N,N,N,N,N,0,0,0,0,139708,0,136323,0,0,10051,0,0,10351,0,6966,0,0,0,0,0,0,0,0,0,0,45300,2231,0,0,0,0,0,0,0,0,0,0,0,0,0,0,0,0,0,0,0,0,0,0,0,0,0,0,0,0,0,0,0,0,0,0,0,0,0,0,0,0,10019.0,OUTSIDE IN JULY INC,% J L ROSENHOUSE CPA INC,250 W 57TH ST STE 2203,NEW YORK,NY,10019-3741,0.0,3.0,1.0,198810.0,1.0,4.0,122.0,0.0,0.0,1.0,13.0,0.0,1.0,12,GARRISON,36061.0,5602.0,5600.0,A31,A,A,IN,,1,AR,AR,AR,0.1782,N,PF,O,AR,A,NY,10019.0,NEW YORK,core2001pf_ver1,PF,S,AR,A,IN,,A31,A
7690,133464919,200112,2001,200236.0,29491229035172,,N,Y,0.0,1.0,2001,3.0,2.0,1.0,3,91,6211,0,0,0,0,0,0,0,0,6211,3177,3034,0,0,0,0,19078,0,0,0,0,15960,19078,0,0,N,N,N,N,N,N,N,N,N,N,N,N,N,N,N,N,N,N,N,0,0,0,0,3177,0,0,0,0,19078,0,0,19078,0,3118,0,0,0,0,0,0,0,0,0,0,0,0,0,0,0,0,0,0,0,0,0,0,0,0,0,0,0,0,0,0,0,0,0,0,0,0,0,0,0,0,0,0,0,0,0,0,0,0,0,0,0,0,10167.0,WORLD PRESS PHOTO USA FOUNDATION INC,% RABOBANK NEDERLAND,245 PARK AVE,NEW YORK,NY,10167-0002,0.0,3.0,1.0,198909.0,1.0,4.0,91.0,0.0,0.0,1.0,13.0,0.0,1.0,12,,36061.0,5602.0,5600.0,A40,A,A,IN,,1,AR,AR,AR,0.405401,N,PF,O,AR,A,NY,10167.0,NEW YORK,core2001pf_ver1,PF,S,AR,A,IN,,A40,A
7728,133486646,200112,2001,200252.0,29491341031212,,N,Y,0.0,1.0,2001,3.0,4.0,2.0,3,123,0,2223,4919,0,-1760,0,0,0,15000,5382,17882,-12500,16280,6218,124,0,248340,0,148962,53258,202220,0,351394,7741,18346,N,N,N,N,N,N,N,N,N,N,N,N,N,N,N,N,N,N,N,0,0,7142,0,2882,924,1280,924,0,46120,0,0,351394,0,248340,124,0,0,546,0,0,0,0,-422,422,372516,18222,0,0,0,0,0,0,0,0,0,0,0,0,0,0,0,0,0,0,0,0,0,0,0,0,0,0,0,0,0,0,0,0,0,0,0,0,0,0,0,0,10036.0,RONALD A WILFORD FOUNDATION FOR CONDUCTORS INC,% US TRUST CO OF NY,114 W 47TH ST TAXVS,NEW YORK,NY,10036-1510,0.0,3.0,1.0,198906.0,1.0,4.0,123.0,0.0,0.0,1.0,13.0,0.0,1.0,12,,36061.0,5602.0,5600.0,A60,A,A,IN,,1,AR,AR,AR,0.8572209999999999,N,PF,O,AR,A,NY,10036.0,NEW YORK,core2001pf_ver1,PF,S,AR,A,IN,,A60,A
7894,133553683,200112,2001,200231.0,29491194037012,A99Z,N,Y,0.0,1.0,2001,3.0,1.0,1.0,3,90,0,0,0,0,0,0,0,0,0,1,0,1,0,0,0,0,16,0,0,0,0,0,16,0,0,N,N,N,N,N,N,N,N,N,N,N,N,N,N,N,N,N,N,N,0,0,0,0,0,0,0,0,0,16,0,0,16,0,16,0,0,0,0,0,0,0,0,0,0,16,0,0,0,0,0,0,0,0,0,0,0,0,0,0,0,0,0,0,0,0,0,0,0,0,0,0,0,0,0,0,0,0,0,0,0,0,0,0,0,0,0,10019.0,OPERA DE PARIS FOUNDATION INC,% WILLKIE FARR & GALLAGHER,787 SEVENTH AVE,NEW YORK,NY,10019-6018,0.0,3.0,1.0,199004.0,1.0,4.0,90.0,0.0,0.0,1.0,13.0,0.0,1.0,12,,36061.0,5602.0,5600.0,A99,A,A,IN,,1,AR,AR,AR,0.886172,N,PF,O,AR,A,NY,10019.0,NEW YORK,core2001pf_ver1,PF,S,AR,A,IN,,A6A,A
7899,133556699,200012,2000,200203.0,29491328141101,,N,Y,0.0,1.0,2000,3.0,1.0,2.0,3,60,24638,13,0,0,0,0,0,0,0,24651,25992,-1341,0,13,0,13,78,0,0,0,0,0,78,37,37,N,N,N,N,N,N,N,N,N,N,N,Y,N,N,N,N,N,N,N,0,0,13,13,25992,0,0,0,0,0,0,0,78,0,78,0,0,0,0,0,0,0,0,0,0,748,37,0,0,0,0,0,0,0,0,0,0,0,0,0,0,0,0,0,0,0,0,0,0,0,0,0,0,0,0,0,0,0,0,0,0,0,0,0,0,0,0,10012.0,CHAIM GROSS MUSEUM,% ADFEL LEVY ZLOTNICK & CO,526 LA GUARDIA PL,NEW YORK,NY,10012-1401,0.0,3.0,1.0,199008.0,1.0,4.0,60.0,0.0,0.0,1.0,13.0,0.0,1.0,12,,36061.0,5602.0,5600.0,A50,A,A,IN,,1,AR,AR,AR,0.142757,N,PF,O,AR,A,NY,10012.0,NEW YORK,core2001pf_ver1,PF,S,AR,A,IN,,A50,A
7935,133572120,200109,2001,200215.0,29491075042142,,N,Y,0.0,1.0,2000,2.0,2.0,3.0,3,122,38268,129,0,0,0,0,0,0,0,38397,118973,-80576,118973,129,1,129,11008,0,0,0,0,46468,11008,0,2728,N,Y,N,N,Y,N,N,N,N,N,N,N,N,N,N,N,N,N,N,0,0,129,129,118973,0,118973,0,0,11008,0,0,11008,0,-35460,1,0,0,0,0,0,0,0,1,0,55395,0,129,0,0,0,129,118973,32357,27497,59944,238771,1,3791,34150,15054,52995,0,3791,34150,15054,52995,0,0,0,0,0,0,0,0,0,0,0,0,0,0,0,0,0,0,0,0,10023.0,FUND FOR NEW PERFORMANCE VIDEO INC,,175 W 73RD STE 12D,NEW YORK,NY,10023-2934,0.0,3.0,1.0,199401.0,1.0,3.0,122.0,0.0,0.0,1.0,13.0,0.0,1.0,9,,36061.0,5602.0,5600.0,A11,A,A,IN,,1,AR,AR,AR,0.5906239999999999,N,PF,S,ZA,A,NY,10023.0,NEW YORK,core2001pf_ver1,PF,S,ZA,A,IN,,A1131,A
7942,133573803,200112,2001,200242.0,29491271066222,,N,Y,0.0,1.0,2001,3.0,4.0,5.0,3,119,899687,14315,0,0,0,0,0,0,544189,914002,696385,217617,696385,14315,286,0,491826,0,0,0,0,1205,491826,0,30662,N,N,N,N,N,N,N,N,N,N,N,N,N,N,N,N,N,N,N,0,0,14315,0,152196,0,152196,0,0,0,0,0,491826,0,490621,286,0,0,0,0,0,0,0,286,0,622575,30376,0,0,0,0,0,0,0,0,0,0,0,0,0,0,0,0,0,0,0,0,0,0,0,0,0,0,0,0,0,0,0,0,0,0,0,0,0,0,0,0,10022.0,FILM FOUNDATION INC,% STARR & COMPANY,350 PARK AVENUE 9TH FLOOR,NEW YORK,NY,10022-6022,0.0,3.0,1.0,199008.0,1.0,4.0,119.0,0.0,0.0,1.0,52.0,0.0,1.0,12,,36061.0,5602.0,5600.0,A31,A,A,IN,,1,AR,AR,AR,0.312137,N,PF,O,AR,A,NY,10022.0,NEW YORK,core2001pf_ver1,PF,S,AR,A,IN,,A31,A
7978,133591085,200112,2001,200231.0,29491201068112,A42Z,N,Y,0.0,1.0,2001,3.0,5.0,2.0,3,91,0,0,9800,0,0,7000,300,0,0,17100,15465,1635,0,0,0,1635,561232,0,0,0,0,31000,561232,0,0,N,N,N,N,N,N,N,N,N,N,N,N,N,N,N,N,N,N,N,0,0,10100,17100,15465,15465,0,15465,15465,326232,235000,0,561232,0,530232,0,0,0,0,0,0,0,0,0,0,0,0,0,0,0,0,0,0,0,0,0,0,0,0,0,0,0,0,0,0,0,0,0,0,0,0,0,0,0,0,0,0,0,0,0,0,0,0,0,0,0,0,10016.0,LISETTE MODEL FOUNDATION INC,% BLUM GERSEN AND WOOD ESQ,270 MADISON AVE,NEW YORK,NY,10016-0601,0.0,3.0,1.0,199604.0,1.0,4.0,91.0,0.0,0.0,1.0,11.0,0.0,1.0,12,,36061.0,5602.0,5600.0,A40,A,A,IN,,1,AR,AR,AR,0.876662,N,PF,O,AR,A,NY,10016.0,NEW YORK,core2001pf_ver1,PF,S,AR,A,IN,,A40,A
8056,133626986,200206,2002,200235.0,29491222014072,,N,Y,0.0,20.0,2001,3.0,1.0,0.0,3,998,0,0,0,0,0,0,0,0,41675,0,43830,-43830,41675,0,0,0,1,0,0,0,0,0,1,0,0,N,N,N,N,N,N,N,N,N,N,N,N,N,N,N,N,N,N,N,0,0,0,0,2155,0,0,0,0,0,0,0,0,0,0,0,0,0,0,0,0,0,0,0,0,0,0,0,0,0,0,0,0,0,0,0,0,0,0,0,0,0,0,0,0,0,0,0,0,0,0,0,0,0,0,0,0,0,0,0,0,0,0,0,0,0,0,10020.0,FRIENDS OF LOUISIANA MUSEUM OF MODERN ART IN DENMARK INC,% ROSE & BOXER,620 FIFTH AVE STE 314,NEW YORK,NY,10020-2402,0.0,3.0,1.0,199201.0,1.0,4.0,998.0,0.0,0.0,1.0,13.0,0.0,1.0,6,,36061.0,5602.0,5600.0,A11,A,A,IN,,1,AR,AR,AR,0.779586,N,PF,S,ZA,A,NY,10020.0,NEW YORK,core2001pf_ver1,PF,S,ZA,A,IN,,A1151,A
8125,133646023,200112,2001,200231.0,29491173335162,A77P,N,Y,0.0,1.0,2001,3.0,1.0,5.0,3,200,661756,0,0,0,0,0,0,0,610989,661756,680200,-18444,680200,0,0,0,9535,0,0,0,0,0,9535,739,739,N,Y,N,N,N,N,N,N,N,N,N,N,N,N,N,N,N,N,N,0,0,0,0,69211,0,69211,0,0,9535,0,0,9535,0,9535,0,0,0,0,0,0,0,0,0,0,15000,739,0,0,0,0,0,0,0,0,0,0,0,0,0,0,0,0,0,0,0,0,0,0,0,0,0,0,0,0,0,0,0,0,0,0,0,0,0,0,0,0,11218.0,FRIENDS OF OHEL MOSHE INSTITUTE INC,% CHAVA GINSBURG,394 E 5TH ST,BROOKLYN,NY,11218-4005,0.0,3.0,1.0,199411.0,1.0,4.0,200.0,0.0,0.0,1.0,11.0,0.0,1.0,12,,36047.0,5602.0,5600.0,A19,A,A,IN,,1,AR,AR,AR,0.759406,N,PF,O,AR,A,NY,11218.0,BROOKLYN,core2001pf_ver1,PF,S,AR,A,IN,,A19,A
8174,133674360,200012,2000,200203.0,29491005036112,A20,N,Y,0.0,1.0,2000,3.0,8.0,7.0,3,90,3001021,761,414218,447385,0,0,-3090712,103406,0,772673,1217180,-444507,931139,3751151,75023,321914,18371591,0,12750743,0,12750743,1306,18371591,0,956085,N,N,N,N,N,N,N,N,Y,N,N,N,N,N,N,N,Y,N,N,0,0,3844486,414979,1217180,93335,931139,93335,93065,0,0,0,18371591,0,18370285,75023,0,0,75730,0,5000,0,0,-5707,5707,19412902,0,0,0,0,0,0,0,0,0,0,0,0,0,0,0,0,0,0,0,0,0,0,0,0,0,0,0,0,0,0,0,0,0,0,0,0,0,0,0,0,0,10016.0,CIVITELLA RANIERI FOUNDATION,% GERALD E RUPP TTEE,10 E 40TH ST STE 3807,NEW YORK,NY,10016-0301,0.0,3.0,1.0,199302.0,1.0,4.0,90.0,62.0,93.0,2.0,13.0,0.0,1.0,12,,36061.0,5602.0,5600.0,A20,A,A,IN,,1,AR,AR,AR,0.865469,C,PF,O,AR,A,NY,10016.0,NEW YORK,core2001pf_ver1,PF,S,AR,A,IN,,A20,A
8220,133693565,200106,2001,200203.0,29491356057171,,N,Y,0.0,1.0,2000,3.0,5.0,6.0,3,994,600222,2590,994,644641,0,-493797,0,0,0,754650,136055,618595,84279,645170,6452,0,504222,0,0,0,0,78315,468355,0,24741,N,Y,N,N,N,N,Y,N,N,N,N,N,N,N,N,N,N,N,N,0,499074,648225,-490213,136055,3055,84279,3055,32303,217716,0,219725,468355,0,425907,6452,0,0,8000,0,0,0,184,-1364,1364,502364,0,0,0,0,0,0,0,0,0,0,0,0,0,0,0,0,0,0,0,0,0,0,0,0,0,0,0,0,0,0,0,0,0,0,0,0,0,0,0,0,0,10013.0,CROWING ROOSTER ARTS INC,,180 W BROADWAY RM 302,NEW YORK,NY,10013-2906,0.0,3.0,1.0,199306.0,1.0,4.0,994.0,122.0,0.0,1.0,13.0,199706.0,1.0,6,,36061.0,5602.0,5600.0,A20,A,A,IN,,1,AR,AR,AR,0.428937,N,PF,O,AR,A,NY,10013.0,NEW YORK,core2001pf_ver1,PF,S,AR,A,IN,,A20,A
8247,133702827,200112,2001,200239.0,29491250116162,,N,Y,0.0,1.0,2001,3.0,1.0,4.0,3,994,115900,0,0,0,0,0,0,0,0,115900,131231,-15331,131231,0,0,0,1,0,0,0,0,87266,1,0,653,N,Y,N,N,N,N,N,N,N,N,N,N,N,N,N,N,N,N,N,0,0,0,0,131231,0,131231,0,0,0,0,0,0,0,-87266,0,0,0,0,0,0,0,0,0,0,13249,653,0,0,0,0,0,0,0,0,0,0,0,0,0,0,0,0,0,0,0,0,0,0,0,0,0,0,0,0,0,0,0,0,0,0,0,0,0,0,0,0,10017.0,MILLENIAL ARTS INCORPORATED,% GMH CONSULTING INC,733 THIRD AVE RM 1900,NEW YORK,NY,10017-3204,0.0,3.0,1.0,199407.0,1.0,4.0,994.0,90.0,94.0,1.0,13.0,0.0,1.0,12,,36061.0,5602.0,5600.0,A99,A,A,IN,,1,AR,AR,AR,0.319668,N,PF,O,AR,A,NY,10017.0,NEW YORK,core2001pf_ver1,PF,S,AR,A,IN,,A99,A
8276,133719303,200103,2001,200203.0,29491342009141,A75Z,N,Y,0.0,1.0,2000,2.0,1.0,0.0,3,914,0,0,0,0,0,0,0,0,0,0,2129,-2129,0,0,0,0,581,0,0,0,0,29823,581,0,14,N,N,N,N,Y,N,N,N,N,N,N,N,N,N,N,N,N,N,N,0,0,0,0,2129,0,0,0,0,581,0,0,581,0,-29242,0,0,0,0,0,0,0,0,0,0,279,0,1,0,0,0,1,0,0,30083,28305,58388,1,0,0,0,1,0,0,0,0,0,9,37,134,210,390,0,0,0,0,0,0,0,0,0,0,0,0,0,0,0,10017.0,KAWAMURA CULTURAL FOUNDATION INC,% KISO & TANAKA,675 3RD AVE STE 3008,NEW YORK,NY,10017-5704,0.0,3.0,2.0,199504.0,1.0,3.0,914.0,119.0,0.0,1.0,13.0,0.0,1.0,3,,36061.0,5602.0,5600.0,A70,A,A,IN,,1,AR,AR,AR,0.9548110000000001,N,PF,O,AR,A,NY,10017.0,NEW YORK,core2001pf_ver1,PF,O,AR,A,IN,,A1220,A
8364,133747492,200106,2001,200224.0,29491124006032,A20J,N,Y,0.0,1.0,2000,3.0,1.0,1.0,3,994,0,17,0,0,0,0,0,0,0,17,39,-22,0,17,0,17,2439,0,0,0,0,69835,2439,0,121,N,N,N,N,N,N,N,N,N,N,N,N,N,N,N,N,N,N,N,0,0,17,17,39,0,0,0,0,2439,0,0,2439,0,-67396,0,0,0,0,0,0,0,0,0,0,2450,0,0,0,0,0,0,0,0,0,0,0,0,0,0,0,0,0,0,0,0,0,0,0,0,0,0,0,0,0,0,0,0,0,0,0,0,0,0,0,0,0,10022.0,INTERNATIONAL CENTER OF DESIGN ART TO GOD TO THE WORLD AND TO MAN INC,% WOLF POPPER LLP,845 3RD AVE,NEW YORK,NY,10022-6601,0.0,3.0,1.0,199505.0,1.0,4.0,994.0,119.0,63.0,1.0,13.0,0.0,1.0,6,,36061.0,5602.0,5600.0,A12,A,A,IN,,1,AR,AR,AR,0.48985,N,PF,S,ZB,A,NY,10022.0,NEW YORK,core2001pf_ver1,PF,S,ZB,A,IN,,A20,A
8366,133747781,200111,2001,200248.0,29491313045112,,N,Y,0.0,1.0,2000,2.0,6.0,6.0,3,994,1190208,5834,38434,125000,0,0,2397,0,0,1361873,398257,963616,386850,165159,1652,72118,2117274,0,1884599,0,1884599,0,2057668,0,112176,N,Y,N,N,Y,N,N,N,N,N,N,N,N,N,N,N,N,N,N,0,0,169268,72118,398257,4109,386850,4109,0,28212,0,0,2057668,0,2117274,1652,0,0,5248,0,0,0,0,-3596,3596,2277687,0,72118,77386,39310,17145,205959,386850,149767,35469,15246,587332,1,0,0,0,1,0,0,0,0,0,74788,42517,26271,18595,162171,0,0,0,0,0,0,0,0,0,0,0,0,0,0,0,10012.0,INSTITUTE FOR COOPERATION OF ART AND RESEARCH INC,% ARKADI PLOTNITSKY,77 BLEECKER ST APT 1414,NEW YORK,NY,10012-1552,0.0,3.0,1.0,199405.0,1.0,4.0,994.0,199.0,0.0,1.0,13.0,0.0,1.0,11,,36061.0,5602.0,5600.0,A25,A,A,IN,,1,AR,AR,AR,0.0661542,N,PF,O,AR,A,NY,10012.0,NEW YORK,core2001pf_ver1,PF,S,AR,A,IN,,A25,A
8441,133772926,200012,2000,200206.0,29491328037111,A51Z,N,Y,0.0,1.0,2000,3.0,0.0,1.0,3,994,0,32,0,0,0,0,0,0,0,32,0,32,0,32,64,32,0,0,0,0,0,0,1,81,82,N,N,N,N,N,N,N,N,N,N,N,N,N,N,N,N,N,N,N,0,0,32,32,0,0,0,0,0,0,0,0,0,0,0,64,0,0,0,0,0,0,0,64,0,1674,81,0,0,0,0,0,0,0,0,0,0,0,0,0,0,0,0,0,0,0,0,0,0,0,0,0,0,0,0,0,0,0,0,0,0,0,0,0,0,0,0,10010.0,V I A ART INC,% FRANK E BUNTS,15 W 24TH ST 7TH FLR,NEW YORK,NY,10010-3214,0.0,3.0,1.0,199505.0,1.0,4.0,994.0,91.0,0.0,1.0,13.0,199712.0,1.0,12,,36061.0,5602.0,5600.0,A51,A,A,IN,,1,AR,AR,AR,0.160563,N,PF,O,AR,A,NY,10010.0,NEW YORK,core2001pf_ver1,PF,S,AR,A,IN,,A51,A
8463,133781874,200112,2001,200240.0,29491257030132,A51Z,N,Y,0.0,1.0,2001,3.0,4.0,4.0,3,60,100000,370,10408,457,0,0,0,0,40000,111235,78447,32788,71147,3935,39,0,200771,0,0,142750,142750,0,211648,0,8983,N,Y,N,N,N,N,N,N,Y,N,N,N,N,N,N,N,N,N,N,0,0,11235,0,38447,7300,31147,7300,0,51659,0,0,211648,0,200771,39,0,0,135,0,115,0,0,-211,211,182387,8944,0,0,0,0,0,0,0,0,0,0,0,0,0,0,0,0,0,0,0,0,0,0,0,0,0,0,0,0,0,0,0,0,0,0,0,0,0,0,0,0,10005.0,COBY FOUNDATION LTD,MILBANK TWEED HADLEY & MCCLOY,1 CHASE MANHATTAN PLZ,NEW YORK,NY,10005-1401,0.0,3.0,1.0,199503.0,1.0,4.0,60.0,0.0,0.0,1.0,13.0,0.0,1.0,12,,36061.0,5602.0,5600.0,A51,A,A,IN,,1,AR,AR,AR,0.355509,N,PF,O,AR,A,NY,10005.0,NEW YORK,core2001pf_ver1,PF,S,AR,A,IN,,A51,A
8497,133794021,200112,2001,200246.0,29491201012092,A60Z,N,Y,0.0,1.0,2001,3.0,1.0,1.0,3,602,6000,24,0,0,0,0,0,0,9500,6024,9500,-3476,9500,24,0,24,553,0,0,0,0,0,553,0,113,N,Y,N,N,N,N,N,N,N,N,N,N,N,N,N,N,N,N,N,0,0,24,24,0,0,0,0,0,0,0,0,553,0,553,0,0,0,0,0,0,0,0,0,0,2291,113,0,0,0,0,0,0,0,0,0,0,0,0,0,0,0,0,0,0,0,0,0,0,0,0,0,0,0,0,0,0,0,0,0,0,0,0,0,0,0,0,10314.0,GOTTLIEB-SCHWARTZ FAMILY FOUNDATION INC,% WEISS & COMPANY,724 COLLFIELD AVE,STATEN ISLAND,NY,10314-4253,0.0,3.0,1.0,199505.0,1.0,4.0,602.0,0.0,0.0,1.0,13.0,0.0,1.0,12,,36085.0,5602.0,5600.0,A60,A,A,IN,,1,AR,AR,AR,0.521835,N,PF,O,AR,A,NY,10314.0,STATEN ISLAND,core2001pf_ver1,PF,S,AR,A,IN,,A60,A
8502,133795322,200107,2001,200217.0,29491082031222,A40Z,N,Y,0.0,1.0,2000,3.0,1.0,1.0,3,994,0,0,0,0,0,0,0,0,0,1,0,1,0,0,0,0,1,0,0,0,0,0,1,0,0,N,N,N,N,N,N,N,N,N,N,N,N,N,N,N,N,N,N,N,0,0,0,0,0,0,0,0,0,0,0,0,0,0,0,0,0,0,0,0,0,0,0,0,0,0,0,0,0,0,0,0,0,0,0,0,0,0,0,0,0,0,0,0,0,0,0,0,0,0,0,0,0,0,0,0,0,0,0,0,0,0,0,0,0,0,0,10003.0,INTERNATIONAL SOCIETY FOR CONSCIOUSNESS AND THE ARTS,% NINA REZNICK,28 E 10TH ST APT 12L,NEW YORK,NY,10003-6214,0.0,3.0,1.0,199509.0,1.0,4.0,994.0,123.0,0.0,1.0,11.0,0.0,1.0,7,,36061.0,5602.0,5600.0,A40,A,A,IN,,1,AR,AR,AR,0.43236800000000003,N,PF,O,AR,A,NY,10003.0,NEW YORK,core2001pf_ver1,PF,S,AR,A,IN,,A03,A
8510,133797072,200112,2001,200227.0,29491152048112,A70Z,N,Y,0.0,1.0,2001,3.0,2.0,1.0,3,124,0,20,0,0,0,0,0,0,0,20,1355,-1335,1177,20,0,20,21403,0,20954,0,20954,0,457,0,86,N,N,N,N,N,N,N,N,N,N,N,N,N,N,N,N,N,N,N,0,0,20,20,1355,0,1177,0,0,0,0,0,457,0,21403,0,0,0,0,0,0,0,0,0,0,1745,86,0,0,0,0,0,0,0,0,0,0,0,0,0,0,0,0,0,0,0,0,0,0,0,0,0,0,0,0,0,0,0,0,0,0,0,0,0,0,0,0,10035.0,KAUFMANN-MARX FOUNDATION FOR TRANSATLANTIC CHRISTIAN-JEWISH DIA,% CARIN DRECHSLER-MARX,77 E 12TH ST STE 20 E,NEW YORK,NY,10035-0000,0.0,3.0,1.0,199503.0,1.0,4.0,124.0,123.0,0.0,1.0,13.0,0.0,1.0,12,,36061.0,5602.0,5600.0,A70,A,A,IN,,1,AR,AR,AR,0.400165,N,PF,O,AR,A,NY,10035.0,NEW YORK,core2001pf_ver1,PF,S,AR,A,IN,,X20,X
8529,133798585,200112,2001,200243.0,29491278011072,A99Z,N,Y,0.0,1.0,2001,3.0,5.0,4.0,3,602,2121,0,15746,68069,0,0,0,0,55200,85936,55975,29961,55200,81306,813,14971,770325,5881,690766,61447,758094,0,770325,0,37743,N,Y,N,N,N,N,N,N,N,N,N,N,N,N,N,N,N,N,N,0,0,82081,15746,775,775,0,775,775,10107,0,0,770325,0,770325,813,0,0,1520,0,0,0,20,-687,687,766358,36930,0,0,0,0,0,0,0,0,0,0,0,0,0,0,0,0,0,0,0,0,0,0,0,0,0,0,0,0,0,0,0,0,0,0,0,0,0,0,0,0,10022.0,POMEGRANATE FOUNDATION TR,% KATHLEEN PERATIS,110 E 59TH ST,NEW YORK,NY,10022-1304,0.0,3.0,1.0,199505.0,1.0,4.0,602.0,0.0,0.0,2.0,13.0,0.0,1.0,12,,36061.0,5602.0,5600.0,A99,A,A,IN,,1,AR,AR,AR,0.357098,N,PF,O,AR,A,NY,10022.0,NEW YORK,core2001pf_ver1,PF,S,AR,A,IN,,T22,T
8556,133800381,200111,2001,200240.0,29491257047152,B99I,N,Y,0.0,1.0,2000,3.0,3.0,5.0,3,994,685000,0,0,0,0,0,0,0,669237,685000,669287,15713,669287,0,0,0,37385,0,0,0,0,0,37385,0,1948,N,N,N,N,N,N,N,N,N,N,N,N,N,N,N,N,N,N,N,0,0,0,0,50,0,50,0,0,37385,0,0,37385,0,37385,0,0,0,0,0,0,0,0,0,0,39560,1948,0,0,0,0,0,0,0,0,0,0,0,0,0,0,0,0,0,0,0,0,0,0,0,0,0,0,0,0,0,0,0,0,0,0,0,0,0,0,0,0,11385.0,GODINGER LEFKOWTITZ MEMORIAL FOUNDATION INC,,63 15 TRAFFIC AVE,RIDGEWOOD,NY,11385-2629,0.0,3.0,1.0,199505.0,1.0,15.0,994.0,602.0,0.0,1.0,11.0,199911.0,10.0,11,,36081.0,5602.0,5600.0,A80,A,A,IN,,1,AR,AR,AR,0.234224,N,PC,O,AR,A,NY,11385.0,RIDGEWOOD,core2001pf_ver1,PF,O,AR,A,IN,,B99,B
8574,133801734,200106,2001,200216.0,29491075031032,A99Z,N,Y,0.0,1.0,2000,3.0,4.0,2.0,3,119,0,11503,0,0,0,0,0,0,0,11503,2237,9266,0,11503,230,11503,355655,0,0,0,0,2,374960,15811,16041,N,N,N,N,N,N,N,N,N,N,N,Y,N,N,N,N,N,N,N,0,0,11503,11503,2237,0,0,0,0,3405,0,99255,374960,0,355653,230,0,0,0,0,230,0,0,0,0,325709,15811,0,0,0,0,0,0,0,0,0,0,0,0,0,0,0,0,0,0,0,0,0,0,0,0,0,0,0,0,0,0,0,0,0,0,0,0,0,0,0,0,10024.0,HARRY M STEVENS FAMILY FOUNDATION INC,% WILLIAM M HUNT,186 RIVERSIDE DR APT 16D,NEW YORK,NY,10024-1007,0.0,3.0,1.0,199601.0,1.0,4.0,119.0,0.0,0.0,1.0,13.0,0.0,1.0,6,,36061.0,5602.0,5600.0,A99,A,A,IN,,1,AR,AR,AR,0.0640417,N,PF,O,AR,A,NY,10024.0,NEW YORK,core2001pf_ver1,PF,S,AR,A,IN,,A99,A
8576,133802490,200112,2001,200229.0,29491166242042,A76Z,N,Y,0.0,1.0,2001,2.0,4.0,5.0,3,93,517493,811,0,0,0,0,6042,0,171726,524346,464043,60303,171726,811,16,0,285545,0,0,0,0,6005,75099,0,2333,N,N,N,N,Y,N,N,N,N,N,N,N,N,N,N,N,N,N,N,0,0,811,6853,292317,0,0,0,14666,25402,0,0,75099,0,279540,16,0,0,0,0,0,0,0,16,0,47375,0,1,0,1034,0,1034,171726,246002,363797,140003,921528,1,230996,317667,292515,841178,0,0,129825,15000,144825,0,0,0,0,0,0,0,0,0,0,0,0,0,0,0,0,0,0,0,0,10019.0,FOUNDATION FOR HELLENIC CULTURE INC,% GREGORY A SIORIS,7 W 57TH ST,NEW YORK,NY,10019-3402,0.0,3.0,1.0,199504.0,1.0,3.0,93.0,0.0,0.0,1.0,13.0,0.0,1.0,12,,36061.0,5602.0,5600.0,A70,A,A,IN,,1,AR,AR,AR,0.236461,N,PF,O,AR,A,NY,10019.0,NEW YORK,core2001pf_ver1,PF,O,AR,A,IN,,A12,A
8608,133832587,200106,2001,200214.0,29491068043152,A56I,N,Y,0.0,1.0,2000,2.0,4.0,4.0,3,60,422074,315,606,0,0,0,13642,10000,0,436637,348296,88341,326358,921,18,5170,214205,0,0,0,0,0,214205,0,4750,N,N,N,N,Y,N,N,N,N,N,N,N,N,N,N,N,N,N,N,0,0,921,14563,348296,0,326358,0,9393,4066,0,0,214205,0,214205,18,0,0,0,0,25,0,0,-7,7,96439,0,4750,4204,0,0,8954,326358,333083,264688,262679,1186808,1,0,0,0,1,0,0,0,0,0,3167,2803,3484,2019,11473,0,0,0,0,0,0,0,0,0,0,0,0,0,0,0,10020.0,INSTITUTE FOR AEGEAN PREHISTORY STUDY CENTER FOR EAST CRETE,% MILLBURN CORPORATION,1270 6TH AVE,NEW YORK,NY,10020-1700,0.0,3.0,1.0,199508.0,1.0,3.0,60.0,199.0,119.0,1.0,13.0,0.0,1.0,6,,36061.0,5602.0,5600.0,A11,A,A,IN,,1,AR,AR,AR,0.6172449999999999,N,PF,S,ZA,A,NY,10020.0,NEW YORK,core2001pf_ver1,PF,S,ZA,A,IN,,A70,A
8611,133834448,200108,2001,200211.0,29491047024052,A60Z,N,Y,0.0,1.0,2000,3.0,1.0,0.0,3,995,0,0,0,0,0,0,0,0,0,0,0,0,0,0,0,0,32,0,0,0,0,0,32,1,1,N,N,N,N,N,N,N,N,N,N,N,N,N,N,N,N,N,N,N,0,0,0,0,0,0,0,0,0,0,0,0,32,0,32,0,0,0,0,0,0,0,0,0,0,32,1,0,0,0,0,0,0,0,0,0,0,0,0,0,0,0,0,0,0,0,0,0,0,0,0,0,0,0,0,0,0,0,0,0,0,0,0,0,0,0,0,10023.0,CHOREOTECTONICS INC,% RUKA KITO,155 W 70TH ST PH 2G,NEW YORK,NY,10023-4419,0.0,3.0,1.0,199605.0,1.0,16.0,995.0,90.0,0.0,1.0,11.0,199908.0,20.0,8,,36061.0,5602.0,5600.0,A60,A,A,IN,,1,AR,AR,AR,0.113429,N,PC,O,AR,A,NY,10023.0,NEW YORK,core2001pf_ver1,PF,O,AR,A,IN,,A60,A
8618,133838457,200012,2000,200221.0,29491110064192,Z99Z,N,Y,0.0,1.0,2000,2.0,2.0,4.0,3,91,210000,285,0,0,0,0,0,45907,0,210285,195093,15192,194808,0,0,0,11632,0,0,0,0,0,11632,0,0,N,Y,N,N,Y,N,N,N,N,N,N,N,N,N,N,N,N,N,N,0,0,285,0,195093,285,194808,285,0,0,0,0,11632,0,11632,0,0,0,0,0,0,0,0,0,0,0,0,1,0,0,0,1,0,0,0,0,0,1,0,0,0,1,0,0,0,0,0,0,0,0,0,0,0,0,0,0,0,0,0,0,0,0,0,0,0,0,0,10022.0,PIERRE AND MARIA-GAETANA MATISSE CHARITABLE FOUNDATION,,1 E 53RD ST,NEW YORK,NY,10022-4200,0.0,3.0,1.0,199512.0,1.0,3.0,91.0,0.0,0.0,1.0,11.0,0.0,1.0,12,,36061.0,5602.0,5600.0,A40,A,A,IN,,1,AR,AR,AR,0.743404,N,PF,O,AR,A,NY,10022.0,NEW YORK,core2001pf_ver1,PF,O,AR,A,IN,,A40,A
8696,133876967,200112,2001,200232.0,29491208054122,A54Z,N,Y,0.0,1.0,2001,2.0,1.0,1.0,3,119,0,0,0,0,0,0,0,0,0,1,456,-455,0,0,0,0,294,0,0,0,0,0,294,0,0,N,N,N,N,Y,N,N,N,N,N,N,N,N,N,N,N,N,N,N,0,0,0,0,456,0,0,0,0,294,0,0,294,0,294,0,0,0,0,0,0,0,0,0,0,572,0,1,0,0,0,1,0,4900,11150,6695,22745,294,750,725,960,2729,0,0,0,0,0,0,0,0,0,0,0,5300,11150,68242,84692,0,0,0,0,0,0,0,0,0,0,10022.0,ELF AQUITAINE INTERNATIONAL FOUNDATION INC,% EUGENE G MCGUIRE,444 MADISON AVE 20TH FLR,NEW YORK,NY,10022-6903,0.0,3.0,1.0,199606.0,1.0,3.0,119.0,602.0,0.0,1.0,13.0,0.0,1.0,12,,36061.0,5602.0,5600.0,A54,A,A,IN,,1,AR,AR,AR,0.352052,N,PF,O,AR,A,NY,10022.0,NEW YORK,core2001pf_ver1,PF,O,AR,A,IN,,A54,A
8708,133885307,200109,2001,200214.0,29491068103112,A51Z,N,Y,0.0,1.0,2000,2.0,8.0,4.0,3,91,40100,27381,82655,0,-31595,0,1225,78983,85500,119766,389683,-269917,348681,100287,2006,100287,12611352,820655,860924,0,1681579,3370,12404797,0,164832,N,N,N,N,Y,N,N,N,Y,N,N,N,N,N,N,N,Y,N,N,0,0,110036,111261,304183,9749,263181,9749,10974,0,0,0,12404797,0,12607982,2006,0,0,1720,0,0,0,2,288,0,3346835,0,85244,71909,34548,7214,198915,348681,324397,335603,194375,1203056,12404797,12874867,12480932,10171627,47932223,9241071,9270071,9535196,9939671,37986009,109888,105731,89408,7412,312439,0,0,0,0,0,0,0,0,0,0,0,0,0,0,0,10018.0,NANCY GRAVES FOUNDATION INC,% HECHT & COMPANY,111 W 40TH ST,NEW YORK,NY,10018-2506,0.0,3.0,1.0,199704.0,1.0,3.0,91.0,0.0,0.0,1.0,13.0,0.0,1.0,9,,36061.0,5602.0,5600.0,A51,A,A,IN,,1,AR,AR,AR,0.6842010000000001,N,PF,O,AR,A,NY,10018.0,NEW YORK,core2001pf_ver1,PF,O,AR,A,IN,,A51,A
8718,133893379,200203,2002,200232.0,29491187072022,A20Z,N,Y,0.0,1.0,2001,2.0,2.0,3.0,3,91,25000,0,0,0,0,0,1484,0,0,26484,51268,-24784,48515,0,0,1484,15259,0,0,0,0,0,14470,0,554,N,N,N,N,Y,N,N,N,N,N,N,N,N,N,N,N,N,N,N,0,0,0,1484,51268,0,48515,0,0,9553,0,0,14470,0,15259,0,0,0,0,0,0,0,0,0,0,11247,0,554,839,335,633,2361,48515,52481,78096,110348,289440,1,0,0,0,1,0,0,0,0,0,369,559,223,422,1573,0,0,0,0,0,0,0,0,0,0,0,0,0,0,0,10022.0,AMERICAN FOUNDATION FOR TEXTILE ART INC,,499 PARK AVENUE,NEW YORK,NY,10022-1240,0.0,3.0,1.0,199703.0,1.0,3.0,91.0,119.0,120.0,1.0,13.0,0.0,1.0,3,,36061.0,5602.0,5600.0,A20,A,A,IN,,1,AR,AR,AR,0.7366010000000001,N,PF,O,AR,A,NY,10022.0,NEW YORK,core2001pf_ver1,PF,O,AR,A,IN,,A40,A
8719,133893616,200112,2001,200225.0,29491138047202,A99Z,N,Y,0.0,1.0,2001,3.0,1.0,1.0,3,994,0,34,0,0,0,0,0,0,0,34,0,34,0,34,1,0,6168,0,0,0,0,10000,6168,0,0,N,N,N,N,N,N,N,N,N,N,N,N,N,N,N,N,N,N,N,0,0,34,0,0,0,0,0,0,0,0,0,6168,0,-3833,1,0,0,0,0,0,0,0,1,0,6153,0,0,0,0,0,0,0,0,0,0,0,0,0,0,0,0,0,0,0,0,0,0,0,0,0,0,0,0,0,0,0,0,0,0,0,0,0,0,0,0,0,10019.0,TRIBUTE 21 FOUNDATION INC,,10 WEST 56TH STREET,NEW YORK,NY,10019-3801,0.0,3.0,1.0,199702.0,1.0,15.0,994.0,119.0,90.0,1.0,13.0,199912.0,20.0,12,,36061.0,5602.0,5600.0,A99,A,A,IN,,1,AR,AR,AR,0.0424224,N,PC,O,AR,A,NY,10019.0,NEW YORK,core2001pf_ver1,PF,O,AR,A,IN,,A99,A
8734,133902358,200112,2001,200229.0,29491187055052,A60J,N,Y,0.0,1.0,2001,3.0,6.0,6.0,3,602,507435,430,23362,4701,0,0,4440,103850,50700,540368,268204,272164,240012,4613,46,0,1082418,0,0,0,0,0,1082418,0,41336,N,Y,N,N,N,N,N,N,N,N,N,N,N,N,N,N,N,N,N,0,0,28493,0,217504,23880,189312,23880,0,0,0,0,1082418,0,1082418,46,0,0,0,0,0,0,0,46,0,839319,41290,0,0,0,0,0,0,0,0,0,0,0,0,0,0,0,0,0,0,0,0,0,0,0,0,0,0,0,0,0,0,0,0,0,0,0,0,0,0,0,0,10012.0,JONATHAN LARSON PERFORMING ARTS FOUNDATION INC,% JAY S HARRIS,PO BOX 672 PRINCE ST STATION,NEW YORK,NY,10012-0013,0.0,3.0,1.0,199702.0,1.0,4.0,602.0,119.0,0.0,1.0,13.0,0.0,1.0,12,,36061.0,5602.0,5600.0,A12,A,A,IN,,1,AR,AR,AR,0.520764,N,PF,S,ZB,A,NY,10012.0,NEW YORK,core2001pf_ver1,PF,S,ZB,A,IN,,A1260,A
8743,133910335,200112,2001,200240.0,29491257052152,A80,N,Y,0.0,1.0,2001,2.0,3.0,1.0,3,0,0,0,0,0,0,0,0,0,0,1,0,1,0,0,0,0,36000,0,0,0,0,2000,36000,0,0,N,N,N,N,Y,N,N,N,N,N,N,N,N,N,N,N,N,N,N,0,0,0,0,0,0,0,0,0,0,0,0,36000,0,34000,0,0,0,0,0,0,0,0,0,0,0,0,1,0,0,0,1,0,0,0,2000,2000,1,0,0,36000,36000,0,0,0,36000,36000,0,0,0,0,0,0,0,0,0,0,0,0,0,0,0,0,0,0,0,0,10003.0,FISH FAMILY FOUNDATION INC,% HAMILTON FISH,33 IRVING PL FL 8,NEW YORK,NY,10003-2332,0.0,3.0,2.0,199902.0,1.0,3.0,0.0,0.0,0.0,1.0,11.0,0.0,1.0,12,,36061.0,5602.0,5600.0,A80,A,A,IN,,1,AR,AR,AR,0.180333,N,PF,O,AR,A,NY,10003.0,NEW YORK,core2001pf_ver1,PF,O,AR,A,IN,,N12,N
8819,133921831,200112,2001,200239.0,29491250099022,A99Z,N,Y,0.0,1.0,2001,3.0,8.0,7.0,3,602,5014706,106417,38334,0,0,0,0,0,889174,5159457,890635,4268822,889524,144751,1448,144751,10086116,0,3004483,0,3004483,0,10698323,0,374319,N,Y,N,N,N,N,N,N,N,N,N,N,N,N,N,N,N,N,N,0,0,144751,144751,1461,0,350,0,0,0,0,3764706,10698323,0,10086116,1448,0,0,3289,0,0,0,0,-1841,1841,7600378,372871,0,0,0,0,0,0,0,0,0,0,0,0,0,0,0,0,0,0,0,0,0,0,0,0,0,0,0,0,0,0,0,0,0,0,0,0,0,0,0,0,10019.0,BARBARA M ZALAZNICK FOUNDATION,% ERIC KAPLAN,1285 6TH AVE STE 21 FLR,NEW YORK,NY,10019-6028,0.0,3.0,1.0,199704.0,1.0,4.0,602.0,0.0,0.0,2.0,13.0,0.0,1.0,12,,36061.0,5602.0,5600.0,A99,A,A,IN,,1,AR,AR,AR,0.173351,N,PF,O,AR,A,NY,10019.0,NEW YORK,core2001pf_ver1,PF,S,AR,A,IN,,A99,A
8855,133926887,200112,2001,200229.0,29491166028212,A60Z,N,Y,0.0,1.0,2001,3.0,5.0,4.0,3,119,0,5234,34415,186861,0,0,0,0,5682,226510,11203,215307,11100,226407,4528,0,969616,299952,0,300135,600087,0,977686,0,47763,N,N,N,N,N,N,N,N,N,N,N,N,N,N,N,N,N,N,N,0,0,226510,0,5521,103,5418,103,0,11979,0,0,977686,0,969616,4528,0,0,1426,0,0,0,0,3102,0,969816,43235,0,0,0,0,0,0,0,0,0,0,0,0,0,0,0,0,0,0,0,0,0,0,0,0,0,0,0,0,0,0,0,0,0,0,0,0,0,0,0,0,10036.0,LAURA PELS INTERNATIONAL FOUNDATION INC,% LAURA PELS,234 W 44TH STREET,NEW YORK,NY,10036-3909,0.0,3.0,1.0,199703.0,1.0,4.0,119.0,90.0,0.0,1.0,13.0,0.0,1.0,12,,36061.0,5602.0,5600.0,A60,A,A,IN,,1,AR,AR,AR,0.019659299999999998,N,PF,O,AR,A,NY,10036.0,NEW YORK,core2001pf_ver1,PF,S,AR,A,IN,,A60,A
8856,133927380,200112,2001,200223.0,29491124015082,A83I,N,Y,0.0,1.0,2001,3.0,1.0,1.0,3,994,0,0,0,0,0,0,0,0,0,1,0,1,0,0,0,0,1,0,0,0,0,0,1,0,0,N,N,N,N,N,N,N,N,N,N,N,N,N,N,N,N,N,N,N,0,0,0,0,0,0,0,0,0,0,0,0,0,0,0,0,0,0,0,0,0,0,0,0,0,0,0,0,0,0,0,0,0,0,0,0,0,0,0,0,0,0,0,0,0,0,0,0,0,0,0,0,0,0,0,0,0,0,0,0,0,0,0,0,0,0,0,10471.0,JEWISH REGISTRY INC,% MARVIN WEITZ,621 WEST 254TH STREET,RIVERDALE,NY,10471-1225,0.0,3.0,1.0,199705.0,1.0,15.0,994.0,94.0,0.0,1.0,13.0,200012.0,10.0,12,,36005.0,5602.0,5600.0,A11,A,A,IN,,1,AR,AR,AR,0.12245999999999999,N,PC,S,ZA,A,NY,10471.0,RIVERDALE,core2001pf_ver1,PF,S,ZA,A,IN,,X30,X
8860,133929084,200112,2001,200250.0,29491320068112,A20Z,N,Y,0.0,1.0,2001,2.0,4.0,3.0,3,119,0,0,7010,0,0,0,21538,10000,6765,28548,84976,-56428,77475,7010,0,28548,204528,0,0,0,0,387,1,0,3148,N,N,N,N,Y,N,N,N,N,N,N,N,N,N,N,N,N,N,N,0,0,7010,28548,78211,0,70710,0,0,29072,0,0,0,0,204141,0,0,0,0,0,0,0,0,0,0,63918,0,3148,2669,0,0,5817,77475,54840,51838,86373,270526,204528,260728,351210,67640,884106,204528,260728,351210,67640,884106,0,0,0,0,0,0,0,0,0,0,0,0,0,0,0,0,0,0,0,0,10013.0,ART BRIDGE ASSOCIATION INC,,22 WATTS ST,NEW YORK,NY,10013-1690,0.0,3.0,1.0,199709.0,1.0,3.0,119.0,0.0,0.0,1.0,13.0,0.0,1.0,12,,36061.0,5602.0,5600.0,A20,A,A,IN,,1,AR,AR,AR,0.483346,N,PF,O,AR,A,NY,10013.0,NEW YORK,core2001pf_ver1,PF,O,AR,A,IN,,A03,A
8863,133929462,200112,2001,200233.0,29491208069182,A40Z,N,Y,0.0,1.0,2001,2.0,5.0,4.0,3,91,190646,0,5341,28549,0,0,0,0,14850,224536,15456,209080,14850,33890,678,0,622165,0,312234,0,312234,0,625755,0,26150,N,N,N,N,Y,N,N,N,N,N,N,N,N,N,N,N,N,N,N,0,0,33890,0,606,0,0,0,0,0,0,134931,625755,0,622165,678,0,0,0,0,0,0,10,688,0,530959,25472,1,0,0,0,1,0,0,0,0,0,1,0,0,0,1,0,0,0,0,0,0,0,0,0,0,0,0,0,0,0,0,0,0,0,0,0,0,0,0,0,10010.0,ALVIN E FRIEDMAN-KIEN FOUNDATION INC,% ROBERT H HOROWITZ,ONE LEXINGTON AVE STE 2A,NEW YORK,NY,10010-5515,0.0,3.0,1.0,199612.0,1.0,3.0,91.0,0.0,0.0,1.0,13.0,0.0,1.0,12,,36061.0,5602.0,5600.0,A40,A,A,IN,,1,AR,AR,AR,0.727953,N,PF,O,AR,A,NY,10010.0,NEW YORK,core2001pf_ver1,PF,O,AR,A,IN,,A40,A
8865,133930172,200112,2001,200246.0,29491292026032,A99Z,N,Y,0.0,1.0,2001,3.0,8.0,8.0,3,602,3952886,87449,156808,0,-1227634,0,4825325,0,3578742,7794834,3688289,4106545,3578742,136635,1366,0,24375145,0,20202620,0,20202620,0,24375145,0,1288212,N,Y,N,N,N,N,N,N,N,N,N,N,N,N,N,N,N,N,N,0,0,243552,0,109547,106917,0,106917,0,0,0,957342,24375145,0,24375145,1366,0,0,14368,0,0,0,0,-13002,13002,26156584,1286846,0,0,0,0,0,0,0,0,0,0,0,0,0,0,0,0,0,0,0,0,0,0,0,0,0,0,0,0,0,0,0,0,0,0,0,0,0,0,0,0,10022.0,TOMORROW FOUNDATION,% LAURA BAUDO SILLERMAN,650 MADISON AVE,NEW YORK,NY,10022-1029,0.0,3.0,1.0,199704.0,1.0,4.0,602.0,0.0,0.0,1.0,13.0,0.0,1.0,12,,36061.0,5602.0,5600.0,A99,A,A,IN,,1,AR,AR,AR,0.15823399999999999,N,PF,O,AR,A,NY,10022.0,NEW YORK,core2001pf_ver1,PF,S,AR,A,IN,,A99,A
8903,133935646,200112,2001,200214.0,29491068110012,A99Z,N,Y,0.0,1.0,2001,3.0,6.0,6.0,3,602,0,0,54233,546162,0,0,0,0,210500,600395,213495,386900,210500,600395,12008,0,4831248,0,3981377,0,3981377,0,4831248,0,215878,N,N,N,N,N,N,N,N,N,N,N,N,N,N,N,N,N,N,N,0,0,600395,0,2995,0,0,0,0,52279,0,0,4831248,0,4831248,12008,0,0,7356,0,0,0,0,4652,0,4383308,203870,0,0,0,0,0,0,0,0,0,0,0,0,0,0,0,0,0,0,0,0,0,0,0,0,0,0,0,0,0,0,0,0,0,0,0,0,0,0,0,0,10017.0,SCHLOSS FAMILY FOUNDATION INC,% WALTER J SCHLOSS,52 VANDERBILT AVE 8TH FLR,NEW YORK,NY,10017-3808,0.0,3.0,1.0,199704.0,1.0,4.0,602.0,0.0,0.0,1.0,13.0,0.0,1.0,12,,36061.0,5602.0,5600.0,A99,A,A,IN,,1,AR,AR,AR,0.700511,N,PF,O,AR,A,NY,10017.0,NEW YORK,core2001pf_ver1,PF,S,AR,A,IN,,A99,A
8907,133935995,200012,2000,200203.0,29491356042071,A40J,N,Y,0.0,1.0,2000,3.0,9.0,6.0,3,602,973390,19227,1565659,2101712,0,0,0,0,2604500,4659988,3103243,1556745,2708673,3357422,67148,0,55515484,17340175,24208869,2556839,44105883,55391,59809623,2103028,3025773,N,N,N,N,N,N,N,N,N,N,N,N,N,N,N,N,N,N,N,0,0,3714992,0,498743,357570,104173,357570,0,39885,0,7332026,59809623,0,55460093,67148,0,0,71842,0,17000,0,0,-21694,21694,61437005,2958625,0,0,0,0,0,0,0,0,0,0,0,0,0,0,0,0,0,0,0,0,0,0,0,0,0,0,0,0,0,0,0,0,0,0,0,0,0,0,0,0,10111.0,LILY AUCHINCLOSS FOUNDATION INC,% ALEXANDRA HERZAN,630 FIFTH AVE,NEW YORK,NY,10111-0100,0.0,3.0,1.0,199706.0,1.0,4.0,602.0,0.0,0.0,1.0,13.0,0.0,1.0,12,,36061.0,5602.0,5600.0,A12,A,A,IN,,1,AR,AR,AR,0.00447166,N,PF,S,ZB,A,NY,10111.0,NEW YORK,core2001pf_ver1,PF,S,ZB,A,IN,,A40,A
8918,133936809,200112,2001,200235.0,29491187127242,A50Z,N,Y,0.0,1.0,2001,2.0,0.0,0.0,3,60,0,0,0,0,0,0,0,0,4085,0,4085,-4085,4085,0,0,0,0,0,0,0,0,0,77615,0,0,N,N,N,N,Y,N,N,N,N,N,N,N,N,N,N,N,N,N,N,0,0,0,0,0,0,0,0,0,0,0,0,77615,0,0,0,0,0,0,0,0,0,0,0,0,0,0,1,0,0,0,1,0,0,0,0,0,1,0,0,0,1,0,0,0,0,0,0,0,0,0,0,0,0,0,0,0,0,0,0,0,0,0,0,0,0,0,10019.0,MELLIJOR CHARITABLE FOUNDATION INC,% WILLIAM BORDEN,200 W 57TH ST STE 802,NEW YORK,NY,10019-3211,0.0,3.0,1.0,199806.0,1.0,3.0,60.0,0.0,0.0,1.0,11.0,0.0,1.0,12,,36061.0,5602.0,5600.0,A50,A,A,IN,,1,AR,AR,AR,0.500498,N,PF,O,AR,A,NY,10019.0,NEW YORK,core2001pf_ver1,PF,O,AR,A,IN,,A50,A
8924,133938484,200106,2001,200209.0,29491026021032,A99I,N,Y,0.0,1.0,2000,3.0,4.0,1.0,3,119,0,0,2924,0,0,0,0,0,0,2924,236,2688,0,2688,27,0,192445,0,187600,0,187600,7748,300564,14779,14806,N,N,N,N,N,N,N,N,N,N,N,N,N,N,N,N,N,N,N,0,0,2924,0,236,236,0,236,0,4845,0,0,300565,0,184697,27,0,0,0,0,0,0,0,27,0,296123,14779,0,0,0,0,0,0,0,0,0,0,0,0,0,0,0,0,0,0,0,0,0,0,0,0,0,0,0,0,0,0,0,0,0,0,0,0,0,0,0,0,10019.0,BETTY RETTER FOUNDATION,% BETTY RETTER,210 CENTRAL PARK SOUTH,NEW YORK,NY,10019-1416,0.0,3.0,1.0,199707.0,1.0,4.0,119.0,0.0,0.0,2.0,13.0,0.0,1.0,6,,36061.0,5602.0,5600.0,A11,A,A,IN,,1,AR,AR,AR,0.112969,N,PF,S,ZA,A,NY,10019.0,NEW YORK,core2001pf_ver1,PF,S,ZA,A,IN,,A99,A
9020,133952016,200112,2001,200218.0,29491096000132,A20Z,N,Y,0.0,1.0,2001,3.0,6.0,6.0,3,91,0,80,4424,603294,0,0,0,0,358100,607798,360781,247017,358100,606657,6067,0,1704000,0,735486,0,735486,0,1547879,0,75864,N,Y,N,N,N,N,N,N,N,N,N,N,N,N,N,N,N,N,N,0,0,607798,0,2681,1141,0,1141,0,49990,0,0,1547879,0,1704000,6067,0,0,620,0,0,0,0,5447,0,1540379,69797,0,0,0,0,0,0,0,0,0,0,0,0,0,0,0,0,0,0,0,0,0,0,0,0,0,0,0,0,0,0,0,0,0,0,0,0,0,0,0,0,10017.0,PAINTER HILL FOUNDATION,% REMINICK ARRONS & CO LLP,685 THIRD AVE STE 19 FLR,NEW YORK,NY,10017-4024,0.0,3.0,1.0,199708.0,1.0,4.0,91.0,602.0,0.0,1.0,13.0,0.0,1.0,12,,36061.0,5602.0,5600.0,A20,A,A,IN,,1,AR,AR,AR,0.11341500000000002,N,PF,O,AR,A,NY,10017.0,NEW YORK,core2001pf_ver1,PF,S,AR,A,IN,,A20,A
9026,133953850,200106,2001,200241.0,29491229033032,A99M,N,Y,0.0,1.0,2000,3.0,1.0,1.0,3,994,0,0,0,0,0,0,0,0,0,1,0,1,0,0,0,0,1,0,0,0,0,0,1,0,0,N,N,N,N,N,N,N,N,N,N,N,N,N,N,N,N,N,N,N,0,0,0,0,0,0,0,0,0,0,0,0,0,0,0,0,0,0,0,0,0,0,0,0,0,0,0,0,0,0,0,0,0,0,0,0,0,0,0,0,0,0,0,0,0,0,0,0,0,0,0,0,0,0,0,0,0,0,0,0,0,0,0,0,0,0,0,10456.0,MAJESTIC HARMONY INC,% VERONICA CLARKE,630 E 170TH ST 3A,BRONX,NY,10456-2340,0.0,3.0,1.0,199805.0,1.0,15.0,994.0,119.0,0.0,1.0,11.0,200106.0,20.0,6,,36005.0,5602.0,5600.0,A19,A,A,IN,,1,AR,AR,AR,0.433041,N,PC,O,AR,A,NY,10456.0,BRONX,core2001pf_ver1,PF,O,AR,A,IN,,A99,A
9060,133967980,200112,2001,200237.0,29491180078032,A70Z,N,Y,0.0,1.0,2001,3.0,1.0,3.0,3,994,38990,0,0,0,0,0,0,0,6000,38990,36271,2719,36271,0,0,0,6634,0,0,0,0,0,6634,0,260,N,N,N,N,N,N,N,N,N,N,N,N,N,N,N,N,N,N,N,0,0,0,0,30271,0,30271,0,0,6634,0,0,6634,0,6634,0,0,0,0,0,0,0,0,0,0,5275,260,0,0,0,0,0,0,0,0,0,0,0,0,0,0,0,0,0,0,0,0,0,0,0,0,0,0,0,0,0,0,0,0,0,0,0,0,0,0,0,0,10021.0,LANDMARKS FOUNDATION PROTECTING SAC RED SITES GLOBALLY INC,,155 E 75TH ST,NEW YORK,NY,10021-3251,0.0,3.0,1.0,199712.0,1.0,15.0,994.0,119.0,0.0,1.0,13.0,200112.0,10.0,12,,36061.0,5602.0,5600.0,A70,A,A,IN,,1,AR,AR,AR,0.785287,N,PC,O,AR,A,NY,10021.0,NEW YORK,core2001pf_ver1,PF,O,AR,A,IN,,A70,A
9061,133968595,200112,2001,200228.0,29491159276082,A31,N,Y,0.0,1.0,2001,2.0,5.0,4.0,3,0,102000,1,0,0,0,0,0,0,0,102001,934,101067,0,1,0,1,544161,0,0,0,0,0,544161,0,627,N,Y,N,N,Y,N,N,N,N,N,N,N,N,N,N,N,N,N,N,0,0,1,1,934,0,0,0,0,16877,0,0,544161,0,544161,0,0,0,0,0,0,0,0,0,0,12736,0,1,736,1616,1258,3611,84400,90515,126430,155600,456945,1,0,0,0,1,0,0,0,0,0,418,1217,2949,2921,7505,0,0,0,0,0,0,0,0,0,0,0,0,0,0,0,10022.0,FOUNDATION FOR FILM PRESERVATION INC,% STARR & COMPANY LLC,350 PARK AVE,NEW YORK,NY,10022-6022,0.0,3.0,2.0,199906.0,1.0,3.0,0.0,0.0,0.0,1.0,11.0,0.0,1.0,12,SCORSESE MARTIN TTEE,36061.0,5602.0,5600.0,A31,A,A,IN,,1,AR,AR,AR,0.623474,N,PF,O,AR,A,NY,10022.0,NEW YORK,core2001pf_ver1,PF,O,AR,A,IN,,A31,A
9068,133970766,200203,2002,200238.0,29491229047002,A99Z,N,Y,0.0,1.0,2001,2.0,4.0,4.0,3,59,0,3414,1314,0,-15726,0,0,0,17775,2398,28538,-26140,23806,10211,102,0,357480,0,0,0,0,0,328615,0,0,N,Y,N,N,Y,N,N,N,N,N,N,N,N,N,N,N,N,N,N,13396,0,14711,0,10763,4500,6030,4500,0,1977,0,305031,328615,0,357480,102,0,0,0,0,0,0,0,102,0,322514,0,1,0,0,0,1,0,0,0,0,0,1,0,0,0,1,0,0,0,0,0,0,0,0,0,0,0,0,0,0,0,0,0,0,0,0,0,0,0,0,0,10128.0,NEW YORK CLASSICAL CLUB INC,% DAVID J MURPHY-NIGHTINGALE-BAM FO,20 E 92ND ST,NEW YORK,NY,10128-0608,0.0,3.0,1.0,199806.0,1.0,3.0,59.0,0.0,0.0,1.0,13.0,0.0,1.0,3,,36061.0,5602.0,5600.0,A99,A,A,IN,,1,AR,AR,AR,0.9637030000000001,N,PF,O,AR,A,NY,10128.0,NEW YORK,core2001pf_ver1,PF,O,AR,A,IN,,A99,A
9101,133977614,200109,2001,200244.0,29491271000122,A20,N,Y,0.0,1.0,2000,2.0,3.0,1.0,3,0,4513,189,0,0,0,0,0,0,0,4702,4875,-173,0,189,4,0,30710,0,0,0,0,0,30710,0,1515,N,N,N,N,Y,N,N,N,N,N,N,N,N,N,N,N,N,N,N,0,0,189,0,4875,0,0,0,0,12,0,0,30710,0,30710,4,0,0,0,0,0,0,0,4,0,30769,0,1,0,0,0,1,0,0,0,0,0,1,0,0,0,1,0,0,0,0,0,0,0,0,0,0,0,0,0,0,0,0,0,0,0,0,0,0,0,0,0,10013.0,JOHNNIE L COCHRAN JR ART FUND INC,% JOHNNIE L COCHRAN JR,99 HUDSON ST 8TH FL,NEW YORK,NY,10013-2815,0.0,3.0,1.0,199906.0,1.0,3.0,0.0,0.0,0.0,1.0,11.0,0.0,1.0,9,,36061.0,5602.0,5600.0,A20,A,A,IN,,1,AR,AR,AR,0.271454,N,PF,O,AR,A,NY,10013.0,NEW YORK,core2001pf_ver1,PF,O,AR,A,IN,,A12,A
9153,133981562,200111,2001,200223.0,29491124039092,A51Z,N,Y,0.0,1.0,2000,2.0,3.0,1.0,3,60,0,57,4389,0,0,0,0,0,1260,4446,32071,-27625,27625,4446,89,0,94745,0,14406,0,14406,0,97482,0,5700,N,N,N,N,Y,N,N,N,N,N,N,N,N,N,N,N,N,N,N,0,0,4446,4446,30811,0,26365,0,4446,80339,0,0,97482,0,94745,89,0,0,53,0,0,0,0,36,0,115728,0,0,0,0,694,694,27625,49612,19288,8500,105025,97482,133135,162533,98930,492080,0,0,0,0,0,3800,4686,4617,5381,18484,0,227592,77190,312100,616882,0,2276,772,3121,6169,0,7432,6719,1767,15918,10022.0,MICA FOUNDATION,% MORSE ZELNICK ROSE & LANDER LLP,450 PARK AVENUE SUITE 902,NEW YORK,NY,10022-2605,0.0,3.0,1.0,199811.0,1.0,3.0,60.0,0.0,0.0,1.0,11.0,0.0,1.0,11,,36061.0,5602.0,5600.0,A51,A,A,IN,,1,AR,AR,AR,0.8466530000000001,N,PF,O,AR,A,NY,10022.0,NEW YORK,core2001pf_ver1,PF,O,AR,A,IN,,A51,A
9209,133995881,200106,2001,200214.0,29491068043222,A20,N,Y,0.0,1.0,2000,3.0,6.0,5.0,3,0,324628,505,0,0,0,0,0,30000,0,553351,588995,-35644,360716,505,5,505,2920379,0,0,0,0,1197,2920379,0,935,N,Y,N,N,N,N,N,N,Y,N,N,N,N,N,N,N,N,N,N,228218,0,505,228723,588995,0,360716,0,228218,140,0,0,2920379,0,2919182,5,0,0,0,0,0,0,0,5,0,18988,930,0,0,0,0,0,0,0,0,0,0,0,0,0,0,0,0,0,0,0,0,0,0,0,0,0,0,0,0,0,0,0,0,0,0,0,0,0,0,0,0,10018.0,LUCILLE LORTEL THEATRE FOUNDATION INC,% HECHT AND COMPANY PC,111 W 40TH ST,NEW YORK,NY,10018-2506,0.0,3.0,1.0,199907.0,1.0,4.0,0.0,0.0,0.0,1.0,11.0,0.0,1.0,6,,36061.0,5602.0,5600.0,A20,A,A,IN,,1,AR,AR,AR,0.5578489999999999,N,PF,O,AR,A,NY,10018.0,NEW YORK,core2001pf_ver1,PF,S,AR,A,IN,,A65,A
9249,134008719,200112,2001,200239.0,29491250118202,A51Z,N,Y,0.0,1.0,2001,2.0,8.0,7.0,3,91,5470000,0,0,0,0,0,9650,0,3016170,5479650,4887816,591834,3870788,0,0,9650,36218035,0,0,0,0,1602823,36218035,0,10874,N,N,N,N,Y,N,N,N,N,N,N,N,N,N,N,N,N,N,N,0,0,0,9650,1871646,0,1848018,0,0,1450102,0,0,36218035,0,34615212,0,0,0,0,0,0,0,0,0,0,220789,0,9650,0,0,0,9650,9650,0,1425846,0,1435496,1,0,0,0,1,0,0,0,0,0,7249,2814,2457,0,12520,0,0,0,0,0,0,0,0,0,0,0,0,0,0,0,10019.0,DORIS DUKE FOUNDATION FOR ISLAMIC ART,% ALAN ALTSCHULER,650 FIFTH AVE 19TH FLOOR,NEW YORK,NY,10019-6108,0.0,3.0,1.0,199809.0,1.0,3.0,91.0,0.0,0.0,1.0,11.0,0.0,1.0,12,,36061.0,5602.0,5600.0,A51,A,A,IN,,1,AR,AR,AR,0.731596,N,PF,O,AR,A,NY,10019.0,NEW YORK,core2001pf_ver1,PF,O,AR,A,IN,,X40,X
9373,134036532,200108,2001,200211.0,29491054015162,A40,N,Y,0.0,1.0,2000,3.0,5.0,4.0,3,0,204438,0,26072,0,0,0,0,0,50475,230510,52982,177528,50475,23565,236,0,508359,0,236556,0,236556,0,487690,0,22847,N,Y,N,N,N,N,N,N,N,N,N,N,N,N,N,N,N,N,N,0,0,26072,0,2507,2507,0,2507,0,0,0,261392,487690,0,508359,236,0,0,0,0,0,0,0,236,0,463908,22611,0,0,0,0,0,0,0,0,0,0,0,0,0,0,0,0,0,0,0,0,0,0,0,0,0,0,0,0,0,0,0,0,0,0,0,0,0,0,0,0,10003.0,WOLF KAHN AND EMILY MASON FOUNDATION INC,% WOLF KAHN,240 E 15TH ST,NEW YORK,NY,10003-3961,0.0,3.0,1.0,200003.0,1.0,4.0,0.0,0.0,0.0,1.0,11.0,0.0,1.0,8,,36061.0,5602.0,5600.0,A40,A,A,IN,,1,AR,AR,AR,0.23812600000000003,N,PF,O,AR,A,NY,10003.0,NEW YORK,core2001pf_ver1,PF,S,AR,A,IN,,A40,A
9423,134047433,200012,2000,200220.0,29491117029242,A51,N,Y,0.0,1.0,2000,2.0,8.0,7.0,3,0,9760625,0,0,0,0,0,0,325000,0,9760625,1199487,8561138,1070776,0,0,0,26514529,0,10076875,0,10076875,18197016,26514529,0,19088,N,N,N,N,Y,Y,Y,N,N,N,N,N,N,N,N,N,N,N,N,0,0,0,0,119947,0,1070776,0,0,190203,0,0,26514529,0,8317513,0,0,0,0,0,0,0,0,0,0,535003,0,1,0,0,0,1,15292580,420798,0,0,15713378,1,0,0,0,1,0,0,0,0,0,12726,2071,0,0,14797,0,0,0,0,0,0,0,0,0,0,0,0,0,0,0,10153.0,NEUE GALERIE NEW YORK,% JACOB Z SCHUSTER,767 FIFTH AVE STE 4200,NEW YORK,NY,10153-0023,0.0,3.0,1.0,199912.0,1.0,3.0,0.0,0.0,0.0,1.0,75.0,0.0,1.0,12,,36061.0,5602.0,5600.0,A99,A,A,IN,,1,AR,AR,AR,0.192447,N,PF,O,AR,A,NY,10153.0,NEW YORK,core2001pf_ver1,PF,O,AR,A,IN,,A51,A
9451,134055562,200111,2001,200230.0,29491166043012,A20,N,Y,0.0,1.0,2000,3.0,1.0,1.0,3,0,5000,0,0,0,0,0,0,0,0,5000,4512,488,4512,0,0,0,1644,0,0,0,0,990,1644,0,115,N,Y,N,N,N,N,N,N,N,N,N,N,N,N,N,N,N,N,N,0,0,0,0,4512,0,4512,0,0,1644,0,0,1644,0,654,0,0,0,0,0,0,0,0,0,0,2331,115,0,0,0,0,0,0,0,0,0,0,0,0,0,0,0,0,0,0,0,0,0,0,0,0,0,0,0,0,0,0,0,0,0,0,0,0,0,0,0,0,10022.0,FASSBINDER FOUNDATION INC,% PRYOR CASHMAN SHERMAN & FLYNN LLP,410 PARK AVE FL 10,NEW YORK,NY,10022-4407,0.0,3.0,1.0,200006.0,1.0,4.0,0.0,0.0,0.0,1.0,75.0,0.0,1.0,11,,36061.0,5602.0,5600.0,A99,A,A,IN,,1,AR,AR,AR,0.690814,N,PF,O,AR,A,NY,10022.0,NEW YORK,core2001pf_ver1,PF,S,AR,A,IN,,A20,A
9494,134069969,200106,2001,200231.0,29491180105062,A20,N,Y,0.0,1.0,2000,2.0,9.0,9.0,3,0,60463621,11198,918864,53409571,0,0,0,0,0,114803254,2680821,112122433,794291,53399221,1067984,930062,156312659,0,0,0,0,17480000,156312659,0,792724,N,N,N,N,Y,N,N,N,N,N,N,N,N,N,N,N,N,N,N,0,0,53409571,930062,2680821,10350,794291,10350,0,47455,0,0,156312659,0,138832659,1067984,0,0,1100000,0,0,0,0,-32016,32016,16095913,0,792724,16633,0,0,809357,71444041,42419023,0,0,113863064,156312659,95284300,0,0,251596959,147159750,76510000,0,0,223669750,528483,11089,0,0,539572,0,0,0,0,0,0,0,0,0,0,0,0,0,0,0,10153.0,AMERICAN ART FOUNDATION INC,% MEREDITH EDWARDS,767 FIFTH AVE 40TH FL,NEW YORK,NY,10153-0023,0.0,3.0,2.0,199911.0,1.0,3.0,0.0,0.0,0.0,1.0,11.0,0.0,1.0,6,,36061.0,5602.0,5600.0,A20,A,A,IN,,1,AR,AR,AR,0.6069060000000001,N,PF,O,AR,A,NY,10153.0,NEW YORK,core2001pf_ver1,PF,O,AR,A,IN,,A12,A
9508,134073167,200112,2001,200219.0,29491103054072,A11,N,Y,0.0,1.0,2001,3.0,3.0,4.0,3,0,100101,0,1742,1737,0,0,0,0,96500,103580,100100,3480,96500,90912,909,0,38250,0,0,0,0,0,38250,0,2378,N,Y,N,N,N,N,N,N,N,N,N,N,N,N,N,N,N,N,N,0,0,90912,0,3600,0,0,0,0,0,0,0,38250,0,38250,909,0,0,1822,0,0,0,0,-913,913,48280,1469,0,0,0,0,0,0,0,0,0,0,0,0,0,0,0,0,0,0,0,0,0,0,0,0,0,0,0,0,0,0,0,0,0,0,0,0,0,0,0,0,10017.0,YOUNG FOUNDATION,% JOHN YOUNG,380 MADISON AVE 7TH FL,NEW YORK,NY,10017-2513,0.0,3.0,1.0,200002.0,1.0,4.0,0.0,0.0,0.0,2.0,11.0,0.0,1.0,12,YOUNG JOHN TTEE,36061.0,5602.0,5600.0,A11,A,A,IN,,1,AR,AR,AR,0.76076,N,PF,S,ZA,A,NY,10017.0,NEW YORK,core2001pf_ver1,PF,S,ZA,A,IN,,A11,A
9510,134074036,200112,2001,200239.0,29491201033242,A6C,N,Y,0.0,1.0,2001,2.0,2.0,3.0,3,0,80000,54,0,0,0,0,0,0,0,80054,77059,2995,77059,54,0,54,16128,0,0,0,0,0,16128,0,0,N,Y,N,N,Y,N,N,N,N,N,N,N,N,N,N,N,N,N,N,0,0,54,54,77059,0,72723,0,0,16128,0,0,16128,0,16128,0,0,0,0,0,0,0,0,0,0,0,0,54,64,18,0,136,77059,11771,10178,0,99008,16128,13133,14840,0,44101,0,0,0,0,0,485,335,451,0,1271,0,0,0,0,0,0,0,0,0,0,0,0,0,0,0,10007.0,A CHILDS VOICE INC,% ALBERT KALTER,225 BROADWAY STE 1806,NEW YORK,NY,10007-3001,0.0,3.0,2.0,199910.0,1.0,3.0,0.0,0.0,0.0,1.0,11.0,0.0,1.0,12,,36061.0,5602.0,5600.0,A6C,A,A,IN,,1,AR,AR,AR,0.946593,N,PF,O,AR,A,NY,10007.0,NEW YORK,core2001pf_ver1,PF,O,AR,A,IN,,A6C,A
9524,134077058,200112,2001,200233.0,29491187009012,A80,N,Y,0.0,1.0,2001,3.0,0.0,1.0,3,0,8802,0,0,0,0,0,0,0,0,8802,20357,-11555,0,634,13,0,-11555,0,0,0,0,0,185060,13,0,N,N,N,N,N,N,N,N,N,N,N,N,N,N,N,N,N,N,N,0,0,634,0,20357,0,0,0,0,185060,0,0,185060,0,-11555,13,0,0,0,0,0,0,0,13,0,0,13,0,0,0,0,0,0,0,0,0,0,0,0,0,0,0,0,0,0,0,0,0,0,0,0,0,0,0,0,0,0,0,0,0,0,0,0,0,0,0,0,10003.0,POLISH ARMY VETERANS ASSOCIATION OF AMERICA FOUNDATION INC,% KAZIMIERZ S RASIEJ,119 E 15TH ST,NEW YORK,NY,10003-2392,0.0,3.0,2.0,200003.0,1.0,4.0,0.0,0.0,0.0,1.0,11.0,0.0,1.0,12,,36061.0,5602.0,5600.0,A80,A,A,IN,,1,AR,AR,AR,0.33619899999999997,N,PF,O,AR,A,NY,10003.0,NEW YORK,core2001pf_ver1,PF,S,AR,A,IN,,W30,W
9541,134080444,200112,2001,200229.0,29491173069162,A11,N,Y,0.0,1.0,2001,2.0,4.0,0.0,3,0,0,0,0,0,0,0,0,0,0,0,9391,-9391,9865,0,0,0,152164,0,0,0,0,1875,152164,0,3864,N,N,N,N,Y,N,N,N,N,N,N,N,N,N,N,N,N,N,N,0,0,0,0,9391,0,9865,0,0,64142,0,0,152164,0,150289,0,0,0,0,0,0,0,0,0,0,78459,0,1,0,0,0,1,20540,86150,0,0,106690,1,0,0,0,1,0,0,0,0,0,2576,1887,0,0,4463,0,0,0,0,0,0,0,0,0,0,0,0,0,0,0,10022.0,PARNASSUSWORKS FOUNDATION,% RICHARD A RIFKIND,425 E 58TH ST,NEW YORK,NY,10022-2300,0.0,3.0,2.0,200001.0,1.0,3.0,0.0,0.0,0.0,2.0,11.0,0.0,1.0,12,,36061.0,5602.0,5600.0,A11,A,A,IN,,1,AR,AR,AR,0.80308,N,PF,S,ZA,A,NY,10022.0,NEW YORK,core2001pf_ver1,PF,S,ZA,A,IN,,A11,A
9705,134106981,200112,2001,200218.0,29491089010092,A80,N,Y,0.0,1.0,2001,3.0,4.0,1.0,3,0,0,0,8554,0,0,0,0,0,0,8554,27128,-18574,18439,8209,164,0,202097,0,0,0,0,0,202097,0,10411,N,N,N,N,N,N,N,N,N,N,N,N,N,N,N,N,N,N,N,0,0,8554,8554,27128,345,18439,345,8554,202097,0,0,202097,0,202097,164,0,0,135,0,0,0,0,29,0,211384,0,0,0,0,0,0,0,0,0,0,0,0,0,0,0,0,0,0,0,0,0,0,0,0,0,0,0,0,0,0,0,0,0,0,0,0,0,0,0,0,0,10022.0,BASEBALL ORAL HISTORY PROJECT FOUNDATION,% YOHALEM GILLMAN & CO LLP,477 MADISON AVE,NEW YORK,NY,10022-5802,0.0,3.0,2.0,200201.0,1.0,4.0,0.0,0.0,0.0,1.0,13.0,0.0,1.0,12,,36061.0,5602.0,5600.0,A80,A,A,IN,,1,AR,AR,AR,0.34876599999999996,C,PF,O,AR,A,NY,10022.0,NEW YORK,core2001pf_ver1,PF,S,AR,A,IN,,N63,N
9724,134115047,200103,2001,200211.0,29491061037012,A25,N,Y,0.0,1.0,2000,2.0,7.0,8.0,3,0,8811007,38569,24049,0,-198502,0,20122,0,0,8695245,90437,8604808,69926,89366,1787,62716,8604808,0,1316966,0,1316966,0,8432101,0,36762,N,N,N,N,Y,N,N,N,N,N,N,N,N,N,N,N,N,N,N,0,0,89366,82740,90437,0,69926,0,20024,0,0,0,8432101,0,8604808,1787,0,0,0,0,2000,0,0,-213,213,1285154,0,36762,0,0,0,36762,69926,0,0,0,69926,8432101,0,0,0,8432101,7242096,0,0,0,7242096,24508,0,0,0,24508,0,0,0,0,0,0,0,0,0,0,0,0,0,0,0,10022.0,SAUL STEINBERG FOUNDATION,% JOHN SILBERMAN ASSOCIATES,145 E 57TH ST,NEW YORK,NY,10022-2141,0.0,3.0,2.0,200006.0,1.0,3.0,0.0,0.0,0.0,1.0,75.0,0.0,1.0,3,,36061.0,5602.0,5600.0,A99,A,A,IN,,1,AR,AR,AR,0.648088,N,PF,O,AR,A,NY,10022.0,NEW YORK,core2001pf_ver1,PF,O,AR,A,IN,,A25,A
9793,134138655,200012,2000,200225.0,29491061013172,A20,N,Y,0.0,1.0,2000,2.0,1.0,1.0,3,0,0,0,0,0,0,0,0,0,0,1,0,1,0,0,0,0,1,0,0,0,0,0,1,0,0,N,N,N,N,Y,N,N,N,N,N,N,N,N,N,N,N,N,N,N,0,0,0,0,0,0,0,0,0,0,0,0,0,0,0,0,0,0,0,0,0,0,0,0,0,0,0,1,0,0,0,1,0,0,0,0,0,1,0,0,0,1,0,0,0,0,0,0,0,0,0,0,0,0,0,0,0,0,0,0,0,0,0,0,0,0,0,10153.0,COMMISSION FOR ART RECOVERY INC,% ANDREW L JAGODA,767 FIFTH AVE 46TH FLR,NEW YORK,NY,10153-0023,0.0,3.0,1.0,200102.0,1.0,3.0,0.0,0.0,0.0,1.0,75.0,0.0,1.0,12,,36061.0,5602.0,5600.0,A99,A,A,IN,,1,AR,AR,AR,0.920975,N,PF,O,AR,A,NY,10153.0,NEW YORK,core2001pf_ver1,PF,O,AR,A,IN,,A20,A
9868,134150082,200112,2001,200242.0,29491271041182,A50,N,Y,0.0,1.0,2001,3.0,7.0,7.0,3,0,6889554,5461,1593,0,-3222,0,787,0,0,6894173,3564,6890609,0,4277,86,4277,6890609,0,0,0,0,0,6925946,238868,238954,N,N,N,N,N,N,N,N,N,N,N,N,N,N,N,N,N,N,N,0,0,7841,7841,3564,3564,0,3564,3564,477195,0,909414,6925946,0,6890609,86,0,0,0,0,0,0,0,86,0,4851853,238868,0,0,0,0,0,0,0,0,0,0,0,0,0,0,0,0,0,0,0,0,0,0,0,0,0,0,0,0,0,0,0,0,0,0,0,0,0,0,0,0,10112.0,STONE BARNS RESTORATION CORP,% RICHARD N CATALDO,30 ROCKEFELLER PLZ STE 5600,NEW YORK,NY,10112-0002,0.0,3.0,1.0,200107.0,2.0,4.0,0.0,0.0,0.0,1.0,13.0,0.0,1.0,12,,36061.0,5602.0,5600.0,A99,A,A,IN,,1,AR,AR,AR,0.680858,N,PF,O,AR,A,NY,10112.0,NEW YORK,core2001pf_ver1,PF,S,AR,A,IN,,A50,A
9905,134165975,200108,2001,200212.0,29491061010142,A23,N,Y,0.0,1.0,2000,2.0,2.0,3.0,3,0,75931,0,0,0,0,0,0,26526,0,75931,66094,9837,60024,0,0,0,15837,0,0,0,0,6000,15837,0,174,N,N,N,N,Y,N,N,N,N,N,N,N,N,N,N,N,N,N,N,0,0,0,0,66094,0,60024,0,66094,11418,0,0,15837,0,9837,0,0,0,0,0,0,0,0,0,0,7919,0,1,0,0,0,1,60024,0,0,0,60024,15837,0,0,0,15837,15837,0,0,0,15837,0,0,0,0,0,75931,0,0,0,75931,75931,0,0,0,75931,0,0,0,0,0,10036.0,FRIENDS OF RINRI KENKYUSHO OF NEW YORK INC,% EMIKO AKUTAGAWA LINDSAY,25 W 43RD ST STE 1016,NEW YORK,NY,10036-7406,0.0,3.0,1.0,200112.0,1.0,3.0,0.0,0.0,0.0,1.0,13.0,0.0,1.0,8,RINRI TOMO-NO-KAI,36061.0,5602.0,5600.0,A99,A,A,IN,,1,AR,AR,AR,0.306896,N,PF,O,AR,A,NY,10036.0,NEW YORK,core2001pf_ver1,PF,O,AR,A,IN,,A1170,A
9923,134181214,200112,2001,200231.0,29491201091122,A25,N,Y,0.0,1.0,2001,3.0,5.0,6.0,3,0,1014985,0,3979,0,0,0,0,0,0,1018964,20857,998107,16740,0,0,0,998107,0,0,0,0,0,998107,0,13460,N,N,N,N,N,N,N,N,N,N,N,N,N,N,N,N,N,N,N,0,0,3979,0,20857,4117,16740,4117,0,4540,0,0,998107,0,998107,0,0,0,0,0,0,0,0,0,0,590254,13460,0,0,0,0,0,0,0,0,0,0,0,0,0,0,0,0,0,0,0,0,0,0,0,0,0,0,0,0,0,0,0,0,0,0,0,0,0,0,0,0,10016.0,MALEVICH SOCIETY,% LAWRENCE KAYE TRUSTEE,2 PARK AVE,NEW YORK,NY,10016-5675,0.0,3.0,2.0,200201.0,1.0,4.0,0.0,0.0,0.0,1.0,13.0,0.0,1.0,12,,36061.0,5602.0,5600.0,A25,A,A,IN,,1,AR,AR,AR,0.461509,C,PF,O,AR,A,NY,10016.0,NEW YORK,core2001pf_ver1,PF,S,AR,A,IN,,A25,A
9924,134182614,200112,2001,200229.0,29491173268052,A20,N,Y,0.0,1.0,2001,3.0,1.0,1.0,3,0,0,0,0,0,0,0,0,0,0,1,0,1,0,0,0,0,1,0,0,0,0,0,1,0,0,N,N,N,N,N,N,N,N,N,N,N,N,N,N,N,N,N,N,N,0,0,0,0,0,0,0,0,0,0,0,0,0,0,0,0,0,0,0,0,0,0,0,0,0,0,0,0,0,0,0,0,0,0,0,0,0,0,0,0,0,0,0,0,0,0,0,0,0,0,0,0,0,0,0,0,0,0,0,0,0,0,0,0,0,0,0,10017.0,HARRIET AND ESTEBAN VICENTE FOUNDATION,% ROBERT S WARSHAW,501 FIFTH AVE STE 1803,NEW YORK,NY,10017-6189,0.0,3.0,1.0,200111.0,1.0,4.0,0.0,0.0,0.0,1.0,13.0,0.0,1.0,12,,36061.0,5602.0,5600.0,A99,A,A,IN,,1,AR,AR,AR,0.742582,N,PF,O,AR,A,NY,10017.0,NEW YORK,core2001pf_ver1,PF,S,AR,A,IN,,A20,A
10974,136149781,200108,2001,200208.0,29491026022112,A60Z,N,Y,0.0,1.0,2000,2.0,6.0,4.0,3,90,200,18541,297240,120898,0,0,29640,0,171540,484240,411615,72625,231529,446064,8921,331752,4331807,0,3771059,165312,3936371,8921,4304734,0,202318,N,N,N,N,Y,N,N,N,N,N,N,N,N,N,N,N,N,N,N,17721,0,454400,333502,240075,8336,229989,8336,1750,21864,181387,9269,4304734,0,4322886,8921,0,0,0,0,0,0,484,9405,0,4107976,0,202318,194381,197197,215916,809812,231529,268150,244092,230154,973925,1,0,0,0,1,0,0,0,0,0,134879,129587,131465,143944,539875,0,0,0,0,0,0,0,0,0,0,0,0,0,0,0,10016.0,PERFORMING ARTS FOUNDATION INC,% SPITZ & EDELSTEIN CPAS,21 E 40TH ST RM 1006,NEW YORK,NY,10016-0570,0.0,3.0,1.0,196411.0,1.0,3.0,90.0,0.0,0.0,1.0,13.0,0.0,1.0,8,,36061.0,5602.0,5600.0,A60,A,A,IN,,1,AR,AR,AR,0.271462,N,PF,O,AR,A,NY,10016.0,NEW YORK,core2001pf_ver1,PF,O,AR,A,IN,,A1260,A
11548,136227356,200012,2000,200203.0,29491307092081,,N,Y,0.0,1.0,2000,3.0,4.0,3.0,3,119,6957,0,10734,0,0,0,22915,0,3520,40606,24042,16564,12248,9765,195,22915,158483,0,0,0,0,0,158483,0,7549,N,N,N,N,N,N,N,N,N,N,N,N,N,N,N,N,N,N,N,0,0,10734,22915,20522,969,8728,969,0,0,0,141195,158483,0,158483,195,0,0,0,0,0,0,0,195,0,153279,7354,0,0,0,0,0,0,0,0,0,0,0,0,0,0,0,0,0,0,0,0,0,0,0,0,0,0,0,0,0,0,0,0,0,0,0,0,0,0,0,0,10022.0,DANCE PERSPECTIVES FOUNDATION INC,,433 E 51ST 8D,NEW YORK,NY,10022-6472,0.0,3.0,1.0,196709.0,1.0,4.0,119.0,40.0,59.0,1.0,13.0,0.0,1.0,12,,36061.0,5602.0,5600.0,A62,A,A,IN,,1,AR,AR,AR,0.504074,C,PF,O,AR,A,NY,10022.0,NEW YORK,core2001pf_ver1,PF,S,AR,A,IN,,A62,A
12032,137061011,200106,2001,200223.0,29491117027102,A50I,N,Y,0.0,1.0,2000,2.0,4.0,3.0,3,60,69000,0,0,0,0,0,0,0,1000,69000,2221,66779,1085,0,0,0,242377,0,0,0,0,0,264570,0,10245,N,N,N,N,Y,N,N,Y,N,N,N,N,N,N,N,N,N,N,N,0,0,0,0,1221,400,85,0,1221,1750,0,0,264570,0,242377,0,0,0,0,0,0,0,0,0,0,208022,0,1,0,0,0,1,60474,68401,69238,21670,219783,264571,197794,144725,64593,671683,264571,197794,144725,64593,671683,6830,5556,3689,2272,18347,69000,70400,71000,52210,262610,69000,70400,71000,52210,262610,0,0,0,0,0,10016.0,WEISS MEMORIAL FOUNDATION TR,% JACKSON & NASH LLP,440 PARK AVE,NEW YORK,NY,10016-8012,0.0,3.0,1.0,199701.0,1.0,3.0,60.0,0.0,0.0,2.0,13.0,0.0,1.0,6,WEISS HERBERT TTEE,36061.0,5602.0,5600.0,A11,A,A,IN,,1,AR,AR,AR,0.436204,N,PF,S,ZA,A,NY,10016.0,NEW YORK,core2001pf_ver1,PF,S,ZA,A,IN,,A50,A
12087,137091348,200112,2001,200235.0,29491166084172,A76Z,N,Y,0.0,1.0,2001,3.0,3.0,1.0,3,92,0,3313,0,0,0,0,0,0,0,3313,43374,-40061,4232820,3313,33,0,74403,0,0,0,0,0,74403,0,4636,N,Y,N,N,N,N,N,N,N,N,N,N,N,N,N,N,N,N,N,0,0,3313,0,43374,0,42328,0,0,0,0,0,74403,0,74403,33,0,0,0,0,0,0,0,33,0,94157,4603,0,0,0,0,0,0,0,0,0,0,0,0,0,0,0,0,0,0,0,0,0,0,0,0,0,0,0,0,0,0,0,0,0,0,0,0,0,0,0,0,10028.0,LEO BRONSTEIN TRUST UW ELEANOR L WOLFF,% KATHRYN K SOMAN,147 E 82ND ST RM 3G,NEW YORK,NY,10028-1859,0.0,3.0,3.0,199701.0,1.0,4.0,92.0,119.0,602.0,2.0,13.0,0.0,1.0,12,,36061.0,5602.0,5600.0,A70,A,A,IN,,1,AR,AR,AR,0.0037075000000000003,N,PF,O,AR,A,NY,10028.0,NEW YORK,core2001pf_ver1,PF,S,AR,A,IN,,T22,T
12115,137100859,200205,2002,200248.0,29491313013072,A99Z,N,Y,0.0,1.0,2001,3.0,6.0,6.0,3,602,0,506,184350,1830906,0,0,0,0,1855814,2015762,1885276,130486,1855814,2015762,20158,0,1140882,0,767099,0,767099,0,17530969,0,884767,N,Y,N,N,N,N,N,N,N,N,N,N,N,N,N,N,N,N,N,0,0,2015762,0,29462,0,0,0,0,373783,0,0,17530969,0,1140882,20158,0,0,14000,0,0,0,0,6158,0,17964802,864609,0,0,0,0,0,0,0,0,0,0,0,0,0,0,0,0,0,0,0,0,0,0,0,0,0,0,0,0,0,0,0,0,0,0,0,0,0,0,0,0,10167.0,THE JAMES E AND PATRICIA D CAYNE CHARITABLE TRUST,% JAMES E CAYNE BEAR STEARNS & CO,245 PARK AVE 9TH FL,NEW YORK,NY,10167-0002,0.0,3.0,1.0,199704.0,1.0,4.0,602.0,0.0,0.0,2.0,13.0,0.0,1.0,5,,36061.0,5602.0,5600.0,A99,A,A,IN,,1,AR,AR,AR,0.5914159999999999,N,PF,O,AR,A,NY,10167.0,NEW YORK,core2001pf_ver1,PF,S,AR,A,IN,,T22,T
12116,137101223,200112,2001,200246.0,29491292076022,A45Z,N,Y,0.0,1.0,2001,2.0,6.0,5.0,3,91,635126,160,0,5173,0,0,0,0,0,640459,67237,573222,12003,0,0,0,2924800,0,0,0,0,16964,4565389,0,2985,N,N,N,N,Y,N,N,N,N,N,N,N,N,N,N,N,N,N,N,0,0,5333,160,67237,5521,12003,5521,67237,65389,0,2859411,4565389,0,2907836,0,0,0,20,0,0,0,0,-20,20,60599,0,1,0,0,283,283,12003,0,0,0,12003,1,0,0,0,1,0,0,0,0,0,0,0,0,0,0,0,0,0,0,0,0,0,0,0,0,0,0,0,0,0,10012.0,KIKI KOGELNIK FOUNDATION,% STEPHEN KILDUNNE,330 LAFAYETTE ST 7,NEW YORK,NY,10012-2739,0.0,3.0,2.0,199705.0,1.0,3.0,91.0,0.0,0.0,2.0,13.0,0.0,1.0,12,,36061.0,5602.0,5600.0,A40,A,A,IN,,1,AR,AR,AR,0.7122390000000001,N,PF,O,AR,A,NY,10012.0,NEW YORK,core2001pf_ver1,PF,O,AR,A,IN,,A40,A
12266,137147740,200112,2001,200231.0,29491201068102,A51Z,N,Y,0.0,1.0,2001,2.0,7.0,3.0,3,91,0,0,0,0,0,48750,85,0,500,48835,48083,752,17427,0,0,18179,8391800,0,0,0,0,39673,8391800,0,6245,N,N,N,N,Y,N,N,N,N,N,N,N,N,N,N,N,N,N,N,0,26250,0,48835,47583,0,16927,0,30656,171475,0,0,8391800,0,8352127,0,0,0,0,0,0,0,0,0,0,126806,0,6245,1112,197,0,7554,17427,63871,227997,0,309295,8391800,8356271,8290798,8369045,33407914,0,0,0,0,0,4163,741,131,0,5035,0,0,0,0,0,0,0,0,0,0,0,0,0,0,0,10003.0,LEON POLK SMITH FOUNDATION TR,% ROBERT MEAD JAMIESON,31 UNION SQUARE WEST,NEW YORK,NY,10003-3203,0.0,3.0,1.0,199807.0,1.0,3.0,91.0,0.0,0.0,2.0,11.0,0.0,1.0,12,MARSH GORDON ET AL TTEE,36061.0,5602.0,5600.0,A51,A,A,IN,,1,AR,AR,AR,0.885026,N,PF,O,AR,A,NY,10003.0,NEW YORK,core2001pf_ver1,PF,O,AR,A,IN,,A51,A
14572,222809914,200112,2001,200248.0,29491215036052,A68Z,N,Y,0.0,1.0,2001,3.0,4.0,1.0,3,90,0,7444,41,0,0,0,0,0,6750,7485,38695,-31210,38230,7420,148,0,269544,0,0,0,0,0,190825,0,10651,N,N,N,N,N,N,N,N,N,N,N,N,N,N,N,N,N,N,N,0,0,7485,0,31945,65,31480,65,0,0,0,115654,190825,0,269544,148,0,0,0,0,0,0,0,148,0,216270,10503,0,0,0,0,0,0,0,0,0,0,0,0,0,0,0,0,0,0,0,0,0,0,0,0,0,0,0,0,0,0,0,0,0,0,0,0,0,0,0,0,10021.0,MUSIC AND MORE INC,% GANER,555 PARK AVE APT 8W,NEW YORK,NY,10021-8166,0.0,3.0,1.0,198708.0,1.0,15.0,90.0,0.0,0.0,1.0,13.0,0.0,10.0,12,,36061.0,5602.0,5600.0,A68,A,A,IN,,1,AR,AR,AR,0.848434,N,PC,O,AR,A,NY,10021.0,NEW YORK,core2001pf_ver1,PF,O,AR,A,IN,,A68,A
14866,223047700,200012,2000,200222.0,29491117042012,,N,Y,0.0,25.0,2000,3.0,6.0,5.0,3,59,221035,626,30229,27753,0,0,0,0,15000,279643,294132,-14489,224100,53929,539,0,1070732,211680,0,0,211680,49539,1070732,0,51149,N,Y,N,N,N,N,N,N,N,N,N,N,N,N,N,N,Y,N,N,0,0,58608,0,279132,4679,209100,4679,0,0,0,724087,1070732,0,1021193,539,0,0,0,0,0,0,0,539,0,1038549,50610,0,0,0,0,0,0,0,0,0,0,0,0,0,0,0,0,0,0,0,0,0,0,0,0,0,0,0,0,0,0,0,0,0,0,0,0,0,0,0,0,10016.0,NEW YORK FOUNDATION FOR ARCHITECTURE INC,,200 LEXINGTON AVE,NEW YORK,NY,10016-6201,0.0,3.0,1.0,196703.0,1.0,4.0,59.0,0.0,0.0,1.0,13.0,0.0,1.0,12,,36061.0,5602.0,5600.0,A40,A,A,IN,,1,AR,AR,AR,0.9663360000000001,N,PF,O,AR,A,NY,10016.0,NEW YORK,core2001pf_ver1,PF,S,AR,A,IN,,A40,A
15837,223668584,200106,2001,200205.0,29491005010242,A54,N,Y,0.0,1.0,2000,2.0,6.0,4.0,3,0,325000,0,0,0,0,0,0,0,800,325000,237773,87227,212133,0,0,0,1738967,0,0,0,0,0,1778491,0,82378,N,N,N,N,Y,N,N,N,N,N,N,N,N,N,N,N,N,N,N,0,0,0,0,236973,0,211333,0,25640,115758,0,0,1778491,0,1738967,0,0,0,0,0,0,0,0,0,0,1672643,0,1,0,0,0,1,212133,322730,0,0,534863,1721991,1665624,0,0,3387615,1721991,1665624,0,0,3387615,0,0,0,0,0,0,0,0,0,0,0,0,0,0,0,0,0,0,0,0,10001.0,CWJ CLASSIC AUTOMOBILE MUSEUM INC,% ALFRED C ECKERT III,358 FIFTH AVE 9TH FLR,NEW YORK,NY,10001-2209,0.0,3.0,1.0,200009.0,1.0,3.0,0.0,0.0,0.0,1.0,13.0,0.0,1.0,6,,36061.0,5602.0,5600.0,A99,A,A,IN,,1,AR,AR,AR,0.37727,N,PF,O,AR,A,NY,10001.0,NEW YORK,core2001pf_ver1,PF,O,AR,A,IN,,A50,A
22866,311584853,200012,2000,200203.0,29491265031061,A82Z,N,Y,0.0,1.0,2000,2.0,4.0,1.0,3,62,1000,121,0,0,0,0,0,0,0,1121,2325,-1204,0,0,0,0,402492,0,0,0,0,446675,402492,0,0,N,N,N,N,Y,N,N,N,N,N,N,N,N,N,N,N,N,N,N,0,0,121,121,2325,2325,0,2325,2325,0,0,0,402492,400000,-44183,0,0,0,0,0,0,0,0,0,0,0,0,1,0,0,0,1,0,0,0,0,0,1,0,0,0,1,0,0,0,0,0,0,0,0,0,0,0,0,0,0,0,0,0,0,0,0,0,0,0,0,0,10021.0,PRESERVATION AMERICA,% MARILYN MEYERS,907 5TH AVE APT 2A,NEW YORK,NY,10021-4156,0.0,3.0,2.0,199802.0,1.0,3.0,62.0,0.0,0.0,2.0,13.0,0.0,1.0,12,,36061.0,5602.0,5600.0,A80,A,A,IN,,1,AR,AR,AR,0.698762,N,PF,O,AR,A,NY,10021.0,NEW YORK,core2001pf_ver1,PF,O,AR,A,IN,,A82,A
22924,311599286,200110,2001,200218.0,29491089011142,A51,N,Y,0.0,1.0,2000,2.0,1.0,2.0,3,998,11282,33,0,0,0,0,0,0,0,11315,8715,2600,0,33,0,33,2600,0,0,0,0,0,2600,0,0,N,N,N,N,Y,N,N,N,N,N,N,N,N,N,N,N,N,N,N,0,0,33,33,8715,0,0,0,0,2600,0,0,2600,0,2600,0,0,0,0,0,0,0,0,0,0,0,0,1,0,0,0,1,0,0,0,0,0,1,0,0,0,1,0,0,0,0,0,0,0,0,0,0,0,0,0,0,0,0,0,0,0,0,0,0,0,0,0,10013.0,SASSON SOFFER FOUNDATION INC,% SASSON SOFFER,78 GRAND ST,NEW YORK,NY,10013-2255,0.0,3.0,1.0,199903.0,1.0,3.0,998.0,0.0,0.0,1.0,11.0,0.0,1.0,10,,36061.0,5602.0,5600.0,A51,A,A,IN,,1,AR,AR,AR,0.514929,N,PF,O,AR,A,NY,10013.0,NEW YORK,core2001pf_ver1,PF,O,AR,A,IN,,A51,A
56863,770415802,200012,2000,200203.0,29491356046071,A99Z,N,Y,0.0,1.0,2000,2.0,7.0,7.0,3,124,7498161,159495,0,0,0,0,35793,55000,1440000,7693449,2014070,5679379,1897410,158495,3170,195288,9466720,0,0,0,0,1242561,9466720,0,96934,N,N,N,N,Y,N,N,N,N,N,N,N,N,N,N,N,Y,N,N,0,0,159495,195288,574070,1000,570808,1000,0,1872108,0,89465,9466720,0,8224159,3170,0,0,3238,0,0,0,41,-27,27,1968197,0,96934,147496,109254,79056,432740,1897410,1733482,1061808,1558792,6251492,9466720,3782880,5427082,6383247,25059929,9466720,3782880,5427082,6383247,25059929,64623,151197,193508,211185,620513,0,0,0,0,0,0,0,0,0,0,0,0,0,0,0,10003.0,NATIONAL ACADEMY OF EDUCATION,% NEW YORK UNIVERSITY SCHOOL OF ED,726 BROADWAY 5TH FLOOR,NEW YORK,NY,10003-9502,0.0,3.0,1.0,199606.0,1.0,3.0,124.0,0.0,0.0,1.0,13.0,0.0,1.0,12,,36061.0,5602.0,5600.0,A99,A,A,IN,,1,AR,AR,AR,0.127865,N,PF,O,AR,A,NY,10003.0,NEW YORK,core2001pf_ver1,PF,O,AR,A,IN,,A99,A
60832,911898350,200012,2000,200203.0,29491005073102,T99Z,N,Y,0.0,1.0,2000,2.0,7.0,7.0,3,124,8021750,0,0,0,0,0,0,210000,0,8021750,434601,7587149,430917,0,0,0,7605330,0,0,0,0,4690,17250580,0,950,N,Y,N,N,Y,N,N,N,N,Y,N,N,N,N,N,N,N,N,N,0,0,0,0,434601,0,430917,0,0,16752,0,0,17250580,0,7600640,0,0,0,0,0,0,0,0,0,0,19295,0,1,0,0,0,1,430917,178442,45973,0,655332,1,0,0,0,1,0,0,0,0,0,633,1460,439,0,2532,0,0,0,0,0,0,0,0,0,0,0,0,0,0,0,10014.0,ROY LICHTENSTEIN FOUNDATION,% DOROTHY LICHTENSTEIN,745 WASHINGTON ST,NEW YORK,NY,10014-2042,0.0,3.0,1.0,199809.0,1.0,3.0,124.0,0.0,0.0,1.0,11.0,0.0,1.0,12,,36061.0,5602.0,5600.0,T23,A,A,IN,,1,AR,AR,AR,0.154201,N,PF,O,ZC,A,NY,10014.0,NEW YORK,core2001pf_ver1,PF,O,AR,A,IN,,T23,T
66868,10548602,200209,2002,,2,A51,-,,,,2001,,,,3,0,721101,0,12004,0,0,0,0,0,0,733105,9445,723660,0,12004,0,12004,723660,0,0,0,0,0,723660,0,35414,N,N,N,N,Y,N,N,N,N,N,N,N,N,N,N,N,N,N,N,0,0,12004,12004,9445,0,0,0,0,688660,0,0,723660,0,723660,240,0,0,0,0,0,0,0,0,240,719059,0,12004,0,0,0,12004,35000,0,0,0,35000,1,0,0,0,1,0,0,0,0,0,23609,0,0,0,23609,0,0,0,0,0,0,0,0,0,0,0,0,0,0,0,10118.0,PETER AND CYNTHIA WILSON ART FOUNDATION INC,L WOLLIN,350 FIFTH AVE STE 2822,NEW YORK,NY,10118-2896,0.0,3.0,2.0,200207.0,1.0,3.0,0.0,0.0,0.0,1.0,13.0,0.0,1.0,9,,36061,5602.0,5600.0,A51,A,A,IN,,1,AR,AR,AR,0.8570540000000001,C,PF,O,AR,A,NY,10118.0,NEW YORK,core2002pf,PF,O,AR,A,IN,,A51,A
67101,113630680,200206,2002,,2,A51,-,,,,2001,,,,3,0,1352870,0,415,15245,0,0,210,12206,0,1368740,178061,1190679,118457,15660,0,0,1203236,0,1060650,0,1060650,12557,1203236,0,48775,N,N,N,N,Y,N,N,N,N,N,N,N,Y,N,N,N,N,N,N,0,0,15660,5698,178061,0,118457,0,59604,167,0,0,1203236,0,1190679,313,0,0,0,0,0,0,0,0,313,1343805,0,1,0,0,0,1,118457,0,0,0,118457,1,0,0,0,1,0,0,0,0,0,0,0,0,0,0,0,0,0,0,0,0,0,0,0,0,0,0,0,0,0,11101.0,DORSKY GALLERY CURATORIAL PROGRAMS,DAVID DORSKY,11 03 45TH AVE,LONG IS CITY,NY,11101-5109,0.0,3.0,1.0,200204.0,1.0,3.0,0.0,0.0,0.0,1.0,11.0,0.0,1.0,6,,36081,5602.0,5600.0,A51,A,A,IN,,1,AR,AR,AR,0.435904,C,PF,O,AR,A,NY,11101.0,LONG IS CITY,core2002pf,PF,O,AR,A,IN,,A50,A
67149,133442953,200112,2001,,2,,-,,,,2001,,,,3,121,0,39,0,0,0,0,0,0,0,39,1236,-1197,0,39,0,39,6529,0,0,0,0,1220,6471,0,0,N,N,N,N,N,N,N,N,N,N,N,Y,N,N,N,N,N,N,N,0,0,39,39,1236,0,0,0,0,4145,0,0,6471,0,5309,1,0,0,0,0,1,0,0,0,1,0,0,0,0,0,0,0,0,0,0,0,0,0,0,0,0,0,0,0,0,0,0,0,0,0,0,0,0,0,0,0,0,0,0,0,0,0,0,0,0,0,0,10024.0,VIDEO INFORMATION NETWORK,,257 W 86TH ST APT 5A,NEW YORK,NY,10024-3105,0.0,3.0,1.0,198802.0,1.0,4.0,121.0,0.0,0.0,1.0,13.0,0.0,1.0,12,,36061,5602.0,5600.0,A31,A,A,IN,,1,AR,AR,AR,0.356178,N,PF,O,AR,A,NY,10024.0,NEW YORK,core2002pf,PF,S,AR,A,IN,,A31,A
67177,133795843,200209,2002,,2,A51Z,-,,,,2001,,,,3,559,17718,840,17256,25918,0,0,40324,0,23000,102056,27152,74904,23000,84338,0,58420,570287,0,32228,0,32228,0,711730,0,18899,N,N,N,N,Y,N,N,N,N,N,N,N,N,N,N,N,N,N,N,0,0,84338,58420,4152,0,0,0,0,7446,0,289999,472679,0,570287,1687,0,0,0,0,0,0,0,0,1687,383735,0,18899,0,0,0,18899,0,0,0,0,0,18899,0,0,0,18899,0,0,0,0,0,0,0,0,0,0,0,0,0,0,0,0,0,0,0,0,0,0,0,0,0,10118.0,DEANE & SUSAN PENN ART FOUNDATION INC,L WOLLIN,350 FIFTH AVE STE 2822,NEW YORK,NY,10118-2899,0.0,3.0,1.0,199507.0,1.0,3.0,559.0,0.0,0.0,1.0,13.0,0.0,1.0,9,,36061,5602.0,5600.0,A51,A,A,IN,,1,AR,AR,AR,0.367528,N,PF,O,AR,A,NY,10118.0,NEW YORK,core2002pf,PF,O,AR,A,IN,,A12,A
67189,133888511,200203,2002,,2,A20Z,-,,,,2001,,,,3,119,286000,112,0,0,0,0,0,0,100000,286112,245016,41096,100000,112,0,0,593982,0,0,0,0,6000,593982,0,4725,N,N,N,N,N,N,N,N,N,N,N,N,N,N,N,N,N,N,N,0,0,112,0,145016,0,0,0,0,0,0,0,593982,0,587982,2,0,0,0,0,0,0,0,0,2,95936,4723,0,0,0,0,0,0,0,0,0,0,0,0,0,0,0,0,0,0,0,0,0,0,0,0,0,0,0,0,0,0,0,0,0,0,0,0,0,0,0,0,10017.0,INTERNATIONAL FOUNDATION FOR ARTS & CULTURE INC,TOSHU FUKAMI,100 UNITED NATIONS PLZ AP,NEW YORK,NY,10017-1728,0.0,3.0,2.0,199610.0,1.0,4.0,119.0,0.0,0.0,1.0,13.0,0.0,1.0,3,,36061,5602.0,5600.0,A20,A,A,IN,,1,AR,AR,AR,0.29543600000000003,N,PF,O,AR,A,NY,10017.0,NEW YORK,core2002pf,PF,S,AR,A,IN,,A1220,A
67219,134070709,200112,2001,,2,A40,-,,,,2001,,,,3,0,20000,0,0,0,0,0,0,0,0,20000,23904,-3904,0,0,0,0,7990,0,0,0,0,0,7990,0,33,N,N,N,N,Y,N,N,N,N,N,N,N,N,N,N,N,N,N,N,0,0,0,0,23904,0,0,0,23904,7990,0,0,7990,0,7990,0,0,0,0,0,0,0,0,0,0,665,0,1,11894,0,0,11895,23904,89706,0,0,113610,7990,11894,0,0,19884,7990,11894,0,0,19884,0,0,0,0,0,0,0,0,0,0,0,0,0,0,0,0,0,0,0,0,10007.0,ART IN NATURE NEW YORK 2000 INC,KATE CARMEL,83 MURRAY ST,NEW YORK,NY,10007-2173,0.0,3.0,1.0,200011.0,1.0,3.0,0.0,0.0,0.0,1.0,13.0,0.0,1.0,12,,36061,5602.0,5600.0,A99,A,A,IN,,1,AR,AR,AR,0.5937899999999999,N,PF,O,AR,A,NY,10007.0,NEW YORK,core2002pf,PF,O,AR,A,IN,,A40,A
67234,134101047,200112,2001,,2,A31,-,,,,2001,,,,3,0,0,0,0,0,0,0,0,34500,0,0,95671,-95671,0,0,0,0,32428,0,0,0,0,0,32428,0,3953,N,N,N,N,Y,N,N,N,N,N,N,N,N,N,N,N,N,N,N,0,0,0,0,95671,0,0,0,0,7033,0,0,32428,0,32428,0,0,0,0,0,0,0,0,0,0,80264,0,-95593,128099,0,0,32506,0,0,0,0,0,32428,128099,0,0,160527,0,0,0,0,0,2635,0,0,0,2635,0,188532,0,0,188532,0,0,0,0,0,146,7895,0,0,8041,10017.0,EXEMPLARY FILMS INC,BERDON LLP,360 MADISON AVE,NEW YORK,NY,10017-7111,0.0,3.0,1.0,200208.0,1.0,3.0,0.0,0.0,0.0,1.0,13.0,0.0,1.0,12,,36061,5602.0,5600.0,A31,A,A,IN,,1,AR,AR,AR,0.815499,C,PF,O,AR,A,NY,10017.0,NEW YORK,core2002pf,PF,O,AR,A,IN,,A31,A
67235,134105372,200112,2001,,2,A65,-,,,,2001,,,,3,0,11660,0,0,0,0,0,2234,0,0,13894,9790,4104,9790,0,0,2234,3955,0,0,0,0,0,3955,0,286,N,N,N,N,Y,N,N,N,N,N,N,N,N,N,N,N,N,N,N,0,0,0,2234,9790,0,9790,0,0,3955,0,0,3955,0,3955,0,0,0,0,0,0,0,0,0,0,5805,0,286,53,0,0,339,9790,16901,0,0,26691,1,0,0,0,1,0,0,0,0,0,191,35,0,0,226,0,0,0,0,0,0,0,0,0,0,0,0,0,0,0,10036.0,AMERICAN STUDIO THEATER INC,US TRUST COMPANY OF NEW YORK,114 W 47TH ST TAXRGR,NEW YORK,NY,10036-1510,0.0,3.0,2.0,200205.0,1.0,3.0,0.0,0.0,0.0,1.0,13.0,0.0,1.0,12,,36061,5602.0,5600.0,A65,A,A,IN,,1,AR,AR,AR,0.604097,C,PF,O,AR,A,NY,10036.0,NEW YORK,core2002pf,PF,O,AR,A,IN,,A6E,A
67245,134145549,200112,2001,,2,A12,-,,,,2001,,,,3,0,138770,74,0,0,0,0,0,0,77466,138844,79750,59094,77466,74,0,0,59094,0,48750,0,48750,0,59094,0,611,N,N,N,N,N,N,N,N,N,N,N,N,N,N,N,N,N,N,N,0,0,74,0,2284,0,0,0,0,10344,0,0,59094,0,59094,0,0,0,0,0,0,0,0,0,0,12411,611,0,0,0,0,0,0,0,0,0,0,0,0,0,0,0,0,0,0,0,0,0,0,0,0,0,0,0,0,0,0,0,0,0,0,0,0,0,0,0,0,10021.0,JOHN ROSSELLI FOUNDATION,KUPPERSMITH MOTTEL & CO LLP,523 E 73RD ST,NEW YORK,NY,10021-4003,0.0,3.0,1.0,200112.0,1.0,15.0,0.0,0.0,0.0,1.0,13.0,200412.0,10.0,12,,36061,5602.0,5600.0,A99,A,A,IN,,1,AR,AR,AR,0.755155,N,PC,O,AR,A,NY,10021.0,NEW YORK,core2002pf,PF,O,AR,A,IN,,A12,A
67250,134156715,200112,2001,,2,A12,-,,,,2001,,,,3,0,1338258,64,26497,0,0,0,0,0,1050000,1364819,1062387,302432,1050000,22998,0,0,302432,0,0,0,0,0,302432,0,35184,N,N,N,N,N,N,N,N,N,N,N,N,N,N,N,N,N,N,N,0,0,26561,0,12387,3563,0,3563,0,302432,0,0,302432,0,302432,460,0,0,0,0,0,3479,0,0,460,714387,34724,0,0,0,0,0,0,0,0,0,0,0,0,0,0,0,0,0,0,0,0,0,0,0,0,0,0,0,0,0,0,0,0,0,0,0,0,0,0,0,0,10165.0,INDIAN DIAMOND & JEWELRY CHARITABLE FUND OF NY INC,NORMAN J TANNENBAUM,60 E 42ND ST STE 2536,NEW YORK,NY,10165-2599,0.0,3.0,1.0,200107.0,1.0,4.0,0.0,0.0,0.0,1.0,13.0,0.0,1.0,12,,36061,5602.0,5600.0,A99,A,A,IN,,1,AR,AR,AR,0.445387,N,PF,O,AR,A,NY,10165.0,NEW YORK,core2002pf,PF,S,AR,A,IN,,A23,A
67283,136019220,200109,2001,,2,A70,-,,,,2000,,,,3,119,395263,17506,0,0,0,0,86479,66652,0,499248,488575,10673,394879,9978,0,15478,3443151,0,0,0,0,9007,3473851,0,168555,N,N,N,N,N,N,N,N,N,N,N,N,N,N,N,N,N,N,N,0,0,17506,103985,488575,7528,394879,7528,88507,49992,0,0,3473851,0,3434144,200,0,0,0,0,0,0,0,0,200,3422441,0,0,0,0,0,0,0,0,0,0,0,0,0,0,0,0,0,0,0,0,0,0,0,0,0,0,0,0,0,0,0,0,0,0,0,0,0,0,0,0,0,10003.0,POETRY SOCIETY OF AMERICA,,15 GRAMERCY PARK,NEW YORK,NY,10003-1705,0.0,3.0,1.0,193705.0,1.0,15.0,119.0,0.0,0.0,5.0,13.0,0.0,10.0,9,,36061,5602.0,5600.0,A70,A,A,IN,,1,AR,AR,AR,0.379312,N,PC,O,AR,A,NY,10003.0,NEW YORK,core2002pf,PF,O,AR,A,IN,,A0370,A
67330,137102174,200209,2002,,2,A51Z,-,,,,2001,,,,3,326,0,6767,100115,-206457,0,0,0,49589,101400,-99575,155979,-255554,130185,80104,0,0,3076119,0,1790722,0,1790722,0,2977422,136915,161786,N,N,N,N,N,N,N,N,Y,N,N,N,N,N,N,N,N,N,N,0,0,104898,0,54579,24794,28785,24794,0,11269,0,600000,2977422,0,3076119,1602,0,0,2224,0,0,0,0,622,1602,3284997,160184,0,0,0,0,0,0,0,0,0,0,0,0,0,0,0,0,0,0,0,0,0,0,0,0,0,0,0,0,0,0,0,0,0,0,0,0,0,0,0,0,10036.0,RENATE HOFMANN ARTICLE 3 CHARITABLE TRUST 1874860,CHASE MANHATTAN BANK TAX DEPT,1211 AVE OF THE AMERICAS,NEW YORK,NY,10036-0000,0.0,3.0,1.0,199705.0,1.0,4.0,326.0,91.0,0.0,2.0,13.0,0.0,1.0,9,,36061,5602.0,5600.0,A51,A,A,IN,,1,AR,AR,AR,0.8287620000000001,N,PF,O,AR,A,NY,10036.0,NEW YORK,core2002pf,PF,S,AR,A,IN,,T22,T
68088,510393305,200112,2001,,2,A23,-,,,,2001,,,,3,0,61664,0,0,0,0,0,0,0,61664,61664,61664,0,61664,0,0,0,1,0,0,0,0,1,1,0,0,N,N,N,N,N,N,N,N,N,N,N,N,N,N,N,N,N,N,N,0,0,0,0,0,0,0,0,0,0,0,0,0,0,0,0,0,0,0,0,0,0,0,0,0,0,0,0,0,0,0,0,0,0,0,0,0,0,0,0,0,0,0,0,0,0,0,0,0,0,0,0,0,0,0,0,0,0,0,0,0,0,0,0,0,0,0,10118.0,INSTITUTE FOR THE ADVANCEMENT OF CONTEMPORARY CHINESE ARCH LTD,YI TUAN & BRUNSTEIN,350 FIFTH AVE STE 5411,NEW YORK,NY,10118-5411,0.0,3.0,1.0,200001.0,1.0,15.0,0.0,0.0,0.0,1.0,13.0,200312.0,20.0,12,,36061,5602.0,5600.0,A23,A,A,IN,,1,AR,AR,AR,0.413951,N,PC,O,AR,A,NY,10118.0,NEW YORK,core2002pf,PF,O,AR,A,IN,,A40,A
69291,61551999,200106,2001,200148.0,29491307038041,A68,N,Y,0.0,1.0,2000,2.0,4.0,2.0,3,0,5368,727,6042,46,0,0,1750,0,26400,13933,52648,-38715,40642,3528,71,0,167508,0,162226,0,162226,0,167508,0,9994,N,N,N,N,Y,N,N,N,N,N,N,N,N,N,N,N,Y,N,N,0,0,6815,8519,26248,3287,14242,3287,8519,420,0,0,167508,0,167508,71,0,0,122,0,0,0,0,-51,51,202915,0,1,0,0,0,1,14242,19600,0,0,33842,1,0,0,0,1,0,0,0,0,0,6663,3779,0,0,10442,0,0,0,0,0,0,0,0,0,0,0,0,0,0,0,10463.0,JOYCE DUTKA ARTS FOUNDATION INC,% JOYCE DUTKA,PO BOX 630053,BRONX,NY,10463-0800,0.0,3.0,1.0,200004.0,1.0,3.0,0.0,0.0,0.0,1.0,75.0,0.0,1.0,6,,36005,5602.0,5600.0,A99,A,A,IN,,1,AR,AR,AR,0.928475,N,PF,O,AR,A,NY,10463.0,BRONX,core2000pf,PF,O,AR,A,IN,,A1261,A
69489,133150248,200012,2000,200132.0,29491188012151,,N,Y,0.0,1.0,2000,3.0,6.0,4.0,3,149,2940,9187,110710,90597,0,0,0,0,76000,213434,154243,59191,146802,209027,2090,0,2528466,1393158,991032,0,2384190,9767,3532913,81595,166847,N,Y,N,N,N,N,N,N,Y,N,N,N,N,N,N,N,Y,N,N,0,0,210494,0,78243,1467,70802,1467,0,0,0,0,3532913,0,2518699,2090,0,0,5200,0,0,0,0,-3110,3110,3387761,164757,0,0,0,0,0,0,0,0,0,0,0,0,0,0,0,0,0,0,0,0,0,0,0,0,0,0,0,0,0,0,0,0,0,0,0,0,0,0,0,0,10128.0,SOCIETE DES PROFESSEORS FRANCAIS EN AMERIQUE,,PO BOX 6641,NEW YORK,NY,10128-0015,0.0,3.0,2.0,199410.0,1.0,4.0,149.0,0.0,0.0,1.0,13.0,0.0,1.0,12,,36061,5602.0,5600.0,A70,A,A,IN,,1,AR,AR,AR,0.757238,N,PF,O,AR,A,NY,10128.0,NEW YORK,core2000pf,PF,S,AR,A,IN,,B82,B
69550,133406046,200012,2000,200139.0,29491251002081,A40,N,Y,0.0,1.0,2000,3.0,1.0,0.0,3,0,0,0,0,0,0,0,0,0,0,0,75,-75,75,0,0,0,5414,0,0,0,0,0,5414,0,269,N,N,N,N,N,N,N,N,N,N,N,N,N,N,N,N,N,N,N,0,0,0,0,75,0,75,0,75,5414,0,0,5414,0,5414,0,0,0,0,0,0,0,0,0,0,5452,269,0,0,0,0,0,0,0,0,0,0,0,0,0,0,0,0,0,0,0,0,0,0,0,0,0,0,0,0,0,0,0,0,0,0,0,0,0,0,0,0,10003.0,FRANCIS J GREENBURGER FOUNDATION INC,% TIME EQUITIES INC,55 5TH AVE,NEW YORK,NY,10003-4301,0.0,3.0,1.0,200106.0,1.0,4.0,0.0,0.0,0.0,1.0,13.0,0.0,1.0,12,,36061,5602.0,5600.0,A99,A,A,IN,,1,AR,AR,AR,0.630046,N,PF,O,AR,A,NY,10003.0,NEW YORK,core2000pf,PF,S,AR,A,IN,,A40,A
69557,133472572,200006,2000,200117.0,29491097017151,A20Z,N,Y,0.0,1.0,1999,3.0,4.0,0.0,3,155,0,0,0,0,0,0,0,0,0,0,16938,-16938,0,0,0,0,101038,0,0,0,0,144975,21038,0,1036,N,N,N,N,N,N,Y,Y,N,N,N,N,N,N,N,N,N,N,N,0,0,0,0,16938,0,0,0,0,0,0,0,21038,0,-43937,0,0,0,0,0,0,0,0,0,0,21038,1036,0,0,0,0,0,0,0,0,0,0,0,0,0,0,0,0,0,0,0,0,0,0,0,0,0,0,0,0,0,0,0,0,0,0,0,0,0,0,0,0,10023.0,GUINEA DEVELOPMENT FOUNDATION INC,% SYLLA,140 W END AVE STE 17G,NEW YORK,NY,10023-6142,0.0,3.0,1.0,199101.0,1.0,4.0,155.0,0.0,0.0,1.0,13.0,0.0,1.0,6,,36061,5602.0,5600.0,A23,A,A,IN,,1,AR,AR,AR,0.705563,N,PF,O,AR,A,NY,10023.0,NEW YORK,core2000pf,PF,S,AR,A,IN,,A23,A
69580,133573737,200012,2000,200141.0,29491265009151,A23Z,N,Y,0.0,1.0,2000,3.0,2.0,4.0,3,92,193879,85,0,0,0,0,0,26400,0,193964,190217,3747,185569,0,0,0,11883,0,0,0,0,7000,11883,0,585,N,N,N,N,N,N,N,N,N,N,N,N,N,N,N,N,N,N,N,0,0,0,0,190217,0,185569,0,0,0,0,0,11883,0,4883,0,0,0,0,0,0,0,0,0,0,11873,585,0,0,0,0,0,0,0,0,0,0,0,0,0,0,0,0,0,0,0,0,0,0,0,0,0,0,0,0,0,0,0,0,0,0,0,0,0,0,0,0,10003.0,FINNISH FOUNDATION FOR VISUAL ARTS INC,% CHRISTY & VIENER,799 BROADWAY RM 527,NEW YORK,NY,10003-6811,0.0,3.0,1.0,199011.0,1.0,4.0,92.0,0.0,0.0,1.0,13.0,0.0,1.0,12,,36061,5602.0,5600.0,A23,A,A,IN,,1,AR,AR,AR,0.283989,N,PF,O,AR,A,NY,10003.0,NEW YORK,core2000pf,PF,S,AR,A,IN,,A23,A
69584,133593900,200012,2000,200131.0,29491132125241,A99Z,N,Y,0.0,20.0,2000,3.0,1.0,1.0,3,123,0,204,0,0,0,0,0,0,10678,204,10848,-10644,10515,204,2,0,1,0,0,0,0,0,1,0,425,N,Y,N,N,N,N,N,Y,N,N,N,N,N,N,N,N,N,N,N,0,0,204,0,0,0,0,0,0,0,0,0,0,0,0,2,0,0,0,0,0,0,0,2,0,8638,423,0,0,0,0,0,0,0,0,0,0,0,0,0,0,0,0,0,0,0,0,0,0,0,0,0,0,0,0,0,0,0,0,0,0,0,0,0,0,0,0,10112.0,SOVIET BUSINESS AND COMMERCIAL LAW EDUCATION FOUNDATION INC,% EUGENE R SULLICAN ESQ CHADBOURNE,30 ROCKEFELLER PLAZA,NEW YORK,NY,10112-0002,0.0,3.0,1.0,199102.0,1.0,4.0,123.0,0.0,0.0,1.0,13.0,0.0,1.0,12,,36061,5602.0,5600.0,A99,A,A,IN,,1,AR,AR,AR,0.9003530000000001,N,PF,O,AR,A,NY,10112.0,NEW YORK,core2000pf,PF,S,AR,A,IN,,B11,B
69590,133602467,199912,1999,200104.0,29491006094171,B99,N,N,0.0,1.0,1999,3.0,4.0,2.0,3,0,20000,0,0,0,0,0,2600,0,0,22600,6147,16453,0,0,0,0,106514,0,0,0,0,1209850,106514,5225,5225,N,N,N,N,N,N,Y,N,N,N,N,N,N,N,N,N,N,N,N,0,0,0,0,6147,0,0,0,0,913,0,81000,106514,0,-1103336,0,0,0,0,0,0,0,0,0,0,106097,5225,0,0,0,0,0,0,0,0,0,0,0,0,0,0,0,0,0,0,0,0,0,0,0,0,0,0,0,0,0,0,0,0,0,0,0,0,0,0,0,0,10003.0,NEW YORK KUNSTHALLE INC,E KERLIN,210 E 5TH ST,NEW YORK,NY,10003-8501,0.0,0.0,2.0,0.0,0.0,4.0,0.0,0.0,0.0,0.0,13.0,0.0,1.0,12,,36061,5602.0,5600.0,A99,A,A,IN,,1,AR,AR,AR,0.577932,C,PF,O,AR,A,NY,10003.0,NEW YORK,core2000pf,PF,S,AR,A,IN,,A1951,A
69610,133685295,200012,2000,200142.0,29491265104011,A40Z,N,Y,0.0,1.0,2000,3.0,1.0,1.0,3,91,6543,0,0,0,0,0,0,0,0,6543,5991,552,0,0,0,0,627,0,0,0,0,0,627,0,17,N,N,N,N,N,N,N,N,N,N,N,N,N,N,N,N,N,N,N,0,0,0,0,5991,0,0,0,0,627,0,0,627,0,627,0,0,0,0,0,0,0,0,0,0,351,0,0,0,0,0,0,0,0,0,0,0,0,0,0,0,0,0,0,0,0,0,0,0,0,0,0,0,0,0,0,0,0,0,0,0,0,0,0,0,0,0,10163.0,CENTER FOR ART AND EARTH INC,% BARBARA R PETERSEN,PO BOX 4402,NEW YORK,NY,10163-4402,0.0,3.0,1.0,199506.0,1.0,4.0,91.0,0.0,0.0,1.0,13.0,0.0,1.0,12,,36061,5602.0,5600.0,A20,A,A,IN,,1,AR,AR,AR,0.507011,N,PF,O,AR,A,NY,10163.0,NEW YORK,core2000pf,PF,S,AR,A,IN,,A20,A
69611,133685701,200012,2000,200137.0,29491237025201,A60Z,N,Y,0.0,1.0,2000,3.0,4.0,5.0,3,90,0,0,0,0,0,191751,0,66000,0,191751,199845,-8094,0,0,0,191751,162863,0,0,0,0,0,1,0,0,N,N,N,N,N,N,N,N,N,N,N,N,N,N,N,N,N,N,N,0,312602,0,191751,199845,0,0,0,0,127819,0,0,0,0,162863,0,0,0,0,0,0,0,0,0,0,0,0,0,0,0,0,0,0,0,0,0,0,0,0,0,0,0,0,0,0,0,0,0,0,0,0,0,0,0,0,0,0,0,0,0,0,0,0,0,0,0,0,10019.0,LIVING ARTS INC,% PETER KLEIN,250 W 57TH ST,NEW YORK,NY,10019-3741,0.0,3.0,1.0,199305.0,1.0,4.0,90.0,0.0,0.0,1.0,13.0,0.0,1.0,12,,36061,5602.0,5600.0,A26,A,A,IN,,1,AR,AR,AR,0.929019,N,PF,O,AR,A,NY,10019.0,NEW YORK,core2000pf,PF,S,AR,A,IN,,A26,A
69641,133783618,200012,2000,200138.0,29491244038011,A65Z,N,Y,0.0,1.0,2000,3.0,1.0,1.0,3,994,0,0,0,0,0,0,0,0,0,1,0,1,0,0,0,0,1,0,0,0,0,0,1,0,0,N,N,N,N,N,N,N,N,N,N,N,N,N,N,N,N,N,N,N,0,0,0,0,0,0,0,0,0,0,0,0,0,0,0,0,0,0,0,0,0,0,0,0,0,0,0,0,0,0,0,0,0,0,0,0,0,0,0,0,0,0,0,0,0,0,0,0,0,0,0,0,0,0,0,0,0,0,0,0,0,0,0,0,0,0,0,10036.0,WORLD CITY PICTURES INC,,520 W 43RD ST 5L,NEW YORK,NY,10036-4345,0.0,3.0,1.0,199601.0,1.0,4.0,994.0,92.0,0.0,1.0,13.0,0.0,1.0,12,,36061.0,5602.0,5600.0,A65,A,A,IN,,1,AR,AR,AR,0.35835900000000004,N,PF,O,AR,A,NY,10036.0,NEW YORK,core2000pf,PF,S,AR,A,IN,,A65,A
69649,133809561,200012,2000,200151.0,29491328114011,A50Z,N,Y,0.0,1.0,2000,3.0,5.0,5.0,3,90,685973,1347,29903,30,0,0,10,0,0,717263,57790,659473,48110,31140,623,31110,713100,0,48037,0,48037,0,712948,0,27682,N,N,N,N,N,N,N,N,N,N,N,N,N,N,N,N,N,N,N,0,0,31290,31260,57790,150,48110,150,150,0,0,0,712948,0,713100,623,0,0,0,0,675,0,0,-52,52,562069,27059,0,0,0,0,0,0,0,0,0,0,0,0,0,0,0,0,0,0,0,0,0,0,0,0,0,0,0,0,0,0,0,0,0,0,0,0,0,0,0,0,10025.0,ARTUR BALSAM FOUNDATION FOR CHAMBER MUSIC,% MOSHE MIRSKY,825 W END AVE 2C,NEW YORK,NY,10025-5349,0.0,3.0,1.0,199505.0,1.0,4.0,90.0,0.0,0.0,1.0,13.0,0.0,1.0,12,,36061.0,5602.0,5600.0,A50,A,A,IN,,1,AR,AR,AR,0.683775,N,PF,O,AR,A,NY,10025.0,NEW YORK,core2000pf,PF,S,AR,A,IN,,A6C,A
69650,133811670,200012,2000,200141.0,29491202071211,A76Z,N,Y,0.0,1.0,2000,3.0,1.0,1.0,3,995,4785,0,0,0,0,0,0,0,0,4785,0,4785,0,0,0,0,1,0,0,0,0,0,1,0,0,N,N,N,N,N,N,N,N,N,N,N,N,N,N,N,N,N,N,N,0,0,0,0,0,0,0,0,0,0,0,0,0,0,0,0,0,0,0,0,0,0,0,0,0,0,0,0,0,0,0,0,0,0,0,0,0,0,0,0,0,0,0,0,0,0,0,0,0,0,0,0,0,0,0,0,0,0,0,0,0,0,0,0,0,0,0,10016.0,HAPPY ORGANIZATION,% DAN PEYTON,240 E 35TH ST 11A,NEW YORK,NY,10016-4220,0.0,3.0,1.0,199510.0,1.0,16.0,995.0,92.0,0.0,5.0,13.0,199912.0,20.0,12,,36061.0,5602.0,5600.0,A70,A,A,IN,,1,AR,AR,AR,0.628207,N,PC,O,AR,A,NY,10016.0,NEW YORK,core2000pf,PF,O,AR,A,IN,,A70,A
69715,133984936,200012,2000,200135.0,29491223036171,A31Z,N,Y,0.0,1.0,2000,3.0,6.0,8.0,3,602,11618968,83014,29812,0,0,0,0,567221,7175008,11731794,12966470,-1234676,12855353,112826,1128,0,1131604,0,0,0,0,929658,1131604,0,67572,N,Y,N,N,N,N,Y,N,Y,N,N,N,N,N,N,N,N,N,N,0,0,112826,0,5791462,0,5680345,0,0,0,0,0,1131604,0,201946,1128,0,0,1613,0,0,0,0,-485,485,1372024,66444,0,0,0,0,0,0,0,0,0,0,0,0,0,0,0,0,0,0,0,0,0,0,0,0,0,0,0,0,0,0,0,0,0,0,0,0,0,0,0,0,10152.0,ANDREA AND CHARLES BRONFMAN PHILANTROPIES INC,% JEFFREY SOLOMAN,375 PARK AVE 6TH FLR,NEW YORK,NY,10152-0002,0.0,3.0,2.0,199807.0,1.0,4.0,602.0,0.0,0.0,1.0,11.0,0.0,1.0,12,,36061.0,5602.0,5600.0,A31,A,A,IN,,1,AR,AR,AR,0.403384,N,PF,O,AR,A,NY,10152.0,NEW YORK,core2000pf,PF,S,AR,A,IN,,T23,T
69716,133988194,199912,1999,200125.0,29491302003060,A62,N,N,0.0,1.0,1999,3.0,3.0,3.0,3,0,32850,266,0,0,0,0,39900,0,1000,73016,17951,55065,1000,23215,464,0,55065,0,0,0,0,0,55065,0,1379,N,N,N,N,N,N,N,N,N,N,N,N,N,N,N,N,N,N,N,0,0,40166,0,16951,16951,0,16951,0,44799,0,0,55065,0,55065,464,0,0,0,0,0,0,0,464,0,28000,915,0,0,0,0,0,0,0,0,0,0,0,0,0,0,0,0,0,0,0,0,0,0,0,0,0,0,0,0,0,0,0,0,0,0,0,0,0,0,0,0,10017.0,JOHN BUTLER FOUNDATION INC,% SIEGEL SACHS PRESS & LACHER,630 THIRD 22 FL,NEW YORK,NY,10017-0000,0.0,3.0,2.0,199909.0,1.0,16.0,0.0,0.0,0.0,1.0,13.0,0.0,10.0,12,,36061.0,5602.0,5600.0,A99,A,A,IN,,1,AR,AR,AR,0.365727,N,PC,O,AR,A,NY,10017.0,NEW YORK,core2000pf,PF,O,AR,A,IN,,A62,A
69777,134133834,200012,2000,200150.0,29491181035201,A65,N,Y,0.0,1.0,2000,3.0,1.0,1.0,3,0,0,0,0,0,0,0,0,0,0,1,0,1,0,0,0,0,1,0,0,0,0,0,1,0,0,N,N,N,N,N,N,N,N,N,N,N,N,N,N,N,N,N,N,N,0,0,0,0,0,0,0,0,0,0,0,0,0,0,0,0,0,0,0,0,0,0,0,0,0,0,0,0,0,0,0,0,0,0,0,0,0,0,0,0,0,0,0,0,0,0,0,0,0,0,0,0,0,0,0,0,0,0,0,0,0,0,0,0,0,0,0,10016.0,VISIBLE THEATRE INC,% KRISTA D SMITH,201 E 28TH ST STE 3E,NEW YORK,NY,10016-8538,0.0,3.0,2.0,200101.0,1.0,15.0,0.0,0.0,0.0,1.0,75.0,200412.0,10.0,12,,36061.0,5602.0,5600.0,A99,A,A,IN,,1,AR,AR,AR,0.747326,N,PC,O,AR,A,NY,10016.0,NEW YORK,core2000pf,PF,O,AR,A,IN,,A65,A
70209,223527668,200106,2001,200149.0,29491272081211,A40Z,N,Y,0.0,1.0,2000,2.0,6.0,5.0,3,60,562907,134,18632,9142,0,0,0,0,0,590815,9350,581465,1589,27774,555,18632,1146580,0,480882,0,480882,0,1083418,0,43382,N,N,N,N,Y,N,N,N,N,N,N,N,N,N,N,N,N,N,N,0,0,27774,18632,9350,0,1589,0,0,5380,0,0,1083418,0,1146580,555,0,0,0,0,0,0,0,555,0,880852,0,18632,7154,11697,3753,41236,43589,40233,29845,18500,132167,1,0,0,0,1,0,0,0,0,0,28921,22192,15094,8489,74696,0,0,0,0,0,0,0,0,0,0,0,0,0,0,0,10118.0,YATES ART FOUNDATION INC,% WOLLIN,350 FIFTH STE 2822,NEW YORK,NY,10118-2899,0.0,3.0,1.0,199803.0,1.0,3.0,60.0,0.0,0.0,1.0,13.0,0.0,1.0,6,,36061.0,5602.0,5600.0,A40,A,A,IN,,1,AR,AR,AR,0.386842,N,PF,O,AR,A,NY,10118.0,NEW YORK,core2000pf,PF,O,AR,A,IN,,A12,A
70769,311693404,200008,2000,200137.0,29491167104121,A20,N,Y,0.0,1.0,1999,2.0,1.0,1.0,3,0,0,0,0,0,0,0,0,0,0,1,0,1,0,0,0,0,1,0,0,0,0,0,1,0,0,N,N,N,N,Y,N,N,N,N,N,N,N,N,N,N,N,N,N,N,0,0,0,0,0,0,0,0,0,0,0,0,0,0,0,0,0,0,0,0,0,0,0,0,0,0,0,1,0,0,0,1,0,0,0,0,0,1,0,0,0,1,0,0,0,0,0,0,0,0,0,0,0,0,0,0,0,0,0,0,0,0,0,0,0,0,0,10017.0,PIECE BY PIECE PRODUCTIONS INC,% REMINICK AARONS,685 THIRD AVE,NEW YORK,NY,10017-4024,0.0,3.0,1.0,200006.0,1.0,3.0,0.0,0.0,0.0,1.0,13.0,0.0,1.0,8,,36061.0,5602.0,5600.0,A99,A,A,IN,,1,AR,AR,AR,0.7209270000000001,N,PF,O,AR,A,NY,10017.0,NEW YORK,core2000pf,PF,O,AR,A,IN,,A20,A
74330,133745620,199912,1999,200033.0,29491211008200,A99Z,N,Y,0.0,1.0,1999,3.0,1.0,0.0,3,995,0,0,0,0,0,0,0,0,253,0,253,-253,253,0,0,0,1,0,0,0,0,0,1,0,12,N,N,N,N,N,N,N,N,N,N,N,N,N,N,N,N,N,N,N,0,0,0,0,0,0,0,0,0,0,0,0,0,0,0,0,0,0,0,0,0,0,0,0,0,253,12,0,0,0,0,0,0,0,0,0,0,0,0,0,0,0,0,0,0,0,0,0,0,0,0,0,0,0,0,0,0,0,0,0,0,0,0,0,0,0,0,10013.0,FRIENDS OF ICA MOSCOW INC,% KOMAR & MELAMID INC,53 LISPENARD ST,NEW YORK,NY,10013-2501,0.0,3.0,2000.0,199505.0,1.0,4.0,995.0,91.0,93.0,1.0,13.0,199712.0,10.0,12,,36061.0,5602.0,5600.0,A99,A,A,IN,,,AR,AR,AR,0.0929429,,PF,O,AR,A,NY,10013.0,NEW YORK,core2000pf,,,,,,,X11,X
74331,133771298,199912,1999,200041.0,29491225009090,A31Z,N,Y,0.0,1.0,1999,3.0,1.0,2.0,3,994,15800,131,0,0,0,0,0,0,0,15931,13674,2257,13674,131,3,131,3534,0,0,0,0,0,3534,0,0,N,N,N,N,N,N,N,N,N,N,N,N,N,N,N,N,N,N,N,0,0,131,131,139674,0,13674,0,0,3534,0,0,3534,0,3534,3,0,0,0,0,0,0,0,0,3,0,-3,0,0,0,0,0,0,0,0,0,0,0,0,0,0,0,0,0,0,0,0,0,0,0,0,0,0,0,0,0,0,0,0,0,0,0,0,0,0,0,0,10014.0,PENNY MORELL PRODUCTIONS INC,% PENNY MORELL,67 BEDFORD ST,NEW YORK,NY,10014-4013,0.0,3.0,1000.0,199505.0,1.0,4.0,994.0,122.0,0.0,1.0,13.0,199812.0,20.0,12,,36061.0,5602.0,5600.0,A31,A,A,IN,,,AR,AR,AR,0.9451709999999999,,PF,O,AR,A,NY,10014.0,NEW YORK,core2000pf,,,,,,,A31,A
74337,133842734,199912,1999,200032.0,29491204046060,A99Z,N,Y,0.0,1.0,1999,3.0,1.0,1.0,3,561,373,0,0,0,0,0,0,0,0,373,373,0,0,0,0,0,1,0,0,0,0,0,1,373,0,N,N,N,N,N,N,N,N,N,N,N,N,N,N,N,N,N,N,N,0,0,0,0,373,0,0,0,0,0,0,0,0,0,0,0,0,0,0,0,0,0,0,0,0,0,0,0,0,0,0,0,0,0,0,0,0,0,0,0,0,0,0,0,0,0,0,0,0,0,0,0,0,0,0,0,0,0,0,0,0,0,0,0,0,0,0,10024.0,LINDA CHESTER FOUNDATION,% LINDA CHESTER,44 W 77TH ST,NEW YORK,NY,10024-5150,0.0,3.0,1000.0,199604.0,1.0,4.0,561.0,0.0,0.0,1.0,13.0,0.0,1.0,12,,36061.0,5602.0,5600.0,A99,A,A,IN,,,AR,AR,AR,0.041049,,PF,O,AR,A,NY,10024.0,NEW YORK,core2000pf,,,,,,,A99,A
74338,133863402,199912,1999,200032.0,29491204034080,A99Z,N,Y,0.0,1.0,1999,3.0,4.0,5.0,3,602,510025,0,1044,0,0,0,0,0,79950,511069,81860,429209,80875,59,1,0,431323,0,0,0,0,0,431323,0,10673,N,N,N,N,N,N,N,N,N,N,N,N,N,N,N,N,N,N,N,0,0,1044,0,1910,985,925,985,0,0,0,0,431323,0,431323,1,0,0,0,0,0,0,0,0,1,216719,10672,0,0,0,0,0,0,0,0,0,0,0,0,0,0,0,0,0,0,0,0,0,0,0,0,0,0,0,0,0,0,0,0,0,0,0,0,0,0,0,0,10471.0,KAHN FAMILY FOUNDATION INC,% NATHAN KAHN,4663 WALDO AVE,RIVERDALE,NY,10471-3061,0.0,3.0,1000.0,199512.0,1.0,4.0,602.0,0.0,0.0,1.0,13.0,0.0,1.0,12,,36005.0,5602.0,5600.0,A99,A,A,IN,,,AR,AR,AR,0.8254739999999999,,PF,O,AR,A,NY,10471.0,RIVERDALE,core2000pf,,,,,,,A99,A
