,fincheckv,VerifyBy,STYEAR,EIN,NAME,STATE,NTEE1,NTEECC,ADDRESS,CITY,ZIP5,ZIP,FIPS,MSA_NECH,PMSA,TAXPER,FisYr,OUTNCCS,OUTREAS,SUBSECCD,NTMAJ5,NTMAJ10,NTMAJ12,NTEESRC,MAJGRPB,ACTIV,ACTIV1,ACTIV2,ACTIV3,P1INTREV,P1DIVID,P1NGASTS,P1TCONT,P1GINVPF,P1OTHINC,P1OFCOMP,P1CONTPD,P1TOTREV,P1TOTEXP,P1EXCREV,P1TEXMEX,P1NETINV,P1NADINC,P2TOTAST,P2GVTINV,P2CRPSTK,P2CRPBND,P2TINVSC,P2TLIABL,P2TASFMV,P13UNDST,P10MIR,P6EXMPF,P1GRENTS,P6DOMORG,P7POLIT,P1INVRV,P7LIQUID,P1NADJRV,P7POFCLM,P1ADMEXP,P7DISSAL,P7DISBOR,P1INVEXP,P7DISSER,P1CHAEXP,P7DISPAY,P1TINVEX,P7DISTRA,P1TADJEX,P7PAYGVT,P2CASHBV,P7UNDINC,P2MORTG,P7BUSINT,P2EYOTIN,P7JEOINV,P2EYASST,P7PROPAG,P2MTGNTS,P7ELECT,P3EYTFND,P7INDGRT,P6TX4940,P7ORGGRT,P6TX511,P7OTHPUR,P6TXSUBA,P6ESTTX,P6TEXCTX,P6TXWTH,P6TXINV,P6TXWERR,P6TXPNLT,P6TXCRDT,P10TASST,P11DISTR,P14NADJA,P14NADJB,P14NADJC,P14NADJD,P14TNADJ,P14QDISA,P14QDISB,P14QDISC,P14QDISD,P14TQDIS,P14ASVLA,P14ASVLB,P14ASVLC,P14ASVLD,P14TASVL,P14A4942,P14B4942,P14C4942,P14D4942,P14T4942,P14ENDWA,P14ENDWB,P14ENDWC,P14ENDWD,P14TENDW,P14TSUPA,P14TSUPB,P14TSUPC,P14TSUPD,P14TTSUP,P14PSUPA,P14PSUPB,P14PSUPC,P14PSUPD,P14TPSUP,P14GINVA,P14GINVB,P14GINVC,P14GINVD,P14TGINV,NTEE,RULEDATE,FNDNCD,FRCD,AFCD,ARED,CONTACT,SEC_NAME,GEN,DISTRICT,LEVEL1,LEVEL2,LEVEL3,LEVEL4,CLASSCD,DEDUCTCD,ORGCD,P1GOODS,DLN,ARC,RandNum,ACCPER,TFLD,P6TXRFD,CALC4940,V1P6TX49,verify,V1P1TOTR,verfail,V1P1TOTE,V1P1EXCR,V1P1NETI,V1P1NADI,V1P3EYTF,V1P6TEXC,V1P14NAD,V1P14TNA,V1P14TQD,V1P14TAS,V1P14T49,V1P14TEN,V1P14TTS,V1P14TPS,V1P14TGI,V1P10MIR,VGOFCOMP,VGADMEXP,VGCONTPD,VGINVEXP,VGCHAEXP,VGTINVEX,VGTADJEX,VGTEXMEX,VGCASHBV,VGGVTINV,VGCRPSTK,VGCRPBND,VGMORTG,VGEYOTIN,VGMTGNTS,VGTASFMV,VGTOTAST,VGTASST,VIDIVID,VINGASTS,VIOTHINC,VITCONT,VIINTREV,VIGRENTS,VIGINVPF,VMREVEXP,VMASSETS,VMPOFCLM,nteeConf,stateOld1,zip5Old1,cityOld1,SOURCE,LEVEL1old20090616,LEVEL2old20090616,LEVEL3old20090616,LEVEL4old20090616,OUTNCCSold20090616,OUTREASold20090616,nteeFinal,nteeFinal1
178,,,2001,10548602,PETER AND CYNTHIA WILSON ART FOUNDATION INC,NY,A,A51,350 FIFTH AVE STE 2822,NEW YORK,10118.0,10118-2896,36061.0,5602.0,5600.0,200209,2002,IN,,3,AR,AR,AR,1,A,0,0.0,0.0,0.0,0,12004,0,721101,0,0,0,0,733105,9445,723660,0,12004,12004,723660,0,0,0,0,0,723660,0,35414,N,0,N,N,12004,N,12004,Y,9445,N,N,0,N,0,N,0,N,0,N,688660,N,0,N,0,N,723660,N,0,N,723660,N,240,N,0,N,0,0,240,0,0,0,0,0,719059,0,12004,0,0,0,12004,35000,0,0,0,35000,1,0,0,0,1,0,0,0,0,0,23609,0,0,0,23609,0,0,0,0,0,0,0,0,0,0,0,0,0,0,0,A51,200207.0,3.0,1.0,3.0,0.0,L WOLLIN,,0.0,13.0,PF,O,AR,A,2.0,1.0,1.0,0,2,-5,0.396253,9,240,0,240,1.0,,1.0,,1.0,1.0,1.0,1.0,1.0,1.0,1,1,1,1,1,1,1,1,1,U,0.0,3.0,0.0,0.0,0.0,0.0,0.0,0.0,2.0,0.0,0.0,0.0,0.0,0.0,0.0,2.0,2.0,2.0,2.0,0.0,0.0,2.0,0.0,0.0,0.0,4.0,4.0,4.0,C,NY,10118.0,NEW YORK,core2002pf_ver1,PF,O,AR,A,IN,,A51,A
332,,,2002,10733159,FELIX GONZALEZ-TORRES FOUNDATION,NY,A,A70,525 W 24TH ST,NEW YORK,10011.0,10011-1104,36061.0,5602.0,5600.0,200212,2002,IN,,3,AR,AR,AR,1,A,0,0.0,0.0,0.0,0,0,0,176000,0,0,0,0,176000,10,175990,0,0,0,175990,0,0,0,0,0,175990,0,5343,N,0,N,N,0,N,0,N,10,N,N,0,N,0,N,0,N,0,N,79990,N,0,N,0,N,175990,N,0,N,175990,N,0,N,0,N,0,0,0,0,0,0,0,0,175990,0,0,0,0,0,0,0,0,0,0,0,0,0,0,0,0,0,0,0,0,0,0,0,0,0,0,0,0,0,0,0,0,0,0,0,0,0,0,0,0,0,A70,200307.0,3.0,1.0,3.0,0.0,ANDREA M ROSEN,,0.0,13.0,PF,O,AR,A,1.0,1.0,1.0,0,2,-5,0.9620770000000001,12,0,0,0,1.0,,1.0,,1.0,1.0,1.0,1.0,1.0,1.0,1,U,U,U,U,U,U,U,U,7,0.0,3.0,0.0,0.0,0.0,0.0,0.0,0.0,2.0,0.0,0.0,0.0,0.0,0.0,0.0,2.0,2.0,2.0,0.0,0.0,0.0,3.0,0.0,0.0,0.0,4.0,4.0,4.0,C,NY,10011.0,NEW YORK,core2002pf_ver1,PF,O,AR,A,IN,,A70,A
496,GS,JDD,2002,16186903,MERCE CUNNINGHAM TRUST,NY,A,A6E,55 BETHUNE ST,NEW YORK,10014.0,10014-2010,36061.0,5602.0,5600.0,200212,2002,IN,,3,AR,AR,AR,1,A,0,0.0,0.0,0.0,0,0,0,20000,0,0,0,0,20000,0,20000,0,0,0,20000,0,0,0,0,0,20000,0,0,N,0,N,N,0,N,0,Y,0,N,N,0,N,0,N,0,N,0,N,20000,N,0,N,0,N,20000,N,0,N,20000,N,0,N,0,N,0,0,0,0,0,0,0,0,0,0,0,0,0,0,0,0,0,0,0,0,20000,0,0,0,20000,0,0,0,0,0,0,0,0,0,0,0,0,0,0,0,0,0,0,0,0,0,0,0,0,0,T23,200212.0,3.0,1.0,3.0,0.0,CUNNINGHAM MERCE TTEE,CUNNINGHAM MERCE TTEE,0.0,13.0,PF,O,AR,A,1.0,1.0,2.0,0,2,-5,0.0607346,12,0,0,0,1.0,M,1.0,3.0,1.0,1.0,1.0,1.0,1.0,1.0,1,1,1,7,1,1,1,1,1,U,0.0,0.0,0.0,0.0,0.0,0.0,0.0,0.0,3.0,0.0,0.0,0.0,0.0,0.0,0.0,2.0,2.0,0.0,0.0,0.0,0.0,3.0,0.0,0.0,0.0,4.0,4.0,2.0,C,NY,10014.0,NEW YORK,core2002pf_ver1,PF,O,AR,A,IN,,T23,T
2602,,,2002,43649708,PISANO CHASE CATALOGUE RAISONNE PROJECT INC,NY,A,A51,375 RIVERSIDE DR ATE 13B,NEW YORK,10025.0,10025-2149,36061.0,5602.0,5600.0,200212,2002,IN,,3,AR,AR,AR,1,A,0,0.0,0.0,0.0,15,0,0,18750,0,0,0,0,18765,312,18453,169,0,0,18453,0,0,0,0,0,18453,0,0,N,0,N,N,15,N,0,N,312,N,N,143,N,169,N,143,N,0,N,18453,N,0,N,0,N,18453,N,0,N,18453,N,0,N,0,N,0,0,0,0,0,0,0,0,0,0,1,0,0,0,1,0,0,0,0,0,1,0,0,0,1,0,0,0,0,0,0,0,0,0,0,0,0,0,0,0,0,0,0,0,0,0,0,0,0,0,A51,200302.0,3.0,1.0,3.0,0.0,D FREDERICK BAKER,,0.0,13.0,PF,O,AR,A,2.0,1.0,1.0,0,2,-5,0.666158,12,0,0,0,1.0,,1.0,,1.0,1.0,1.0,1.0,1.0,1.0,2,U,U,U,U,U,U,U,U,1,0.0,3.0,0.0,3.0,3.0,2.0,0.0,2.0,3.0,0.0,0.0,0.0,0.0,0.0,0.0,2.0,2.0,0.0,0.0,0.0,0.0,2.0,2.0,0.0,0.0,4.0,4.0,4.0,C,NY,10025.0,NEW YORK,core2002pf_ver1,PF,O,AR,A,IN,,A51,A
4090,,,2001,53842834,FREDERICK BROWN MUSEUM INC,NY,A,A23,350 FIFTH AVE STE 2822,NEW YORK,10118.0,10118-2899,36061.0,5602.0,5600.0,200209,2002,IN,,3,AR,AR,AR,1,A,60,60.0,0.0,0.0,0,0,0,0,0,0,0,0,1,0,1,0,0,0,1,0,0,0,0,1,1,0,0,N,0,N,N,0,N,0,N,0,N,N,0,N,0,N,0,N,0,N,0,N,0,N,0,N,0,N,0,N,0,N,0,N,0,N,0,0,0,0,0,0,0,0,0,0,0,0,0,0,0,0,0,0,0,0,0,0,0,0,0,0,0,0,0,0,0,0,0,0,0,0,0,0,0,0,0,0,0,0,0,0,0,0,0,0,A23Z,199511.0,4.0,1.0,3.0,0.0,L WOLLIN,,0.0,13.0,PF,O,AR,A,1.0,1.0,1.0,0,2,-5,0.695489,9,0,0,0,1.0,,2.0,,1.0,1.0,1.0,1.0,2.0,1.0,1,U,U,U,U,U,U,U,U,1,0.0,0.0,0.0,0.0,0.0,0.0,0.0,0.0,0.0,0.0,0.0,0.0,0.0,0.0,0.0,2.0,2.0,0.0,0.0,0.0,0.0,0.0,0.0,0.0,0.0,4.0,4.0,4.0,N,NY,10118.0,NEW YORK,core2002pf_ver1,PF,S,AR,A,IN,,A50,A
4813,,,2002,61532031,ALEPH FOUNDATION FOR HUMANITIES,NY,A,A12,667 MADISON AVE 11TH FLR,NEW YORK,10021.0,10021-8029,36061.0,5602.0,5600.0,200212,2002,IN,,3,AR,AR,AR,1,A,0,0.0,0.0,0.0,142,0,0,0,0,0,0,75262,142,75262,-75120,75262,142,0,1634300,0,0,0,0,0,1634300,8492,83755,N,0,Y,N,142,N,0,N,0,N,N,0,N,0,N,0,N,0,N,9300,N,0,N,0,N,1634300,N,0,N,1634300,N,1,Y,0,N,0,0,1,0,0,0,0,0,1700611,83754,0,0,0,0,0,0,0,0,0,0,0,0,0,0,0,0,0,0,0,0,0,0,0,0,0,0,0,0,0,0,0,0,0,0,0,0,0,0,0,0,A12,199904.0,4.0,1.0,3.0,0.0,JOEL ORNSTEIN,,0.0,13.0,PF,S,ZB,A,1.0,1.0,1.0,0,2,-5,0.0783143,12,1,0,1,1.0,,1.0,,1.0,1.0,1.0,1.0,1.0,1.0,1,U,U,U,U,U,U,U,U,2,0.0,0.0,3.0,0.0,0.0,0.0,0.0,3.0,2.0,0.0,0.0,0.0,0.0,0.0,0.0,2.0,2.0,2.0,0.0,0.0,0.0,0.0,3.0,0.0,0.0,4.0,4.0,4.0,N,NY,10021.0,NEW YORK,core2002pf_ver1,PF,S,ZB,A,IN,,A70,A
4857,,,2002,61551999,JOYCE DUTKA ARTS FOUNDATION INC,NY,A,A99,PO BOX 630053,BRONX,10463.0,10463-0800,36005.0,5602.0,5600.0,200306,2003,IN,,3,AR,AR,AR,1,A,0,0.0,0.0,0.0,2,2811,-28943,11622,0,1225,0,13000,-13283,38083,-51366,34045,499,0,101190,0,0,0,0,0,101190,0,5597,N,0,Y,N,2813,N,4038,Y,25083,N,N,2314,N,21045,N,2314,N,4038,N,609,N,0,N,96086,N,101190,N,0,N,101190,Y,5,N,0,N,0,39,5,0,0,0,0,34,113650,0,1,0,0,0,1,21045,21365,14242,19600,76252,1,0,0,0,1,0,0,0,0,0,3731,4950,6663,3779,19123,0,0,0,0,0,0,0,0,0,0,0,0,0,0,0,A68,200004.0,3.0,1.0,3.0,0.0,JOYCE DUTKA,,0.0,13.0,PF,O,AR,A,1.0,1.0,1.0,0,2,-5,0.9531879999999999,6,-34,0,5,1.0,,1.0,,1.0,1.0,1.0,1.0,1.0,1.0,2,1,1,1,1,1,1,1,1,U,0.0,2.0,2.0,3.0,2.0,2.0,2.0,2.0,2.0,0.0,0.0,0.0,0.0,2.0,0.0,2.0,2.0,2.0,4.0,2.0,4.0,4.0,4.0,0.0,0.0,4.0,4.0,4.0,N,NY,10463.0,BRONX,core2002pf_ver1,PF,O,AR,A,IN,,A1261,A
5453,,,2002,66356055,THE STEPHEN HAHN FOUNDATION,NY,A,A99,350 FIFTH AVE STE 1000,NEW YORK,10118.0,10118-1000,36061.0,5602.0,5600.0,200212,2002,IN,,3,AR,AR,AR,1,A,91,91.0,0.0,0.0,0,444134,-39690,1300000,0,0,20000,284670,1704444,323144,1381300,294030,415020,444134,7808387,4132612,0,3232505,7365117,0,8077319,0,365439,N,0,N,N,444134,N,444134,N,38474,N,N,29114,N,9360,N,29114,N,0,N,15903,N,0,N,0,N,8077319,N,0,N,7808387,N,8300,N,0,N,0,4947,8300,0,0,0,0,0,7420090,357139,0,0,0,0,0,0,0,0,0,0,0,0,0,0,0,0,0,0,0,0,0,0,0,0,0,0,0,0,0,0,0,0,0,0,0,0,0,0,0,0,A40,199108.0,4.0,1.0,3.0,0.0,ISRAELOFF TRATTNER AND CO PC,HAHN STEPHEN R TTEE,0.0,13.0,PF,O,AR,A,1.0,1.0,2.0,0,2,-5,0.955464,12,3353,0,8300,1.0,,1.0,,1.0,1.0,1.0,1.0,1.0,1.0,7,U,U,U,U,U,U,U,U,4,2.0,2.0,2.0,3.0,2.0,2.0,0.0,2.0,2.0,2.0,0.0,2.0,0.0,0.0,0.0,2.0,2.0,2.0,2.0,2.0,0.0,2.0,0.0,0.0,0.0,4.0,4.0,4.0,N,NY,10118.0,NEW YORK,core2002pf_ver1,PF,S,AR,A,IN,,A40,A
5916,,,2002,113027025,SJMS HUMANITIES ARTS AND SCIENCES CHARITY INC,NY,A,A70,340 E 74TH ST,NEW YORK,10021.0,10021-3737,36061.0,5602.0,5600.0,200212,2002,IN,,3,AR,AR,AR,1,A,119,119.0,0.0,0.0,2,1078,-291,0,0,0,0,510,789,2933,-2144,2010,197,1080,25318,0,0,0,0,0,22870,0,1177,N,0,N,N,1080,N,1080,N,2423,N,N,883,N,1500,N,883,N,0,N,115,N,0,N,21883,N,22870,N,0,N,25318,N,4,N,0,N,0,0,4,0,0,0,0,0,23890,1173,0,0,0,0,0,0,0,0,0,0,0,0,0,0,0,0,0,0,0,0,0,0,0,0,0,0,0,0,0,0,0,0,0,0,0,0,0,0,0,0,A23Z,199108.0,4.0,1.0,3.0,0.0,MELVIN ROSEN,,0.0,13.0,PF,O,AR,A,1.0,1.0,1.0,0,2,-5,0.47309700000000005,12,4,0,4,1.0,,1.0,,1.0,1.0,1.0,1.0,1.0,1.0,7,U,U,U,U,U,U,U,U,2,0.0,2.0,2.0,3.0,2.0,2.0,0.0,2.0,2.0,0.0,0.0,0.0,0.0,2.0,0.0,2.0,2.0,2.0,4.0,2.0,0.0,0.0,2.0,0.0,0.0,4.0,4.0,4.0,N,NY,10021.0,NEW YORK,core2002pf_ver1,PF,S,AR,A,IN,,A70,A
5965,,,2002,113121207,B KING PRODUCTIONS INC,NY,A,A60,350 PARK AVE,NEW YORK,10022.0,10022-6022,36061.0,5602.0,5600.0,200302,2003,IN,,3,AR,AR,AR,1,A,122,122.0,0.0,0.0,0,0,0,0,0,0,0,0,1,0,1,0,0,0,101510,0,0,0,0,75962,101510,0,0,N,0,N,N,0,N,0,N,0,N,N,0,N,0,N,0,N,0,N,0,Y,0,N,0,N,101510,N,0,N,25548,N,0,N,0,N,0,0,0,0,0,0,0,0,0,0,0,0,0,0,0,0,0,0,0,0,0,0,0,0,0,0,0,0,0,0,0,0,0,0,0,0,0,0,0,0,0,0,0,0,0,0,0,0,0,0,A60Z,199402.0,4.0,1.0,3.0,0.0,STARR & CO,,0.0,13.0,PF,O,AR,A,1.0,1.0,1.0,0,2,-5,0.17566500000000002,2,0,0,0,1.0,,2.0,,1.0,1.0,1.0,1.0,1.0,1.0,1,U,U,U,U,U,U,U,U,1,0.0,0.0,0.0,0.0,0.0,0.0,0.0,0.0,0.0,0.0,0.0,0.0,0.0,0.0,0.0,2.0,2.0,0.0,0.0,0.0,0.0,0.0,0.0,0.0,0.0,4.0,4.0,4.0,N,NY,10022.0,NEW YORK,core2002pf_ver1,PF,S,AR,A,IN,,A60,A
5973,,,2002,113131714,PEACE UNITY AND PROSPERITY FOUNDATION INC,NY,A,A99,95 54 111TH ST,RICHMOND HILL,11419.0,11419-1023,36081.0,5602.0,5600.0,200212,2002,IN,,3,AR,AR,AR,1,A,560,560.0,0.0,0.0,0,0,0,0,0,0,0,0,1,0,1,0,0,0,1,0,0,0,0,1,1,0,0,N,0,N,N,0,N,0,N,0,N,N,0,N,0,N,0,N,0,N,0,N,0,N,0,N,0,N,0,N,0,N,0,N,0,N,0,0,0,0,0,0,0,0,0,0,0,0,0,0,0,0,0,0,0,0,0,0,0,0,0,0,0,0,0,0,0,0,0,0,0,0,0,0,0,0,0,0,0,0,0,0,0,0,0,0,A99Z,199607.0,4.0,1.0,3.0,0.0,SARITA SACHOEUA,,0.0,11.0,PF,O,AR,A,1.0,1.0,1.0,0,2,-5,0.967517,12,0,0,0,1.0,,2.0,,1.0,1.0,1.0,1.0,2.0,1.0,1,U,U,U,U,U,U,U,U,1,0.0,0.0,0.0,0.0,0.0,0.0,0.0,0.0,0.0,0.0,0.0,0.0,0.0,0.0,0.0,2.0,2.0,0.0,0.0,0.0,0.0,0.0,0.0,0.0,0.0,4.0,4.0,4.0,N,NY,11419.0,RICHMOND HILL,core2002pf_ver1,PF,S,AR,A,IN,,A99,A
5987,,,2002,113137086,J Z L FOUNDATION,NY,A,A99,87 09 CLIO ST,HOLLISWOOD,11423.0,11423-1229,36081.0,5602.0,5600.0,200212,2002,IN,,3,AR,AR,AR,1,A,560,560.0,0.0,0.0,2178,0,0,50000,0,0,0,96232,52178,97380,-45202,96232,1030,1030,205531,0,0,0,0,0,205531,0,11239,N,0,N,N,2178,N,2178,N,1148,N,N,1148,N,0,N,1148,N,1148,N,205531,N,0,N,0,N,205531,N,0,N,205531,N,21,N,0,N,0,0,21,0,0,0,0,0,228212,11218,0,0,0,0,0,0,0,0,0,0,0,0,0,0,0,0,0,0,0,0,0,0,0,0,0,0,0,0,0,0,0,0,0,0,0,0,0,0,0,0,A99Z,199508.0,4.0,1.0,3.0,0.0,MICKEY WOHL,,0.0,11.0,PF,O,AR,A,1.0,1.0,2.0,0,2,-5,0.474285,12,21,0,21,1.0,,1.0,,1.0,1.0,1.0,1.0,1.0,1.0,7,U,U,U,U,U,U,U,U,3,0.0,2.0,2.0,3.0,0.0,2.0,2.0,2.0,3.0,0.0,0.0,0.0,0.0,0.0,0.0,2.0,2.0,2.0,0.0,0.0,0.0,2.0,2.0,0.0,0.0,4.0,4.0,4.0,N,NY,11423.0,HOLLISWOOD,core2002pf_ver1,PF,S,AR,A,IN,,A99,A
6005,,,2001,113162087,AMERICAN AIRPOWER MUSEUM,NY,A,A50,15 W 39TH ST,NEW YORK,10018.0,10018-3806,36061.0,5602.0,5600.0,200112,2001,IN,,3,AR,AR,AR,1,A,994,994.0,60.0,0.0,0,0,0,141612,0,345952,0,0,487564,654534,-166970,580534,0,276530,914151,0,567033,0,567033,164835,914151,0,881,N,0,N,N,0,N,345952,N,654534,N,N,0,N,580534,N,0,N,69422,N,32461,N,0,N,0,N,914151,N,0,N,749316,N,0,N,0,N,0,0,0,0,0,0,0,0,17896,0,0,0,0,0,0,0,0,0,0,0,0,0,0,0,0,0,0,0,0,0,0,0,0,0,0,0,0,0,0,0,0,0,0,0,0,0,0,0,0,0,,199308.0,4.0,1.0,3.0,0.0,AVIREX LTD,,0.0,13.0,PF,O,AR,A,1.0,1.0,1.0,0,2,-5,0.92965,12,0,0,0,1.0,,1.0,,1.0,1.0,1.0,1.0,1.0,1.0,7,U,U,U,U,U,U,U,U,7,0.0,3.0,0.0,0.0,3.0,0.0,2.0,2.0,2.0,0.0,2.0,0.0,0.0,0.0,0.0,2.0,2.0,2.0,0.0,0.0,2.0,2.0,0.0,0.0,0.0,4.0,4.0,4.0,N,NY,10018.0,NEW YORK,core2002pf_ver1,PF,S,AR,A,IN,,A50,A
6079,,,2002,113227149,CLAYWORKS ON COLUMBIA INC,NY,A,A19,195 COLUMBIA STREET,BROOKLYN,11231.0,11231-0000,36047.0,5602.0,5600.0,200306,2003,IN,,3,AR,AR,AR,1,A,91,91.0,149.0,59.0,0,0,0,0,0,50919,3500,0,50919,51192,-273,0,0,0,13530,0,0,0,0,14409,13531,0,0,N,0,N,N,0,N,0,N,51192,N,N,0,N,0,N,0,N,0,N,9551,N,0,N,0,N,13531,N,0,N,-879,N,0,N,0,N,0,0,0,0,0,0,0,0,6863,0,0,0,0,0,0,0,0,0,0,0,0,0,0,0,0,0,0,0,0,0,0,0,0,0,0,0,0,0,0,0,0,0,0,0,0,0,0,0,0,0,A47P,199612.0,4.0,1.0,3.0,0.0,,,0.0,11.0,PF,O,AR,A,3.0,1.0,1.0,0,2,-5,0.10636099999999998,6,0,0,0,1.0,,1.0,,1.0,1.0,1.0,1.0,2.0,1.0,1,U,U,U,U,U,U,U,U,1,2.0,3.0,0.0,0.0,0.0,0.0,0.0,0.0,2.0,0.0,0.0,0.0,0.0,0.0,0.0,2.0,2.0,2.0,0.0,0.0,3.0,0.0,0.0,0.0,0.0,4.0,4.0,4.0,N,NY,11231.0,BROOKLYN,core2002pf_ver1,PF,S,AR,A,IN,,A40,A
6260,,,2002,113371174,FOURTH UNITY INC,NY,A,A65,40 11 67TH ST STE 1A,WOODSIDE,11377.0,11377-8513,36081.0,5602.0,5600.0,200212,2002,IN,,3,AR,AR,AR,1,A,995,995.0,88.0,0.0,0,0,0,23687,0,9661,0,0,33348,33348,0,33348,0,0,1,0,0,0,0,1,1,0,0,N,0,N,N,0,N,0,N,33348,N,N,0,N,33348,N,0,N,0,N,0,N,0,N,0,N,0,N,0,N,0,N,0,N,0,N,0,0,0,0,0,0,0,0,0,0,0,0,0,0,0,0,0,0,0,0,0,0,0,0,0,0,0,0,0,0,0,0,0,0,0,0,0,0,0,0,0,0,0,0,0,0,0,0,0,0,A65Z,199705.0,4.0,1.0,3.0,0.0,D SMITH,,0.0,11.0,PF,O,AR,A,1.0,1.0,1.0,0,2,-5,0.34270100000000003,12,0,0,0,1.0,,1.0,,1.0,1.0,1.0,1.0,2.0,1.0,1,U,U,U,U,U,U,U,U,1,0.0,3.0,0.0,0.0,3.0,0.0,0.0,3.0,0.0,0.0,0.0,0.0,0.0,0.0,0.0,2.0,2.0,0.0,0.0,0.0,2.0,2.0,0.0,0.0,0.0,4.0,4.0,4.0,N,NY,11377.0,WOODSIDE,core2002pf_ver1,PF,S,AR,A,IN,,A65,A
6620,,,2002,113559712,HAROLD WESTON FOUNDATION,NY,A,A99,338 8TH ST 8,BROOKLYN,11215.0,11215-3339,36047.0,5602.0,5600.0,200212,2002,IN,,3,AR,AR,AR,1,A,0,0.0,0.0,0.0,0,0,-2783,0,0,0,0,0,-2783,8113,-10896,7549,0,0,2638229,0,0,0,0,0,2638793,0,0,N,0,N,N,0,N,0,Y,8113,N,N,0,N,7549,N,0,N,0,N,63488,N,0,N,0,N,2638793,N,0,N,2638229,N,0,N,0,N,0,0,0,0,0,0,0,0,0,0,1,0,0,0,1,7549,6186,0,0,13735,1,0,0,0,1,0,0,0,0,0,0,0,0,0,0,0,0,0,0,0,0,0,0,0,0,0,0,0,0,0,A51,200108.0,3.0,1.0,3.0,0.0,REBECCA FOSTER,,0.0,11.0,PF,O,AR,A,1.0,1.0,2.0,0,2,-5,0.63573,12,0,0,0,1.0,,1.0,,1.0,1.0,1.0,1.0,1.0,1.0,2,1,1,1,1,1,1,1,1,U,0.0,3.0,0.0,0.0,3.0,0.0,0.0,2.0,2.0,0.0,0.0,0.0,0.0,0.0,0.0,2.0,2.0,0.0,0.0,3.0,0.0,0.0,0.0,0.0,0.0,4.0,4.0,4.0,N,NY,11215.0,BROOKLYN,core2002pf_ver1,PF,O,AR,A,IN,,A51,A
6701,,,2001,113630680,DORSKY GALLERY CURATORIAL PROGRAMS,NY,A,A51,11 03 45TH AVE,LONG IS CITY,11101.0,11101-5109,36081.0,5602.0,5600.0,200206,2002,IN,,3,AR,AR,AR,1,A,0,0.0,0.0,0.0,0,415,15245,1352870,0,210,12206,0,1368740,178061,1190679,118457,15660,0,1203236,0,1060650,0,1060650,12557,1203236,0,48775,N,0,N,N,15660,N,5698,Y,178061,N,N,0,N,118457,N,0,N,59604,N,167,N,0,Y,0,N,1203236,N,0,N,1190679,N,313,N,0,N,0,0,313,0,0,0,0,0,1343805,0,1,0,0,0,1,118457,0,0,0,118457,1,0,0,0,1,0,0,0,0,0,0,0,0,0,0,0,0,0,0,0,0,0,0,0,0,0,0,0,0,0,A51,200204.0,3.0,1.0,3.0,0.0,DAVID DORSKY,,0.0,11.0,PF,O,AR,A,1.0,1.0,1.0,0,2,-5,0.6669470000000001,6,313,0,313,1.0,,1.0,,1.0,1.0,1.0,1.0,1.0,1.0,2,1,1,1,1,1,1,1,1,U,2.0,3.0,0.0,0.0,3.0,0.0,2.0,2.0,2.0,0.0,2.0,0.0,0.0,0.0,0.0,2.0,2.0,2.0,2.0,2.0,2.0,2.0,0.0,0.0,0.0,4.0,4.0,4.0,C,NY,11101.0,LONG IS CITY,core2002pf_ver1,PF,O,AR,A,IN,,A50,A
7110,,,2002,131655152,VAN ALEN INSTITUTE PROJECTS IN PUBLIC ARCHITECTURE,NY,A,A40,30 W 22ND ST 6TH FLR,NEW YORK,10010.0,10010-5884,36061.0,5602.0,5600.0,200212,2002,IN,,3,AR,AR,AR,1,A,59,59.0,0.0,0.0,0,145670,-388123,231461,0,19827,90000,0,549946,906058,-356112,573854,354577,374404,4922763,0,0,0,0,130674,6759924,0,346282,N,541111,Y,N,686781,N,706608,Y,906058,N,N,332204,N,573854,N,332204,N,332204,N,1796,N,0,N,3382134,N,6759924,N,0,N,4792089,N,3546,N,0,N,0,0,0,0,0,0,0,0,7031102,0,346282,362597,369313,329358,1407550,573854,607768,404191,425594,2011407,6759924,7260765,7517214,7404731,28942634,533333,533333,533333,533333,2133332,230855,241731,246209,219572,938367,231461,149772,37512,64342,483087,231461,149772,37512,64342,483087,496011,546759,491373,422721,1956864,A41Z,193804.0,3.0,1.0,1.0,200312.0,,,0.0,13.0,PF,O,AR,A,2.0,1.0,1.0,0,2,-5,0.50444,12,0,0,3546,1.0,,1.0,,1.0,1.0,1.0,1.0,1.0,7.0,1,1,1,1,1,1,1,1,1,U,2.0,3.0,0.0,3.0,3.0,2.0,2.0,2.0,2.0,0.0,0.0,0.0,0.0,2.0,0.0,2.0,2.0,2.0,2.0,2.0,2.0,2.0,0.0,2.0,0.0,4.0,4.0,4.0,N,NY,10010.0,NEW YORK,core2002pf_ver1,PF,O,AR,A,IN,,A40,A
7156,,,2002,131873289,BAGBY FOUNDATION FOR THE MUSICAL ARTS INC,NY,A,A50,501 FIFTH AVE,NEW YORK,10017.0,10017-6103,36061.0,5602.0,5600.0,200212,2002,IN,,3,AR,AR,AR,1,A,119,119.0,0.0,0.0,8,61336,-116459,14500,0,0,0,69911,-40614,146882,-187496,124340,38924,0,1730150,134947,1023058,568520,1726525,571,1884570,21484,100436,N,0,Y,N,61345,N,0,N,76970,N,N,22420,N,54428,N,22420,N,0,N,-1811,N,0,N,0,N,1884570,N,0,N,1729579,Y,389,N,0,N,0,1000,389,0,0,0,0,611,2039324,100047,0,0,0,0,0,0,0,0,0,0,0,0,0,0,0,0,0,0,0,0,0,0,0,0,0,0,0,0,0,0,0,0,0,0,0,0,0,0,0,0,A50Z,194211.0,4.0,1.0,3.0,0.0,,,0.0,13.0,PF,O,AR,A,1.0,1.0,1.0,0,2,-5,0.8664200000000001,12,-611,0,389,1.0,,2.0,,2.0,1.0,2.0,1.0,2.0,1.0,1,U,U,U,U,U,U,U,U,3,0.0,2.0,2.0,3.0,2.0,2.0,0.0,2.0,2.0,2.0,2.0,2.0,0.0,0.0,0.0,2.0,2.0,2.0,4.0,2.0,0.0,4.0,4.0,0.0,0.0,4.0,4.0,4.0,N,NY,10017.0,NEW YORK,core2002pf_ver1,PF,S,AR,A,IN,,A68,A
7183,,,2002,131966496,AUTHORS LEAGUE FUND ESTABLISHED BY THE AUTHORS LEAGUE OF AMERICA INC,NY,A,A12,31 E 28TH ST 10TH FLR,NEW YORK,10016.0,10016-7923,36061.0,5602.0,5600.0,200212,2002,IN,,3,AR,AR,AR,1,A,119,119.0,561.0,0.0,302714,4270,-38287,668995,0,-9951,0,186420,927741,323243,604498,290203,268339,269034,5478502,4983296,0,0,4983296,11599,5478502,0,0,N,0,Y,N,296338,N,297033,N,136823,N,N,27999,N,103783,N,27999,N,27999,N,9418,N,0,N,0,N,5478502,N,0,N,5466903,N,2683,N,0,N,0,0,2683,0,0,0,2,0,0,0,0,0,0,0,0,0,0,0,0,0,0,0,0,0,0,0,0,0,0,0,0,0,0,0,0,0,0,0,0,0,0,0,0,0,0,0,0,0,0,0,,193603.0,4.0,1.0,1.0,0.0,,,0.0,13.0,PF,S,ZB,A,1.0,1.0,1.0,0,2,-5,0.9111090000000001,12,2685,0,2683,1.0,,1.0,,1.0,1.0,1.0,1.0,1.0,1.0,1,U,U,U,U,U,U,U,U,1,0.0,2.0,2.0,3.0,2.0,2.0,2.0,2.0,2.0,2.0,0.0,0.0,0.0,0.0,0.0,2.0,2.0,0.0,2.0,2.0,2.0,2.0,2.0,0.0,0.0,4.0,4.0,4.0,N,NY,10016.0,NEW YORK,core2002pf_ver1,PF,S,ZB,A,IN,,A1170,A
7578,,,2002,133096058,BARBARA BARONDESS THEATRE LAB FOUNDATION INC,NY,A,A60,440 PARK AVE S 5TH,NEW YORK,10016.0,10016-8012,36061.0,5602.0,5600.0,200212,2002,IN,,3,AR,AR,AR,1,A,90,90.0,995.0,0.0,0,5896,1000,36000,0,96,0,15000,42992,17858,25134,16410,5582,0,248418,0,0,0,0,0,249071,0,10517,N,0,Y,N,6992,N,0,N,2858,N,N,1410,N,1410,N,1410,N,0,N,74170,N,0,N,174248,N,249071,N,0,N,248418,N,56,N,0,N,0,0,56,0,0,0,0,0,213548,10461,0,0,0,0,0,0,0,0,0,0,0,0,0,0,0,0,0,0,0,0,0,0,0,0,0,0,0,0,0,0,0,0,0,0,0,0,0,0,0,0,,198201.0,16.0,20.0,3.0,198312.0,ERE & CO,,0.0,13.0,PC,O,AR,A,1.0,1.0,1.0,0,2,-5,0.516475,12,56,0,56,1.0,,1.0,,1.0,1.0,1.0,1.0,1.0,1.0,1,U,U,U,U,U,U,U,U,3,0.0,2.0,2.0,3.0,2.0,2.0,0.0,2.0,2.0,0.0,0.0,0.0,0.0,2.0,0.0,2.0,2.0,2.0,2.0,2.0,2.0,2.0,0.0,0.0,0.0,4.0,4.0,4.0,N,NY,10016.0,NEW YORK,core2002pf_ver1,PF,O,AR,A,IN,,A60,A
7678,,,2002,133150248,SOCIETE DES PROFESSEORS FRANCAIS EN AMERIQUE,NY,A,A70,PO BOX 6026,NEW YORK,10150.0,10150-6026,36061.0,5602.0,5600.0,200212,2002,IN,,3,AR,AR,AR,1,A,149,149.0,0.0,0.0,1680,119064,46687,4950,0,0,0,84500,172381,138996,33385,110401,143436,0,2699305,1548930,1046156,0,2595086,0,2957814,104089,152016,N,0,N,N,167431,N,0,N,54496,N,N,23995,N,25901,N,23995,N,0,N,8024,N,0,N,0,N,2957814,N,0,N,2699305,Y,2869,N,0,N,0,8963,2869,0,0,0,0,6094,3086610,149147,0,0,0,0,0,0,0,0,0,0,0,0,0,0,0,0,0,0,0,0,0,0,0,0,0,0,0,0,0,0,0,0,0,0,0,0,0,0,0,0,,199410.0,4.0,1.0,3.0,0.0,,,0.0,13.0,PF,O,AR,A,2.0,1.0,1.0,0,2,-5,0.439403,12,-6094,0,2869,1.0,,1.0,,1.0,1.0,1.0,1.0,1.0,1.0,1,U,U,U,U,U,U,U,U,4,0.0,2.0,2.0,3.0,2.0,2.0,0.0,2.0,2.0,2.0,2.0,0.0,0.0,0.0,0.0,2.0,2.0,2.0,2.0,2.0,0.0,2.0,2.0,0.0,0.0,4.0,4.0,4.0,N,NY,10150.0,NEW YORK,core2002pf_ver1,PF,S,AR,A,IN,,B82,B
7817,,,2002,133229829,KOREAN LANGUAGE & CULTURAL INSTITUTE INC,NY,A,A23,246 5TH AVE 500,NEW YORK,10001.0,10001-7603,36061.0,5602.0,5600.0,200304,2003,IN,,3,AR,AR,AR,1,A,46,46.0,0.0,0.0,0,0,0,55515,0,0,0,100,55515,59115,-3600,0,0,0,14657,14657,0,0,14657,1003,14657,0,0,N,0,N,N,0,N,0,N,59015,N,N,0,N,0,N,0,N,0,N,0,N,0,N,0,N,14657,N,0,N,13654,N,0,N,0,N,0,0,0,0,0,0,0,0,0,0,0,0,0,0,0,0,0,0,0,0,0,0,0,0,0,0,0,0,0,0,0,0,0,0,0,0,0,0,0,0,0,0,0,0,0,0,0,0,0,0,A23Z,199101.0,4.0,1.0,3.0,0.0,,,0.0,13.0,PF,O,AR,A,1.0,1.0,1.0,0,2,-5,0.674952,4,0,0,0,1.0,,1.0,,1.0,1.0,1.0,1.0,1.0,1.0,1,U,U,U,U,U,U,U,U,1,0.0,2.0,2.0,0.0,0.0,0.0,0.0,0.0,0.0,3.0,0.0,0.0,0.0,0.0,0.0,2.0,2.0,0.0,0.0,0.0,0.0,3.0,0.0,0.0,0.0,4.0,4.0,4.0,N,NY,10001.0,NEW YORK,core2002pf_ver1,PF,S,AR,A,IN,,A23,A
8235,,,2001,133389923,THE TEREZIN FOUNDATION INC,NY,A,A31,262 CENTRAL PARK WEST,NEW YORK,10024.0,10024-3512,36061.0,5602.0,5600.0,200210,2002,IN,,3,AR,AR,AR,1,A,122,122.0,0.0,0.0,0,0,0,0,0,1067,0,0,1067,6793,-5726,1932,0,0,122902,0,0,0,0,302168,24205,0,232,N,0,N,N,0,N,1067,N,6793,N,N,0,N,1932,N,0,N,4861,N,4205,N,0,N,0,N,24205,N,0,N,-179266,N,0,N,0,N,0,0,0,0,0,0,0,0,4711,0,0,0,0,0,0,0,0,0,0,0,0,0,0,0,0,0,0,0,0,0,0,0,0,0,0,0,0,0,0,0,0,0,0,0,0,0,0,0,0,0,,198703.0,4.0,1.0,3.0,0.0,,,0.0,13.0,PF,O,AR,A,1.0,1.0,1.0,0,2,-5,0.160941,10,0,0,0,1.0,,1.0,,1.0,1.0,1.0,1.0,1.0,1.0,1,U,U,U,U,U,U,U,U,7,0.0,3.0,0.0,0.0,3.0,0.0,2.0,2.0,2.0,0.0,0.0,0.0,0.0,0.0,0.0,2.0,2.0,2.0,0.0,0.0,3.0,0.0,0.0,0.0,0.0,4.0,4.0,4.0,N,NY,10024.0,NEW YORK,core2002pf_ver1,PF,S,AR,A,IN,,A31,A
8289,,,2002,133406046,FRANCIS J GREENBURGER FOUNDATION INC,NY,A,A99,55 5TH AVE,NEW YORK,10003.0,10003-4301,36061.0,5602.0,5600.0,200212,2002,IN,,3,AR,AR,AR,1,A,0,0.0,0.0,0.0,0,0,0,2162,0,0,0,7162,2162,7285,-5123,7285,0,0,7719,0,0,0,0,0,7719,0,509,N,0,N,N,0,N,0,N,123,N,N,0,N,123,N,0,N,123,N,7719,N,0,N,0,N,7719,N,0,N,7719,N,0,N,0,N,0,0,0,0,0,0,0,0,10280,509,0,0,0,0,0,0,0,0,0,0,0,0,0,0,0,0,0,0,0,0,0,0,0,0,0,0,0,0,0,0,0,0,0,0,0,0,0,0,0,0,A40,200106.0,4.0,1.0,3.0,0.0,TIME EQUITIES INC,,0.0,13.0,PF,O,AR,A,1.0,1.0,1.0,0,2,-5,0.9347209999999999,12,0,0,0,1.0,,1.0,,1.0,1.0,1.0,1.0,1.0,1.0,1,U,U,U,U,U,U,U,U,1,0.0,2.0,2.0,0.0,2.0,0.0,2.0,3.0,3.0,0.0,0.0,0.0,0.0,0.0,0.0,2.0,2.0,2.0,0.0,0.0,0.0,3.0,0.0,0.0,0.0,4.0,4.0,4.0,N,NY,10003.0,NEW YORK,core2002pf_ver1,PF,S,AR,A,IN,,A40,A
8393,,,2002,133442712,OUTSIDE IN JULY INC,NY,A,A31,250 W 57TH ST STE 2203,NEW YORK,10019.0,10019-3741,36061.0,5602.0,5600.0,200212,2002,IN,,3,AR,AR,AR,1,A,122,122.0,0.0,0.0,68,0,0,169909,0,6946,0,0,176923,193583,-16660,191217,0,0,16965,0,0,0,0,2716,16965,0,1478,N,0,N,N,68,N,0,N,193583,N,N,68,N,191217,N,68,N,0,N,16952,N,0,N,0,N,16965,N,0,N,14249,N,0,N,0,N,0,0,0,0,0,0,0,0,30000,1478,0,0,0,0,0,0,0,0,0,0,0,0,0,0,0,0,0,0,0,0,0,0,0,0,0,0,0,0,0,0,0,0,0,0,0,0,0,0,0,0,,198810.0,4.0,1.0,3.0,0.0,J L ROSENHOUSE CPA INC,GARRISON,0.0,13.0,PF,O,AR,A,1.0,1.0,1.0,0,2,-5,0.801188,12,0,0,0,1.0,,1.0,,1.0,1.0,1.0,1.0,1.0,1.0,1,U,U,U,U,U,U,U,U,1,0.0,3.0,0.0,3.0,3.0,2.0,0.0,2.0,2.0,0.0,0.0,0.0,0.0,0.0,0.0,2.0,2.0,2.0,0.0,0.0,2.0,2.0,2.0,0.0,0.0,4.0,4.0,4.0,N,NY,10019.0,NEW YORK,core2002pf_ver1,PF,S,AR,A,IN,,A31,A
8395,,,2001,133442953,VIDEO INFORMATION NETWORK,NY,A,A31,257 W 86TH ST APT 5A,NEW YORK,10024.0,10024-3105,36061.0,5602.0,5600.0,200112,2001,IN,,3,AR,AR,AR,1,A,121,121.0,0.0,0.0,39,0,0,0,0,0,0,0,39,1236,-1197,0,39,39,6529,0,0,0,0,1220,6471,0,0,N,0,N,N,39,N,39,N,1236,N,N,0,N,0,N,0,N,0,N,4145,Y,0,N,0,N,6471,N,0,N,5309,N,1,N,0,N,0,0,1,0,1,0,0,0,0,0,0,0,0,0,0,0,0,0,0,0,0,0,0,0,0,0,0,0,0,0,0,0,0,0,0,0,0,0,0,0,0,0,0,0,0,0,0,0,0,0,,198802.0,4.0,1.0,3.0,0.0,,,0.0,13.0,PF,O,AR,A,1.0,1.0,1.0,0,2,-5,0.879574,12,0,0,1,1.0,,1.0,,1.0,1.0,1.0,1.0,1.0,1.0,1,U,U,U,U,U,U,U,U,1,0.0,3.0,0.0,0.0,0.0,0.0,0.0,0.0,2.0,0.0,0.0,0.0,0.0,0.0,0.0,2.0,2.0,0.0,0.0,0.0,0.0,0.0,3.0,0.0,0.0,4.0,4.0,4.0,N,NY,10024.0,NEW YORK,core2002pf_ver1,PF,S,AR,A,IN,,A31,A
8479,,,2002,133486646,RONALD A WILFORD FOUNDATION FOR CONDUCTORS INC,NY,A,A60,114 W 47TH ST TAXVS,NEW YORK,10036.0,10036-1510,36061.0,5602.0,5600.0,200212,2002,IN,,3,AR,AR,AR,1,A,123,123.0,0.0,0.0,2248,2887,28095,0,0,0,0,6000,33230,8297,24933,7882,32815,0,273273,100645,0,0,100645,0,272680,14014,14811,N,0,N,N,33230,N,0,N,2297,N,N,415,N,1882,N,415,N,0,N,0,N,0,N,0,N,272680,N,273273,N,273273,N,656,N,0,N,0,422,656,0,600,0,0,366,300738,14155,0,0,0,0,0,0,0,0,0,0,0,0,0,0,0,0,0,0,0,0,0,0,0,0,0,0,0,0,0,0,0,0,0,0,0,0,0,0,0,0,,198906.0,4.0,1.0,3.0,0.0,US TRUST CO OF NY,,0.0,13.0,PF,O,AR,A,1.0,1.0,1.0,0,2,-5,0.325954,12,-366,0,656,1.0,,1.0,,1.0,1.0,1.0,1.0,1.0,1.0,1,U,U,U,U,U,U,U,U,4,0.0,2.0,2.0,3.0,2.0,2.0,0.0,2.0,0.0,2.0,0.0,0.0,0.0,0.0,1.0,2.0,2.0,2.0,2.0,2.0,0.0,0.0,2.0,0.0,0.0,4.0,4.0,4.0,N,NY,10036.0,NEW YORK,core2002pf_ver1,PF,S,AR,A,IN,,A60,A
8643,,,2002,133553683,OPERA DE PARIS FOUNDATION INC,NY,A,A99,787 SEVENTH AVE,NEW YORK,10019.0,10019-6018,36061.0,5602.0,5600.0,200212,2002,IN,,3,AR,AR,AR,1,A,90,90.0,0.0,0.0,0,0,0,0,0,0,0,0,1,0,1,0,0,0,1,0,0,0,0,1,1,0,0,N,0,N,N,0,Y,0,N,0,N,N,0,N,0,N,0,N,0,N,0,N,0,N,0,N,0,N,0,N,0,N,0,N,0,N,0,0,0,0,0,0,0,0,0,0,0,0,0,0,0,0,0,0,0,0,0,0,0,0,0,0,0,0,0,0,0,0,0,0,0,0,0,0,0,0,0,0,0,0,0,0,0,0,0,0,A99Z,199004.0,4.0,1.0,3.0,0.0,% WILLKIE FARR & GALLAGHER,,0.0,13.0,PF,O,AR,A,1.0,1.0,1.0,0,2,-5,0.307325,12,0,0,0,1.0,,2.0,,1.0,1.0,1.0,1.0,2.0,1.0,1,U,U,U,U,U,U,U,U,1,0.0,0.0,0.0,0.0,0.0,0.0,0.0,0.0,0.0,0.0,0.0,0.0,0.0,0.0,0.0,2.0,2.0,0.0,0.0,0.0,0.0,0.0,0.0,0.0,0.0,4.0,4.0,4.0,N,NY,10019.0,NEW YORK,core2002pf_ver1,PF,S,AR,A,IN,,A6A,A
8647,,,2001,133556699,CHAIM GROSS MUSEUM,NY,A,A50,526 LAGUARDIA PL,NEW YORK,10012.0,10012-1401,36061.0,5602.0,5600.0,200112,2001,IN,,3,AR,AR,AR,1,A,60,60.0,0.0,0.0,22,0,0,62707,0,0,0,0,62729,58545,4184,0,22,22,4262,0,0,0,0,0,4262,0,0,N,0,N,N,22,N,22,N,58545,N,N,0,N,0,N,0,N,0,N,4262,Y,0,N,0,N,4262,N,0,N,4262,N,0,N,0,N,0,0,0,0,0,0,0,0,0,0,0,0,0,0,0,0,0,0,0,0,0,0,0,0,0,0,0,0,0,0,0,0,0,0,0,0,0,0,0,0,0,0,0,0,0,0,0,0,0,0,,199008.0,4.0,1.0,3.0,0.0,ADFEL LEVY ZLOTNICK & CO,,0.0,13.0,PF,O,AR,A,1.0,1.0,1.0,0,2,-5,0.441771,12,0,0,0,1.0,,1.0,,1.0,1.0,1.0,1.0,1.0,1.0,1,U,U,U,U,U,U,U,U,1,0.0,3.0,0.0,0.0,0.0,0.0,0.0,0.0,3.0,0.0,0.0,0.0,0.0,0.0,0.0,2.0,2.0,0.0,0.0,0.0,0.0,2.0,2.0,0.0,0.0,4.0,4.0,4.0,N,NY,10012.0,NEW YORK,core2002pf_ver1,PF,S,AR,A,IN,,A50,A
8689,,,2002,133573737,FINNISH FOUNDATION FOR VISUAL ARTS INC,NY,A,A23,799 BROADWAY RM 527,NEW YORK,10003.0,10003-6811,36061.0,5602.0,5600.0,200212,2002,IN,,3,AR,AR,AR,1,A,92,92.0,0.0,0.0,262,0,0,224859,0,0,37513,0,225121,210782,14339,209100,0,0,11749,0,0,0,0,2773,11749,0,1110,N,0,N,N,262,N,0,N,210782,N,N,262,N,209100,N,262,N,0,N,0,N,0,N,0,N,11749,N,0,N,8976,N,0,N,0,N,0,0,0,0,0,0,0,0,22529,1110,0,0,0,0,0,0,0,0,0,0,0,0,0,0,0,0,0,0,0,0,0,0,0,0,0,0,0,0,0,0,0,0,0,0,0,0,0,0,0,0,A23Z,199011.0,4.0,1.0,3.0,0.0,CHRISTY & VIENER,,0.0,13.0,PF,O,AR,A,1.0,1.0,1.0,0,2,-5,0.011407200000000001,12,0,0,0,1.0,,1.0,,1.0,1.0,1.0,1.0,1.0,1.0,1,U,U,U,U,U,U,U,U,1,2.0,3.0,0.0,3.0,3.0,2.0,0.0,2.0,0.0,0.0,0.0,0.0,0.0,0.0,0.0,2.0,2.0,2.0,0.0,0.0,0.0,2.0,2.0,0.0,0.0,4.0,4.0,4.0,N,NY,10003.0,NEW YORK,core2002pf_ver1,PF,S,AR,A,IN,,A23,A
8690,,,2002,133573803,FILM FOUNDATION INC,NY,A,A31,445 PARK AVE 7TH FLR,NEW YORK,10022.0,10022-2606,36061.0,5602.0,5600.0,200212,2002,IN,,3,AR,AR,AR,1,A,119,119.0,0.0,0.0,2984,0,0,433450,0,373,0,853599,436807,927234,-490427,927234,2984,2984,194,0,0,0,0,0,582,0,16603,N,0,N,N,2984,N,2984,N,73635,N,N,0,N,73635,N,0,N,0,N,194,N,0,N,0,N,582,N,0,N,194,N,60,N,0,N,0,0,60,0,60,0,0,0,337116,16543,0,0,0,0,0,0,0,0,0,0,0,0,0,0,0,0,0,0,0,0,0,0,0,0,0,0,0,0,0,0,0,0,0,0,0,0,0,0,0,0,,199008.0,4.0,1.0,3.0,0.0,STARR & COMPANY,,0.0,13.0,PF,O,AR,A,1.0,1.0,1.0,0,2,-5,0.679375,12,0,0,60,1.0,,1.0,,1.0,1.0,1.0,1.0,1.0,1.0,7,U,U,U,U,U,U,U,U,3,0.0,2.0,2.0,0.0,2.0,0.0,0.0,3.0,3.0,0.0,0.0,0.0,0.0,0.0,0.0,2.0,2.0,1.0,0.0,0.0,2.0,2.0,2.0,0.0,0.0,4.0,4.0,4.0,N,NY,10022.0,NEW YORK,core2002pf_ver1,PF,S,AR,A,IN,,A31,A
8727,,,2002,133591085,LISETTE MODEL FOUNDATION INC,NY,A,A40,270 MADISON AVE,NEW YORK,10016.0,10016-0601,36061.0,5602.0,5600.0,200212,2002,IN,,3,AR,AR,AR,1,A,91,91.0,0.0,0.0,0,4503,0,0,0,900,0,5000,5403,12067,-6664,0,0,0,549568,0,0,0,0,26000,549568,0,0,N,0,N,N,5403,N,5403,N,7067,N,N,7067,N,0,N,7067,N,7067,N,0,N,235000,N,0,N,549568,N,0,N,523568,N,0,N,0,N,0,0,0,0,0,0,0,0,0,0,0,0,0,0,0,0,0,0,0,0,0,0,0,0,0,0,0,0,0,0,0,0,0,0,0,0,0,0,0,0,0,0,0,0,0,0,0,0,0,0,A42Z,199604.0,4.0,1.0,3.0,0.0,BLUM GERSEN AND WOOD ESQ,,0.0,11.0,PF,O,AR,A,1.0,1.0,1.0,0,2,-5,0.967777,12,0,0,0,1.0,,1.0,,1.0,1.0,1.0,1.0,1.0,1.0,1,U,U,U,U,U,U,U,U,1,0.0,2.0,2.0,3.0,0.0,2.0,2.0,0.0,0.0,0.0,0.0,0.0,2.0,0.0,0.0,2.0,2.0,0.0,2.0,0.0,2.0,0.0,0.0,0.0,0.0,4.0,4.0,4.0,N,NY,10016.0,NEW YORK,core2002pf_ver1,PF,S,AR,A,IN,,A40,A
8882,,,2002,133646023,FRIENDS OF OHEL MOSHE INSTITUTE INC,NY,A,A19,120 W 31ST ST,NEW YORK,10001.0,10001-3407,36061.0,5602.0,5600.0,200212,2002,IN,,3,AR,AR,AR,1,A,200,200.0,0.0,0.0,1196,0,0,738409,0,0,0,571667,739605,631881,107724,631881,0,0,117259,0,0,0,0,0,117259,0,8897,N,0,N,N,1196,N,1196,N,60214,N,N,1196,N,60214,N,1196,N,1196,N,117259,N,0,N,0,N,117259,N,0,N,117259,N,0,N,0,N,0,0,0,0,0,0,0,0,180656,8897,0,0,0,0,0,0,0,0,0,0,0,0,0,0,0,0,0,0,0,0,0,0,0,0,0,0,0,0,0,0,0,0,0,0,0,0,0,0,0,0,O50,199411.0,15.0,10.0,3.0,0.0,ELI MENDLOWITZ,,0.0,13.0,PC,O,AR,A,1.0,1.0,1.0,0,2,-5,0.502185,12,0,0,0,1.0,,1.0,,1.0,1.0,1.0,1.0,1.0,1.0,1,U,U,U,U,U,U,U,U,1,0.0,2.0,2.0,3.0,2.0,2.0,2.0,3.0,3.0,0.0,0.0,0.0,0.0,0.0,0.0,2.0,2.0,2.0,0.0,0.0,0.0,2.0,2.0,0.0,0.0,4.0,4.0,4.0,N,NY,10001.0,NEW YORK,core2002pf_ver1,PF,O,AR,A,IN,,A19,A
8932,,,2002,133674360,CIVITELLA RANIERI FOUNDATION,NY,A,A20,350 5TH AVE STE 5019,NEW YORK,10118.0,10118-5019,36061.0,5602.0,5600.0,200212,2002,IN,,3,AR,AR,AR,1,A,90,90.0,62.0,93.0,57,237478,-2529532,6663,0,0,119059,0,-2285334,982068,-3267402,778455,134310,134310,2249502,0,0,0,0,0,2249502,0,542589,N,0,Y,N,237535,Y,237535,N,982068,N,N,103225,N,778455,Y,103225,N,103225,N,0,N,0,N,0,N,2249502,N,0,N,2249502,Y,1343,N,0,N,0,7393,1343,0,0,0,0,0,11017045,0,0,0,0,0,0,0,0,0,0,0,0,0,0,0,0,0,0,0,0,0,0,0,0,0,0,0,0,0,0,0,0,0,0,0,0,0,0,0,0,0,A20,199302.0,4.0,1.0,3.0,0.0,JD MILLER & CO LLP,,0.0,13.0,PF,O,AR,A,1.0,1.0,2.0,0,2,-5,0.729016,12,-6050,6050,1343,1.0,,1.0,,1.0,1.0,1.0,1.0,1.0,1.0,7,U,U,U,U,U,U,U,U,7,2.0,3.0,0.0,3.0,3.0,2.0,2.0,2.0,0.0,0.0,0.0,0.0,0.0,0.0,0.0,2.0,2.0,2.0,4.0,2.0,0.0,4.0,4.0,0.0,0.0,4.0,4.0,4.0,C,NY,10118.0,NEW YORK,core2002pf_ver1,PF,S,AR,A,IN,,A20,A
8963,,,2002,133685701,LIVING ARTS INC,NY,A,A26,250 W 57TH ST,NEW YORK,10019.0,10019-3741,36061.0,5602.0,5600.0,200212,2002,IN,,3,AR,AR,AR,1,A,90,90.0,0.0,0.0,0,0,0,0,-34623,0,0,0,-34623,935,-35558,0,0,0,190642,0,0,0,0,0,1,0,0,N,0,N,N,0,N,-34623,N,935,N,N,0,N,0,N,0,N,935,N,1203,N,0,N,0,N,0,N,0,N,190642,N,0,N,0,N,0,0,0,0,0,0,0,0,0,0,0,0,0,0,0,0,0,0,0,0,0,0,0,0,0,0,0,0,0,0,0,0,0,0,0,0,0,0,0,0,0,0,0,0,0,0,0,0,0,0,A60Z,199305.0,4.0,1.0,3.0,0.0,PETER KLEIN,,0.0,13.0,PF,O,AR,A,1.0,1.0,1.0,49623,2,-5,0.204065,12,0,0,0,1.0,,1.0,,1.0,1.0,1.0,1.0,1.0,1.0,1,U,U,U,U,U,U,U,U,1,0.0,3.0,0.0,0.0,0.0,0.0,3.0,0.0,2.0,0.0,0.0,0.0,0.0,0.0,0.0,2.0,1.0,0.0,0.0,0.0,0.0,0.0,0.0,0.0,3.0,4.0,4.0,4.0,N,NY,10019.0,NEW YORK,core2002pf_ver1,PF,S,AR,A,IN,,A26,A
8984,,,2002,133693565,CROWING ROOSTER ARTS INC,NY,A,A20,180 W BROADWAY RM 302,NEW YORK,10013.0,10013-2906,36061.0,5602.0,5600.0,200306,2003,IN,,3,AR,AR,AR,1,A,994,994.0,122.0,0.0,636,3910,536115,805998,-644549,0,61479,0,702110,172841,529269,73844,535988,0,283692,0,0,0,0,94965,300682,0,14676,N,0,Y,N,540661,N,-640003,N,172841,N,Y,4673,N,73844,N,4673,N,87860,N,89022,N,0,N,149381,N,300682,N,0,N,188727,N,5360,N,0,N,0,1384,5360,0,0,0,127,0,297989,0,0,0,0,0,0,0,0,0,0,0,0,0,0,0,0,0,0,0,0,0,0,0,0,0,0,0,0,0,0,0,0,0,0,0,0,0,0,0,0,0,,199306.0,4.0,1.0,3.0,199706.0,,,0.0,13.0,PF,O,AR,A,1.0,1.0,1.0,651341,2,-5,0.357202,6,4103,0,5360,1.0,,1.0,,1.0,1.0,1.0,1.0,1.0,1.0,1,U,U,U,U,U,U,U,U,7,2.0,3.0,0.0,3.0,3.0,2.0,2.0,2.0,2.0,0.0,0.0,0.0,0.0,2.0,0.0,2.0,2.0,2.0,2.0,2.0,0.0,4.0,2.0,0.0,2.0,4.0,4.0,4.0,N,NY,10013.0,NEW YORK,core2002pf_ver1,PF,S,AR,A,IN,,A20,A
9044,GS,JDD,2002,133719303,KAWAMURA CULTURAL FOUNDATION INC,NY,A,A70,675 3RD AVE STE 3008,NEW YORK,10017.0,10017-5704,36061.0,5602.0,5600.0,200303,2003,IN,,3,AR,AR,AR,1,A,914,914.0,119.0,0.0,0,0,0,0,0,0,0,0,0,788,-788,0,0,0,305,0,0,0,0,31387,305,0,15,N,0,N,N,0,N,0,Y,788,N,N,0,N,0,N,0,N,0,N,305,N,0,N,0,N,305,N,0,N,-31082,N,0,N,0,N,0,0,0,0,0,0,0,0,305,0,1,0,0,0,1,0,0,0,0,0,1,0,0,0,1,0,0,0,0,0,10,15,9,37,71,0,0,0,0,0,0,0,0,0,0,0,0,0,0,0,A75Z,199504.0,3.0,1.0,3.0,0.0,KISO & TANAKA,,0.0,13.0,PF,O,AR,A,2.0,1.0,1.0,0,2,-5,0.564496,3,0,0,0,1.0,M,1.0,,1.0,1.0,1.0,1.0,1.0,1.0,2,1,1,1,1,1,1,1,1,U,0.0,3.0,0.0,0.0,0.0,0.0,0.0,0.0,3.0,0.0,0.0,0.0,0.0,0.0,0.0,2.0,2.0,2.0,0.0,0.0,0.0,0.0,0.0,0.0,0.0,4.0,4.0,4.0,N,NY,10017.0,NEW YORK,core2002pf_ver1,PF,O,AR,A,IN,,A1220,A
9137,,,2001,133747492,INTERNATIONAL CENTER OF DESIGN ART TO GOD TO THE WORLD AND TO MAN INC,NY,A,A12,845 THIRD AVE 12TH FLR,NEW YORK,10022.0,10022-6601,36061.0,5602.0,5600.0,200206,2002,IN,,3,AR,AR,AR,1,A,994,994.0,119.0,63.0,13,0,0,0,0,0,0,0,13,0,13,0,13,13,3323,0,0,0,0,70706,3323,0,142,N,0,N,N,13,N,13,N,0,N,N,0,N,0,N,0,N,0,N,3323,N,0,N,0,N,3323,N,0,N,-67383,N,0,N,0,N,0,0,0,0,0,0,0,0,2881,0,0,0,0,0,0,0,0,0,0,0,0,0,0,0,0,0,0,0,0,0,0,0,0,0,0,0,0,0,0,0,0,0,0,0,0,0,0,0,0,0,A20J,199505.0,4.0,1.0,3.0,0.0,WOLF POPPER LLP,,0.0,13.0,PF,S,ZB,A,1.0,1.0,1.0,0,2,-5,0.241204,6,0,0,0,1.0,,1.0,,1.0,1.0,1.0,1.0,1.0,1.0,2,U,U,U,U,U,U,U,U,7,0.0,0.0,0.0,0.0,0.0,0.0,0.0,0.0,3.0,0.0,0.0,0.0,0.0,0.0,0.0,2.0,2.0,2.0,0.0,0.0,0.0,0.0,3.0,0.0,0.0,4.0,4.0,4.0,N,NY,10022.0,NEW YORK,core2002pf_ver1,PF,S,ZB,A,IN,,A20,A
9139,,,2001,133747781,INSTITUTE FOR COOPERATION OF ART AND RESEARCH INC,NY,A,A25,77 BLEECKER ST APT C214,NEW YORK,10012.0,10012-1556,36061.0,5602.0,5600.0,200211,2002,IN,,3,AR,AR,AR,1,A,994,994.0,199.0,0.0,8970,23972,-28830,55492,0,10670,2600,0,70274,462046,-391772,451982,32887,68668,1801184,0,1669016,0,1669016,75682,1391359,0,77350,N,0,Y,N,32942,N,68668,Y,462046,N,N,55,N,451982,Y,55,N,0,N,3897,N,0,N,0,N,1391359,N,0,N,1725502,N,329,N,0,N,0,3596,329,0,0,0,0,3267,1570566,0,68668,72118,77386,39310,257482,451982,386850,149767,35469,1024068,1,0,0,0,1,0,0,0,0,0,51567,74788,42517,26271,195143,0,0,0,0,0,0,0,0,0,0,0,0,0,0,0,,199405.0,3.0,1.0,3.0,0.0,PLOTNITSKY,,0.0,13.0,PF,O,AR,A,1.0,1.0,1.0,0,2,-5,0.660509,11,-3267,0,329,1.0,,1.0,,1.0,1.0,1.0,1.0,1.0,1.0,1,1,1,1,1,1,1,1,1,U,2.0,3.0,0.0,3.0,3.0,2.0,0.0,2.0,2.0,0.0,2.0,0.0,0.0,0.0,0.0,2.0,2.0,2.0,2.0,2.0,2.0,2.0,2.0,0.0,0.0,4.0,4.0,4.0,N,NY,10012.0,NEW YORK,core2002pf_ver1,PF,O,AR,A,IN,,A25,A
9213,,,2001,133772926,V I A ART INC,NY,A,A51,15 W 24TH ST 7TH FLR,NEW YORK,10010.0,10010-3214,36061.0,5602.0,5600.0,200112,2001,IN,,3,AR,AR,AR,1,A,994,994.0,91.0,0.0,64,0,0,13564,0,0,0,0,13564,13537,27,13537,64,64,2828,0,0,0,0,0,2828,185,186,N,0,N,N,64,N,64,N,13537,N,N,0,N,13537,N,0,N,0,N,0,N,0,N,0,N,2828,N,0,N,2828,N,1,N,0,N,0,0,1,0,200,0,0,0,3778,185,0,0,0,0,0,0,0,0,0,0,0,0,0,0,0,0,0,0,0,0,0,0,0,0,0,0,0,0,0,0,0,0,0,0,0,0,0,0,0,0,A51Z,199505.0,4.0,1.0,3.0,199712.0,FRANK E BUNTS,,0.0,13.0,PF,O,AR,A,1.0,1.0,1.0,0,2,-5,0.775319,12,-199,199,1,1.0,,3.0,,1.0,1.0,1.0,1.0,1.0,1.0,7,U,U,U,U,U,U,U,U,2,0.0,3.0,0.0,0.0,3.0,0.0,0.0,3.0,0.0,0.0,0.0,0.0,0.0,0.0,0.0,2.0,2.0,2.0,0.0,0.0,0.0,3.0,2.0,0.0,0.0,4.0,4.0,4.0,N,NY,10010.0,NEW YORK,core2002pf_ver1,PF,S,AR,A,IN,,A51,A
9240,,,2002,133781874,COBY FOUNDATION LTD,NY,A,A51,1 CHASE MANHATTAN PLZ,NEW YORK,10005.0,10005-1401,36061.0,5602.0,5600.0,200212,2002,IN,,3,AR,AR,AR,1,A,60,60.0,0.0,0.0,1315,9419,3731,663570,0,0,46255,51000,678035,149522,528513,104078,0,0,729284,0,0,97691,97691,0,738664,0,24242,N,0,Y,N,14465,N,0,N,98522,N,N,45444,N,53078,Y,45444,N,0,N,24566,N,0,N,0,N,738664,N,0,N,729284,N,0,N,0,N,0,211,0,0,0,0,0,211,492214,24242,0,0,0,0,0,0,0,0,0,0,0,0,0,0,0,0,0,0,0,0,0,0,0,0,0,0,0,0,0,0,0,0,0,0,0,0,0,0,0,0,A51Z,199503.0,4.0,1.0,3.0,0.0,MILBANK TWEED HADLEY & MCCLOY,,0.0,13.0,PF,O,AR,A,1.0,1.0,1.0,0,2,-5,0.879575,12,-211,0,0,1.0,,1.0,,1.0,1.0,1.0,1.0,1.0,1.0,1,U,U,U,U,U,U,U,U,1,2.0,2.0,2.0,3.0,2.0,2.0,0.0,2.0,2.0,0.0,0.0,2.0,0.0,0.0,0.0,2.0,2.0,2.0,2.0,2.0,0.0,2.0,2.0,0.0,0.0,4.0,4.0,4.0,N,NY,10005.0,NEW YORK,core2002pf_ver1,PF,S,AR,A,IN,,A51,A
9274,,,2002,133794021,GOTTLIEB-SCHWARTZ FAMILY FOUNDATION INC,NY,A,A60,724 COLLFIELD AVE,STATEN ISLAND,10314.0,10314-4253,36085.0,5602.0,5600.0,200212,2002,IN,,3,AR,AR,AR,1,A,602,602.0,0.0,0.0,46,0,0,70000,0,0,0,69500,70046,69515,531,69500,31,46,1084,0,0,0,0,0,1084,0,83,N,0,Y,N,46,N,46,N,15,N,N,15,N,0,N,15,N,0,N,0,N,0,N,0,N,1084,N,0,N,1084,N,0,N,0,N,0,0,0,0,0,0,0,0,1690,83,0,0,0,0,0,0,0,0,0,0,0,0,0,0,0,0,0,0,0,0,0,0,0,0,0,0,0,0,0,0,0,0,0,0,0,0,0,0,0,0,A60Z,199505.0,4.0,1.0,3.0,0.0,WEISS & COMPANY,,0.0,13.0,PF,O,AR,A,1.0,1.0,1.0,0,2,-5,0.00696479,12,0,0,0,1.0,,1.0,,1.0,1.0,1.0,1.0,1.0,1.0,7,U,U,U,U,U,U,U,U,1,0.0,2.0,2.0,3.0,0.0,2.0,0.0,2.0,0.0,0.0,0.0,0.0,0.0,0.0,0.0,2.0,2.0,2.0,0.0,0.0,0.0,2.0,2.0,0.0,0.0,4.0,4.0,4.0,N,NY,10314.0,STATEN ISLAND,core2002pf_ver1,PF,S,AR,A,IN,,A60,A
9280,,,2001,133795843,DEANE & SUSAN PENN ART FOUNDATION INC,NY,A,A51,350 FIFTH AVE STE 2822,NEW YORK,10118.0,10118-2899,36061.0,5602.0,5600.0,200209,2002,IN,,3,AR,AR,AR,1,A,559,559.0,0.0,0.0,840,17256,25918,17718,0,40324,0,23000,102056,27152,74904,23000,84338,58420,570287,0,32228,0,32228,0,711730,0,18899,N,0,N,N,84338,N,58420,Y,4152,N,N,0,N,0,N,0,N,0,N,7446,N,0,N,289999,N,472679,N,0,N,570287,N,1687,N,0,N,0,0,1687,0,0,0,0,0,383735,0,18899,0,0,0,18899,0,0,0,0,0,18899,0,0,0,18899,0,0,0,0,0,0,0,0,0,0,0,0,0,0,0,0,0,0,0,0,0,0,0,0,0,A51Z,199507.0,3.0,1.0,3.0,0.0,L WOLLIN,,0.0,13.0,PF,O,AR,A,1.0,1.0,1.0,0,2,-5,0.5786180000000001,9,1687,0,1687,1.0,,1.0,,1.0,1.0,1.0,1.0,1.0,1.0,1,1,1,1,1,1,1,1,1,U,0.0,2.0,2.0,0.0,0.0,0.0,0.0,2.0,2.0,0.0,2.0,0.0,0.0,2.0,0.0,2.0,2.0,2.0,2.0,2.0,2.0,2.0,2.0,0.0,0.0,4.0,4.0,4.0,N,NY,10118.0,NEW YORK,core2002pf_ver1,PF,O,AR,A,IN,,A12,A
9286,,,2002,133797072,KAUFMANN-MARX FOUNDATION FOR TRANSATLANTIC CHRISTIAN-JEWISH DIA,NY,A,A70,77 E 12TH ST 20E,NEW YORK,10003.0,10003-5009,36061.0,5602.0,5600.0,200212,2002,IN,,3,AR,AR,AR,1,A,124,124.0,123.0,0.0,0,0,0,903,0,0,0,0,903,1161,-258,0,0,0,21145,0,20954,0,20954,0,201,0,16,N,0,N,N,0,N,0,N,1161,N,N,0,N,0,N,0,N,1161,N,0,N,0,N,0,N,201,N,0,N,21145,N,0,N,0,N,0,0,0,0,0,0,0,0,329,16,0,0,0,0,0,0,0,0,0,0,0,0,0,0,0,0,0,0,0,0,0,0,0,0,0,0,0,0,0,0,0,0,0,0,0,0,0,0,0,0,A70Z,199503.0,4.0,1.0,3.0,0.0,GEORGE KAUFMANN,,0.0,13.0,PF,O,AR,A,1.0,1.0,1.0,0,2,-5,0.834858,12,0,0,0,1.0,,1.0,,1.0,1.0,1.0,1.0,1.0,1.0,1,U,U,U,U,U,U,U,U,1,0.0,3.0,0.0,0.0,0.0,0.0,3.0,0.0,0.0,0.0,2.0,0.0,0.0,0.0,0.0,2.0,1.0,2.0,0.0,0.0,0.0,3.0,0.0,0.0,0.0,4.0,4.0,4.0,N,NY,10003.0,NEW YORK,core2002pf_ver1,PF,S,AR,A,IN,,X20,X
9305,,,2002,133798585,POMEGRANATE FOUNDATION TR,NY,A,A99,1155 PARK AVE STE 11N W,NEW YORK,10128.0,10128-1209,36061.0,5602.0,5600.0,200212,2002,IN,,3,AR,AR,AR,1,A,602,602.0,0.0,0.0,0,15118,21291,0,0,0,0,34000,36409,34524,1885,34000,33851,14594,617909,11250,569211,20755,601216,153,617909,0,35227,N,0,N,N,34375,N,15118,N,524,N,N,524,N,0,N,524,N,524,N,15142,N,0,N,0,N,617909,N,0,N,617756,N,339,N,0,N,0,840,339,0,0,0,0,501,715265,34888,0,0,0,0,0,0,0,0,0,0,0,0,0,0,0,0,0,0,0,0,0,0,0,0,0,0,0,0,0,0,0,0,0,0,0,0,0,0,0,0,A99Z,199505.0,4.0,1.0,3.0,0.0,KATHLEEN PERATIS,,0.0,13.0,PF,O,AR,A,1.0,1.0,2.0,0,2,-5,0.9035219999999999,12,-501,0,677,7.0,,1.0,,1.0,1.0,1.0,1.0,1.0,1.0,7,U,U,U,U,U,U,U,U,3,0.0,2.0,2.0,3.0,0.0,2.0,2.0,2.0,2.0,2.0,2.0,2.0,0.0,0.0,0.0,2.0,2.0,2.0,2.0,2.0,0.0,0.0,0.0,0.0,0.0,4.0,4.0,4.0,N,NY,10128.0,NEW YORK,core2002pf_ver1,PF,S,AR,A,IN,,T22,T
9330,,,2001,133800381,THE GODINGER LEFKOWITZ MEMORIAL FOUNDATION INC,NY,A,A80,63 15 TRAFFIC AVE,RIDGEWOOD,11385.0,11385-2629,36081.0,5602.0,5600.0,200211,2002,IN,,3,AR,AR,AR,1,A,994,994.0,602.0,0.0,0,0,0,875000,0,0,0,835476,875000,835691,39309,835691,0,0,76694,0,0,0,0,0,76694,0,2638,N,0,N,N,0,N,0,N,215,N,N,0,N,215,N,0,N,0,N,76694,N,0,N,0,N,76694,N,0,N,76694,N,0,N,0,N,0,0,0,0,0,0,0,0,53572,2638,0,0,0,0,0,0,0,0,0,0,0,0,0,0,0,0,0,0,0,0,0,0,0,0,0,0,0,0,0,0,0,0,0,0,0,0,0,0,0,0,B99I,199505.0,4.0,1.0,3.0,199911.0,,,0.0,11.0,PF,O,AR,A,1.0,1.0,1.0,0,2,-5,0.434179,11,0,0,0,1.0,,1.0,,1.0,1.0,1.0,1.0,1.0,1.0,1,U,U,U,U,U,U,U,U,1,0.0,2.0,2.0,0.0,2.0,0.0,0.0,3.0,3.0,0.0,0.0,0.0,0.0,0.0,0.0,2.0,2.0,2.0,0.0,0.0,0.0,3.0,0.0,0.0,0.0,4.0,4.0,4.0,N,NY,11385.0,RIDGEWOOD,core2002pf_ver1,PF,S,AR,A,IN,,B99,B
9351,,,2001,133801734,HARRY M STEVENS FAMILY FOUNDATION INC,NY,A,A99,186 RIVERSIDE DR APT 16D,NEW YORK,10024.0,10024-1007,36061.0,5602.0,5600.0,200206,2002,IN,,3,AR,AR,AR,1,A,119,119.0,0.0,0.0,4784,0,0,0,0,0,0,0,4784,3316,1468,0,4784,4784,357123,0,0,0,0,2,385008,16524,16620,N,0,N,N,4784,N,4784,N,3316,N,N,0,N,0,N,0,N,0,N,89,Y,0,N,99255,N,385008,N,0,N,357121,N,96,N,0,N,0,0,96,0,96,0,0,0,337458,16524,0,0,0,0,0,0,0,0,0,0,0,0,0,0,0,0,0,0,0,0,0,0,0,0,0,0,0,0,0,0,0,0,0,0,0,0,0,0,0,0,A99Z,199601.0,4.0,1.0,3.0,0.0,WILLIAM M HUNT,,0.0,13.0,PF,O,AR,A,1.0,1.0,1.0,0,2,-5,0.771848,6,0,0,96,1.0,,1.0,,1.0,1.0,1.0,1.0,1.0,1.0,7,U,U,U,U,U,U,U,U,3,0.0,3.0,0.0,0.0,0.0,0.0,0.0,0.0,2.0,0.0,0.0,0.0,0.0,2.0,0.0,2.0,2.0,2.0,0.0,0.0,0.0,0.0,3.0,0.0,0.0,4.0,4.0,4.0,N,NY,10024.0,NEW YORK,core2002pf_ver1,PF,S,AR,A,IN,,A99,A
9353,,,2002,133802490,FOUNDATION FOR HELLENIC CULTURE INC,NY,A,A70,7 W 57TH ST,NEW YORK,10019.0,10019-3404,36061.0,5602.0,5600.0,200212,2002,IN,,3,AR,AR,AR,1,A,93,93.0,0.0,0.0,325,0,0,492290,0,19603,0,215197,512218,590593,-78375,215197,325,5482,206473,0,0,0,0,5308,206473,0,2234,N,0,N,N,325,N,19928,Y,375396,N,N,0,N,0,N,0,N,14446,N,65324,N,0,N,0,N,206473,N,0,N,201165,N,7,N,0,N,0,0,7,0,0,0,0,0,45363,0,2234,0,0,1034,3268,215197,171726,246002,363797,996722,0,0,230996,317667,548663,0,0,0,129825,129825,0,0,0,0,0,0,0,0,0,0,0,0,0,0,0,0,0,0,0,0,A76Z,199504.0,3.0,1.0,3.0,0.0,E MYRIVILI,,0.0,13.0,PF,O,AR,A,1.0,1.0,1.0,0,2,-5,0.255161,12,7,0,7,1.0,,1.0,,1.0,1.0,1.0,1.0,1.0,1.0,1,1,1,1,1,1,1,1,1,U,0.0,2.0,2.0,0.0,0.0,0.0,2.0,2.0,2.0,0.0,0.0,0.0,0.0,0.0,0.0,2.0,2.0,2.0,0.0,0.0,2.0,2.0,2.0,0.0,0.0,4.0,4.0,4.0,N,NY,10019.0,NEW YORK,core2002pf_ver1,PF,O,AR,A,IN,,A12,A
9368,,,2002,133809561,ARTUR BALSAM FOUNDATION FOR CHAMBER MUSIC,NY,A,A50,825 W END AVE STE 2C,NEW YORK,10025.0,10025-5349,36061.0,5602.0,5600.0,200212,2002,IN,,3,AR,AR,AR,1,A,90,90.0,0.0,0.0,11532,5223,-22206,1000,0,0,0,0,-4451,88945,-93396,80208,8190,8190,533206,148667,362513,0,511180,0,465865,0,41220,N,0,N,N,16927,N,16927,N,88945,N,N,8737,N,80208,N,8737,N,8737,N,0,N,0,N,0,N,465865,N,0,N,533206,N,164,N,0,N,0,584,164,0,0,0,0,420,836951,41056,0,0,0,0,0,0,0,0,0,0,0,0,0,0,0,0,0,0,0,0,0,0,0,0,0,0,0,0,0,0,0,0,0,0,0,0,0,0,0,0,A50Z,199505.0,4.0,1.0,3.0,0.0,MOSHE MIRSKY,,0.0,13.0,PF,O,AR,A,1.0,1.0,1.0,0,2,-5,0.9308290000000001,12,-420,0,164,1.0,,1.0,,1.0,1.0,1.0,1.0,1.0,1.0,7,U,U,U,U,U,U,U,U,3,0.0,3.0,0.0,3.0,3.0,2.0,2.0,2.0,0.0,2.0,2.0,0.0,0.0,0.0,0.0,2.0,2.0,2.0,4.0,2.0,0.0,4.0,4.0,0.0,0.0,4.0,4.0,4.0,N,NY,10025.0,NEW YORK,core2002pf_ver1,PF,S,AR,A,IN,,A6C,A
9372,,,2002,133811670,HAPPY ORGANIZATION,NY,A,A70,240 E 35TH ST APT 11A,NEW YORK,10016.0,10016-4220,36061.0,5602.0,5600.0,200212,2002,IN,,3,AR,AR,AR,1,A,995,995.0,92.0,0.0,0,0,0,2939,0,0,0,0,2939,0,2939,0,0,0,1,0,0,0,0,1,1,0,0,N,0,N,N,0,N,0,N,0,N,N,0,N,0,N,0,N,0,N,0,N,0,N,0,N,0,N,0,N,0,N,0,N,0,N,0,0,0,0,0,0,0,0,0,0,0,0,0,0,0,0,0,0,0,0,0,0,0,0,0,0,0,0,0,0,0,0,0,0,0,0,0,0,0,0,0,0,0,0,0,0,0,0,0,0,A76Z,199510.0,4.0,1.0,3.0,0.0,DAN PEYTON,,0.0,13.0,PF,O,AR,A,1.0,1.0,5.0,0,2,-5,0.297993,12,0,0,0,1.0,,1.0,,1.0,1.0,1.0,1.0,2.0,1.0,1,U,U,U,U,U,U,U,U,1,0.0,0.0,0.0,0.0,0.0,0.0,0.0,0.0,0.0,0.0,0.0,0.0,0.0,0.0,0.0,2.0,2.0,0.0,0.0,0.0,0.0,3.0,0.0,0.0,0.0,4.0,4.0,4.0,N,NY,10016.0,NEW YORK,core2002pf_ver1,PF,S,AR,A,IN,,A70,A
9386,,,2001,133832587,INSTITUTE FOR AEGEAN PREHISTORY STUDY CENTER FOR EAST CRETE,NY,A,A11,1270 6TH AVE,NEW YORK,10020.0,10020-1700,36061.0,5602.0,5600.0,200206,2002,IN,,3,AR,AR,AR,1,A,60,60.0,199.0,119.0,88,223,0,472489,0,10414,10000,0,483214,418344,64870,387611,311,0,279075,0,0,0,0,0,279075,0,10844,N,0,N,N,311,N,10725,Y,418344,N,N,0,N,387611,N,0,N,13195,N,2779,N,0,N,0,N,279075,N,0,N,279075,N,6,N,0,N,0,7,6,0,10,0,0,11,220178,0,1,4750,4204,0,8955,387611,326358,333083,264688,1311740,1,0,0,0,1,0,0,0,0,0,7229,3167,2803,3484,16683,0,0,0,0,0,0,0,0,0,0,0,0,0,0,0,A56I,199508.0,3.0,1.0,3.0,0.0,MILLBURN CORPORATION,,0.0,13.0,PF,S,ZA,A,1.0,1.0,1.0,0,2,-5,0.631045,6,-11,0,6,1.0,,1.0,,1.0,1.0,1.0,1.0,1.0,1.0,2,2,1,1,1,1,1,1,1,U,2.0,3.0,0.0,0.0,3.0,0.0,2.0,2.0,2.0,0.0,0.0,0.0,0.0,0.0,0.0,2.0,2.0,2.0,2.0,0.0,2.0,2.0,2.0,0.0,0.0,4.0,4.0,4.0,N,NY,10020.0,NEW YORK,core2002pf_ver1,PF,S,ZA,A,IN,,A70,A
9394,GS,JDD,2002,133838457,PIERRE AND MARIA GAETANA MATISSE FOUNDATION,NY,A,A40,ONE E 53RD ST,NEW YORK,10022.0,10022-4200,36061.0,5602.0,5600.0,200212,2002,IN,,3,AR,AR,AR,1,A,91,91.0,0.0,0.0,4129,64282,-62008,84017575,0,0,0,61983200,84023978,62238872,21785106,62183834,13973,0,24033407,5096189,3062082,0,8158271,0,24033407,0,599461,N,0,Y,N,68411,N,0,N,255672,N,N,54438,N,200634,N,54438,N,0,N,0,N,0,N,0,N,24033407,N,0,N,24033407,N,140,N,0,N,0,0,140,0,500,0,0,360,12171794,0,1,0,0,0,1,0,0,0,0,0,1,0,0,0,1,0,0,0,0,0,0,0,0,0,0,0,0,0,0,0,0,0,0,0,0,0,0,0,0,0,Z99Z,199512.0,3.0,1.0,3.0,0.0,,,0.0,13.0,PF,O,AR,A,1.0,1.0,1.0,0,2,-5,0.8499610000000001,12,-360,0,140,1.0,M,1.0,,1.0,1.0,1.0,1.0,1.0,1.0,2,U,U,U,U,U,U,U,U,7,0.0,2.0,2.0,3.0,2.0,2.0,0.0,2.0,0.0,2.0,2.0,0.0,0.0,0.0,0.0,2.0,2.0,2.0,2.0,2.0,0.0,2.0,2.0,0.0,0.0,4.0,4.0,4.0,N,NY,10022.0,NEW YORK,core2002pf_ver1,PF,O,AR,A,IN,,A40,A
9445,,,2002,133863402,KAHN FAMILY FOUNDATION INC,NY,A,A99,4663 WALDO AVE,RIVERDALE,10471.0,10471-3061,36005.0,5602.0,5600.0,200212,2002,IN,,3,AR,AR,AR,1,A,602,602.0,0.0,0.0,0,1,0,0,0,0,0,0,1,735,-734,110,0,0,0,0,0,0,0,668,1,0,3,N,0,N,N,1,N,0,N,735,N,N,125,N,110,N,125,N,0,N,0,N,0,N,0,N,0,N,0,N,-668,N,0,N,0,N,0,40,0,0,100,0,0,0,58,3,0,0,0,0,0,0,0,0,0,0,0,0,0,0,0,0,0,0,0,0,0,0,0,0,0,0,0,0,0,0,0,0,0,0,0,0,0,0,0,0,A99Z,199512.0,4.0,1.0,3.0,0.0,NATHAN KAHN,,0.0,13.0,PF,O,AR,A,1.0,1.0,1.0,0,2,-5,0.0917012,12,-140,140,0,1.0,,1.0,,1.0,1.0,1.0,1.0,1.0,1.0,1,U,U,U,U,U,U,U,U,1,0.0,3.0,0.0,3.0,3.0,2.0,0.0,2.0,0.0,0.0,0.0,0.0,0.0,0.0,0.0,1.0,0.0,1.0,3.0,0.0,0.0,0.0,0.0,0.0,0.0,4.0,4.0,4.0,N,NY,10471.0,RIVERDALE,core2002pf_ver1,PF,S,AR,A,IN,,A99,A
9487,,,2001,133885307,NANCY GRAVES FOUNDATION INC,NY,A,A51,111 W 40TH ST,NEW YORK,10018.0,10018-2506,36061.0,5602.0,5600.0,200209,2002,IN,,3,AR,AR,AR,1,A,91,91.0,0.0,0.0,10377,63116,31638,40000,0,2321,80033,75000,147452,413233,-265781,368869,61746,61746,12345993,1021468,695917,0,1717385,3792,12174976,0,158378,N,0,N,N,73493,N,75814,Y,338233,N,N,11747,N,293869,Y,11747,N,14068,N,0,N,0,N,0,N,12174976,N,0,N,12342201,Y,1235,N,0,N,0,2400,1235,0,0,0,0,1165,3215799,0,61746,100287,84599,40645,287277,368869,348681,324397,335603,1377550,12174976,12404797,12874867,12480932,49935572,9115921,9241071,9270071,9535196,37162259,105585,109888,105731,89408,410612,0,0,0,0,0,0,0,0,0,0,0,0,0,0,0,A51Z,199704.0,3.0,1.0,3.0,0.0,HECHT & COMPANY,,0.0,13.0,PF,O,AR,A,1.0,1.0,1.0,0,2,-5,0.297589,9,-1165,0,1235,1.0,,1.0,,1.0,1.0,1.0,1.0,1.0,1.0,1,1,1,1,1,1,1,1,1,U,2.0,2.0,2.0,3.0,2.0,2.0,2.0,2.0,0.0,2.0,2.0,0.0,0.0,0.0,0.0,2.0,2.0,2.0,2.0,2.0,2.0,2.0,2.0,0.0,0.0,4.0,4.0,4.0,N,NY,10018.0,NEW YORK,core2002pf_ver1,PF,O,AR,A,IN,,A51,A
9494,,,2001,133888511,INTERNATIONAL FOUNDATION FOR ARTS & CULTURE INC,NY,A,A20,100 UNITED NATIONS PLZ AP,NEW YORK,10017.0,10017-1728,36061.0,5602.0,5600.0,200203,2002,IN,,3,AR,AR,AR,1,A,119,119.0,0.0,0.0,112,0,0,286000,0,0,0,100000,286112,245016,41096,100000,112,0,593982,0,0,0,0,6000,593982,0,4725,N,0,N,N,112,N,0,N,145016,N,N,0,N,0,N,0,N,0,N,0,N,0,N,0,N,593982,N,0,N,587982,N,2,N,0,N,0,0,2,0,0,0,0,0,95936,4723,0,0,0,0,0,0,0,0,0,0,0,0,0,0,0,0,0,0,0,0,0,0,0,0,0,0,0,0,0,0,0,0,0,0,0,0,0,0,0,0,A20Z,199610.0,4.0,1.0,3.0,0.0,TOSHU FUKAMI,,0.0,13.0,PF,O,AR,A,2.0,1.0,1.0,0,2,-5,0.0821664,3,2,0,2,1.0,,1.0,,1.0,1.0,1.0,1.0,1.0,1.0,1,U,U,U,U,U,U,U,U,2,0.0,2.0,2.0,0.0,0.0,0.0,0.0,2.0,0.0,0.0,0.0,0.0,0.0,0.0,0.0,2.0,2.0,2.0,0.0,0.0,0.0,2.0,2.0,0.0,0.0,4.0,4.0,4.0,N,NY,10017.0,NEW YORK,core2002pf_ver1,PF,S,AR,A,IN,,A1220,A
9500,,,2002,133893379,AMERICAN FOUNDATION FOR TEXTILE ART INC,NY,A,A20,499 PARK AVE,NEW YORK,10022.0,10022-1240,36061.0,5602.0,5600.0,200303,2003,IN,,3,AR,AR,AR,1,A,91,91.0,119.0,120.0,0,0,0,0,0,3611,0,0,3611,5509,-1898,3515,0,3611,13361,0,0,0,0,0,13361,0,521,N,0,N,N,0,N,3611,Y,5509,N,N,0,N,3515,N,0,N,0,N,10279,N,0,N,0,N,13361,N,0,N,13361,N,0,N,0,N,0,0,0,0,0,0,0,0,10572,0,521,554,839,335,2249,3515,48515,52481,78096,182607,1,0,0,0,1,0,0,0,0,0,347,369,559,223,1498,0,0,0,0,0,0,0,0,0,0,0,0,0,0,0,A20Z,199703.0,3.0,1.0,3.0,0.0,,,0.0,13.0,PF,O,AR,A,1.0,1.0,1.0,0,2,-5,0.21741100000000002,3,0,0,0,1.0,,1.0,,1.0,1.0,1.0,1.0,1.0,1.0,1,1,1,1,1,1,1,1,1,U,0.0,3.0,0.0,0.0,3.0,0.0,0.0,2.0,2.0,0.0,0.0,0.0,0.0,0.0,0.0,2.0,2.0,2.0,0.0,0.0,3.0,0.0,0.0,0.0,0.0,4.0,4.0,4.0,N,NY,10022.0,NEW YORK,core2002pf_ver1,PF,O,AR,A,IN,,A40,A
9501,,,2002,133893616,TRIBUTE 21 FOUNDATION INC,NY,A,A99,720 FIFTH AVE 4TH FLR,NEW YORK,10019.0,10019-4107,36061.0,5602.0,5600.0,200212,2002,IN,,3,AR,AR,AR,1,A,994,994.0,119.0,90.0,22,0,0,0,0,0,1386,0,22,1386,-1364,0,22,0,4803,0,0,0,0,10000,4803,0,0,N,0,N,N,22,N,0,N,0,N,N,0,N,0,N,0,N,0,N,0,N,0,N,0,N,4803,N,0,N,-5197,N,1,N,0,N,0,0,1,0,0,0,0,0,5082,-1,0,0,0,0,0,0,0,0,0,0,0,0,0,0,0,0,0,0,0,0,0,0,0,0,0,0,0,0,0,0,0,0,0,0,0,0,0,0,0,0,A99Z,199702.0,4.0,1.0,3.0,0.0,,,0.0,13.0,PF,O,AR,A,1.0,1.0,1.0,0,2,-5,0.7264510000000001,12,1,0,1,1.0,,1.0,,7.0,1.0,1.0,1.0,1.0,1.0,1,U,U,U,U,U,U,U,U,2,3.0,0.0,0.0,0.0,0.0,0.0,0.0,0.0,0.0,0.0,0.0,0.0,0.0,0.0,0.0,2.0,2.0,2.0,0.0,0.0,0.0,0.0,3.0,0.0,0.0,4.0,4.0,4.0,N,NY,10019.0,NEW YORK,core2002pf_ver1,PF,S,AR,A,IN,,A99,A
9516,,,2002,133902358,JONATHAN LARSON PERFORMING ARTS FOUNDATION INC,NY,A,A12,PO BOX 672 PRINCE ST STAT,NEW YORK,10012.0,10012-0013,36061.0,5602.0,5600.0,200212,2002,IN,,3,AR,AR,AR,1,A,602,602.0,119.0,0.0,1344,10904,0,524310,0,7500,98600,46500,544058,275509,268549,250628,0,0,1351567,398548,0,0,398548,600,1352561,0,59945,N,0,N,N,12248,N,0,N,229009,N,N,24836,N,204128,N,24836,N,0,N,0,N,0,N,0,N,1352561,N,0,N,1350967,N,0,N,0,N,0,0,0,0,0,0,0,0,1217152,59945,0,0,0,0,0,0,0,0,0,0,0,0,0,0,0,0,0,0,0,0,0,0,0,0,0,0,0,0,0,0,0,0,0,0,0,0,0,0,0,0,A60J,199702.0,4.0,1.0,3.0,0.0,JAY S HARRIS,,0.0,13.0,PF,S,ZB,A,1.0,1.0,1.0,0,2,-5,0.0588587,12,0,0,0,1.0,,1.0,,1.0,1.0,1.0,1.0,1.0,1.0,1,U,U,U,U,U,U,U,U,1,2.0,2.0,2.0,3.0,2.0,2.0,0.0,2.0,0.0,2.0,0.0,0.0,0.0,0.0,0.0,2.0,2.0,2.0,2.0,0.0,2.0,2.0,2.0,0.0,0.0,4.0,4.0,4.0,N,NY,10012.0,NEW YORK,core2002pf_ver1,PF,S,ZB,A,IN,,A1260,A
9526,YI.,JDD,2002,133910335,FISH FAMILY FOUNDATION INC,NY,A,A80,33 IRVING PL FL 8,NEW YORK,10003.0,10003-2332,36061.0,5602.0,5600.0,200212,2002,IN,,3,AR,AR,AR,1,A,0,0.0,0.0,0.0,0,0,0,0,0,0,0,0,1,0,1,0,0,0,36000,0,0,0,0,2000,36000,0,0,N,0,N,N,0,N,0,Y,0,N,N,0,N,0,N,0,N,0,N,0,N,0,N,0,N,36000,N,0,N,34000,N,0,N,0,N,0,0,0,0,0,0,0,0,0,0,1,0,0,0,1,0,0,0,0,0,0,0,0,0,0,0,0,0,0,0,0,0,0,0,0,0,0,0,0,0,0,0,0,0,0,0,0,0,0,0,A80,199902.0,3.0,1.0,3.0,0.0,HAMILTON FISH,,0.0,13.0,PF,O,AR,A,2.0,1.0,1.0,0,2,-5,0.18443900000000002,12,0,0,0,1.0,M,2.0,3.0,1.0,1.0,1.0,1.0,1.0,1.0,2,1,1,1,1,1,1,1,1,U,0.0,0.0,0.0,0.0,0.0,0.0,0.0,0.0,0.0,0.0,0.0,0.0,0.0,0.0,0.0,2.0,2.0,0.0,0.0,0.0,0.0,0.0,0.0,0.0,0.0,4.0,4.0,2.0,N,NY,10003.0,NEW YORK,core2002pf_ver1,PF,O,AR,A,IN,,N12,N
9609,,,2002,133921831,BARBARA M ZALAZNICK FOUNDATION,NY,A,A99,335 MADISON AVE STE 1500,NEW YORK,10017.0,10017-4605,36061.0,5602.0,5600.0,200212,2002,IN,,3,AR,AR,AR,1,A,602,602.0,0.0,0.0,139129,38334,0,1500000,0,-275033,0,311830,1402430,314123,1088307,312675,177463,0,10409717,0,3004483,0,3004483,0,11978617,0,547507,N,0,N,N,177463,N,-97570,N,2293,N,N,0,N,845,N,0,N,0,N,0,N,0,N,2806505,N,11978617,N,0,N,10409717,N,3549,N,0,N,0,1841,3549,0,5000,0,0,3292,11116895,543958,0,0,0,0,0,0,0,0,0,0,0,0,0,0,0,0,0,0,0,0,0,0,0,0,0,0,0,0,0,0,0,0,0,0,0,0,0,0,0,0,A99Z,199704.0,4.0,1.0,3.0,0.0,ERIC KAPLAN,,0.0,13.0,PF,O,AR,A,1.0,1.0,2.0,0,2,-5,0.535115,12,-3292,0,3549,1.0,,1.0,,1.0,1.0,1.0,1.0,1.0,1.0,1,U,U,U,U,U,U,U,U,3,0.0,2.0,2.0,0.0,2.0,0.0,0.0,2.0,0.0,0.0,2.0,0.0,0.0,2.0,0.0,2.0,2.0,2.0,2.0,0.0,2.0,4.0,2.0,0.0,0.0,4.0,4.0,4.0,N,NY,10017.0,NEW YORK,core2002pf_ver1,PF,S,AR,A,IN,,A99,A
9650,,,2002,133926887,LAURA PELS INTERNATIONAL FOUNDATION INC,NY,A,A60,200 W 57TH ST STE 803,NEW YORK,10019.0,10019-3211,36061.0,5602.0,5600.0,200212,2002,IN,,3,AR,AR,AR,1,A,119,119.0,90.0,0.0,0,39184,0,0,0,0,0,76850,39184,100233,-61049,91797,35391,0,908433,900870,0,0,900870,0,919095,0,47549,N,0,N,N,39184,N,0,N,23383,N,N,3793,N,14947,N,3793,N,0,N,0,N,0,N,0,N,919095,N,0,N,908433,N,708,N,0,N,0,0,708,0,1500,0,29,763,965466,46841,0,0,0,0,0,0,0,0,0,0,0,0,0,0,0,0,0,0,0,0,0,0,0,0,0,0,0,0,0,0,0,0,0,0,0,0,0,0,0,0,A60Z,199703.0,4.0,1.0,3.0,0.0,LAURA PELS,,0.0,13.0,PF,O,AR,A,1.0,1.0,1.0,0,2,-5,0.645422,12,-763,0,708,1.0,,1.0,,1.0,1.0,1.0,1.0,1.0,1.0,1,U,U,U,U,U,U,U,U,4,0.0,2.0,2.0,3.0,2.0,2.0,0.0,2.0,0.0,2.0,0.0,0.0,0.0,0.0,0.0,2.0,2.0,2.0,3.0,0.0,0.0,0.0,0.0,0.0,0.0,4.0,4.0,4.0,N,NY,10019.0,NEW YORK,core2002pf_ver1,PF,S,AR,A,IN,,A60,A
9651,,,2002,133927380,JEWISH REGISTRY INC,NY,A,A11,621 WEST 254TH STREET,RIVERDALE,10471.0,10471-1225,36005.0,5602.0,5600.0,200212,2002,IN,,3,AR,AR,AR,1,A,994,994.0,94.0,0.0,0,0,0,0,0,0,0,0,1,0,1,0,0,0,1,0,0,0,0,1,1,0,0,N,0,N,N,0,N,0,N,0,N,N,0,N,0,N,0,N,0,N,0,N,0,N,0,N,0,N,0,N,0,N,0,N,0,N,0,0,0,0,0,0,0,0,0,0,0,0,0,0,0,0,0,0,0,0,0,0,0,0,0,0,0,0,0,0,0,0,0,0,0,0,0,0,0,0,0,0,0,0,0,0,0,0,0,0,A83I,199705.0,15.0,10.0,3.0,200012.0,% MARVIN WEITZ,,0.0,13.0,PC,S,ZA,A,1.0,1.0,1.0,0,2,-5,0.708585,12,0,0,0,1.0,,2.0,,1.0,1.0,1.0,1.0,2.0,1.0,1,U,U,U,U,U,U,U,U,1,0.0,0.0,0.0,0.0,0.0,0.0,0.0,0.0,0.0,0.0,0.0,0.0,0.0,0.0,0.0,2.0,2.0,0.0,0.0,0.0,0.0,0.0,0.0,0.0,0.0,4.0,4.0,4.0,N,NY,10471.0,RIVERDALE,core2002pf_ver1,PF,S,ZA,A,IN,,X30,X
9658,,,2002,133929462,ALVIN E FRIEDMAN-KIEN FOUNDATION INC,NY,A,A40,ONE LEXINGTON AVE STE 2A,NEW YORK,10010.0,10010-5515,36061.0,5602.0,5600.0,200212,2002,IN,,3,AR,AR,AR,1,A,91,91.0,0.0,0.0,0,4599,23628,5000,0,0,0,74573,33227,75671,-42444,74573,28227,0,579721,0,328263,0,328263,0,615570,0,31001,N,0,N,N,28227,N,0,N,1098,N,N,0,N,0,N,0,N,0,N,0,N,0,N,76458,N,615570,N,0,N,579721,N,565,N,0,N,0,0,565,0,0,0,22,0,629454,30436,1,0,0,0,1,0,0,0,0,0,0,0,0,0,0,0,0,0,0,0,0,0,0,0,0,0,0,0,0,0,0,0,0,0,0,0,0,0,0,0,A40Z,199612.0,3.0,1.0,3.0,0.0,ROBERT H HOROWITZ,,0.0,13.0,PF,O,AR,A,1.0,1.0,1.0,0,2,-5,0.8970950000000001,12,587,0,565,1.0,,1.0,,1.0,1.0,1.0,1.0,1.0,1.0,2,U,U,U,U,U,U,U,U,4,0.0,2.0,2.0,0.0,0.0,0.0,0.0,2.0,0.0,0.0,2.0,0.0,0.0,2.0,0.0,2.0,2.0,2.0,2.0,2.0,0.0,2.0,0.0,0.0,0.0,4.0,4.0,4.0,N,NY,10010.0,NEW YORK,core2002pf_ver1,PF,O,AR,A,IN,,A40,A
9661,,,2002,133930172,TOMORROW FOUNDATION,NY,A,A99,650 MADISON AVE,NEW YORK,10022.0,10022-1029,36061.0,5602.0,5600.0,200212,2002,IN,,3,AR,AR,AR,1,A,602,602.0,0.0,0.0,31928,106524,-596913,466342,0,35854,0,2992095,43735,3085197,-3041462,2995754,54496,0,16497917,0,14975037,0,14975037,0,16497917,0,952296,N,0,Y,N,143939,N,0,N,93102,N,N,89443,N,3659,N,89443,N,0,N,0,N,0,N,227239,N,16497917,N,0,N,16497917,N,545,N,0,N,0,3002,545,0,0,0,0,2457,19335962,955251,0,0,0,0,0,0,0,0,0,0,0,0,0,0,0,0,0,0,0,0,0,0,0,0,0,0,0,0,0,0,0,0,0,0,0,0,0,0,0,0,A99Z,199704.0,4.0,1.0,3.0,0.0,LAURA BAUDO SILLERMAN,,0.0,13.0,PF,O,AR,A,1.0,1.0,1.0,0,2,-5,0.386623,12,-2457,0,545,1.0,,1.0,,1.0,1.0,1.0,1.0,1.0,1.0,1,U,U,U,U,U,U,U,U,3,0.0,2.0,2.0,3.0,2.0,2.0,0.0,2.0,0.0,0.0,2.0,0.0,0.0,2.0,0.0,2.0,2.0,2.0,4.0,2.0,2.0,4.0,2.0,0.0,0.0,4.0,4.0,4.0,N,NY,10022.0,NEW YORK,core2002pf_ver1,PF,S,AR,A,IN,,A99,A
9700,,,2002,133935646,SCHLOSS FAMILY FOUNDATION INC,NY,A,A99,350 PARK AVE 9TH FLR,NEW YORK,10022.0,10022-6022,36061.0,5602.0,5600.0,200212,2002,IN,,3,AR,AR,AR,1,A,602,602.0,0.0,0.0,0,45148,366740,0,0,0,0,242000,411888,253087,158801,242000,411888,0,4499934,0,3571294,0,3571294,0,4499934,0,213923,N,0,Y,N,411888,N,0,N,11087,N,N,0,N,0,N,0,N,0,N,49211,N,0,N,45200,N,4499934,N,0,N,4499934,N,4119,N,0,N,0,6000,4119,0,0,0,0,1881,4343605,209804,0,0,0,0,0,0,0,0,0,0,0,0,0,0,0,0,0,0,0,0,0,0,0,0,0,0,0,0,0,0,0,0,0,0,0,0,0,0,0,0,A99Z,199704.0,4.0,1.0,3.0,0.0,WALTER J SCHLOSS,,0.0,13.0,PF,O,AR,A,1.0,1.0,1.0,0,2,-5,0.246829,12,-1881,0,4119,1.0,,1.0,,1.0,1.0,1.0,1.0,1.0,1.0,1,U,U,U,U,U,U,U,U,4,0.0,2.0,2.0,0.0,0.0,0.0,0.0,2.0,2.0,0.0,2.0,0.0,0.0,2.0,0.0,2.0,2.0,2.0,2.0,2.0,0.0,0.0,0.0,0.0,0.0,4.0,4.0,4.0,N,NY,10022.0,NEW YORK,core2002pf_ver1,PF,S,AR,A,IN,,A99,A
9704,,,2002,133935995,LILY AUCHINCLOSS FOUNDATION INC,NY,A,A12,630 5TH AVE,NEW YORK,10111.0,10111-0100,36061.0,5602.0,5600.0,200212,2002,IN,,3,AR,AR,AR,1,A,602,602.0,0.0,0.0,0,1242085,-2066788,40000,0,-2854,0,2374500,-787557,3263947,-4051504,2752284,730422,0,49780145,10746889,25280694,1554315,37581898,13107,49327842,1921028,2576352,N,0,Y,N,1242085,N,0,N,889447,N,N,511663,N,377784,N,511663,N,0,N,0,N,0,N,10992843,N,49327842,N,0,N,49767038,N,7304,N,0,N,0,15000,7304,0,3000,0,0,10696,52311724,2569048,0,0,0,0,0,0,0,0,0,0,0,0,0,0,0,0,0,0,0,0,0,0,0,0,0,0,0,0,0,0,0,0,0,0,0,0,0,0,0,0,A40J,199706.0,4.0,1.0,3.0,0.0,BESSEMER TRUST,,0.0,13.0,PF,S,ZB,A,1.0,1.0,1.0,0,2,-5,0.49697700000000006,12,-10696,0,7304,1.0,,1.0,,1.0,1.0,1.0,1.0,1.0,1.0,1,U,U,U,U,U,U,U,U,3,0.0,2.0,2.0,3.0,2.0,2.0,0.0,2.0,0.0,2.0,2.0,2.0,0.0,2.0,0.0,2.0,2.0,2.0,4.0,2.0,4.0,4.0,0.0,0.0,0.0,4.0,4.0,4.0,N,NY,10111.0,NEW YORK,core2002pf_ver1,PF,S,ZB,A,IN,,A40,A
9722,,,2001,133938484,BETTY RETTER FOUNDATION,NY,A,A11,225 BROADWAY STE 500,NEW YORK,10007.0,10007-3901,36061.0,5602.0,5600.0,200206,2002,IN,,3,AR,AR,AR,1,A,119,119.0,0.0,0.0,0,4024,0,0,0,0,0,6800,4024,6967,-2943,6800,3857,0,189141,0,187600,0,187600,7387,336046,15693,15732,N,0,N,N,4024,N,0,N,167,N,N,167,N,0,N,167,N,0,N,1541,N,0,N,0,N,336046,N,0,N,181754,N,39,N,0,N,0,0,39,0,0,0,0,0,314633,15693,0,0,0,0,0,0,0,0,0,0,0,0,0,0,0,0,0,0,0,0,0,0,0,0,0,0,0,0,0,0,0,0,0,0,0,0,0,0,0,0,A99I,199707.0,4.0,1.0,3.0,0.0,BETTY RETTER,,0.0,13.0,PF,S,ZA,A,1.0,1.0,2.0,0,2,-5,0.616987,6,39,0,77,7.0,,1.0,,1.0,1.0,1.0,1.0,1.0,1.0,1,U,U,U,U,U,U,U,U,3,0.0,2.0,2.0,3.0,0.0,2.0,0.0,2.0,2.0,0.0,2.0,0.0,0.0,0.0,0.0,2.0,2.0,2.0,3.0,0.0,0.0,0.0,0.0,0.0,0.0,4.0,4.0,4.0,N,NY,10007.0,NEW YORK,core2002pf_ver1,PF,S,ZA,A,IN,,A99,A
9826,,,2002,133952016,PAINTER HILL FOUNDATION,NY,A,A20,529 FIFTH AVE STE 901,NEW YORK,10017.0,10017-4608,36061.0,5602.0,5600.0,200212,2002,IN,,3,AR,AR,AR,1,A,91,91.0,602.0,0.0,2748,17682,376159,0,0,0,0,558000,685933,606028,79905,558000,654452,0,1783905,0,754259,0,754259,0,1684313,0,83712,N,289344,Y,N,685933,N,0,N,48028,N,N,31481,N,0,N,31481,N,0,N,340564,N,0,N,0,N,1684313,N,0,N,1783905,N,6545,N,0,N,0,6068,6545,0,0,0,0,0,1699744,77167,0,0,0,0,0,0,0,0,0,0,0,0,0,0,0,0,0,0,0,0,0,0,0,0,0,0,0,0,0,0,0,0,0,0,0,0,0,0,0,0,A20Z,199708.0,4.0,1.0,3.0,0.0,REMINICK ARRONS & CO LLP,,0.0,13.0,PF,O,AR,A,1.0,1.0,1.0,0,2,-5,0.0149025,12,477,0,6545,1.0,,1.0,,1.0,1.0,1.0,1.0,1.0,1.0,1,U,U,U,U,U,U,U,U,5,0.0,2.0,2.0,3.0,0.0,2.0,0.0,2.0,2.0,0.0,2.0,0.0,0.0,0.0,0.0,2.0,2.0,2.0,2.0,2.0,0.0,0.0,2.0,2.0,0.0,4.0,4.0,4.0,N,NY,10017.0,NEW YORK,core2002pf_ver1,PF,S,AR,A,IN,,A20,A
9873,,,2002,133968595,FOUNDATION FOR FILM PRESERVATION INC,NY,A,A31,350 PARK AVE,NEW YORK,10022.0,10022-6022,36061.0,5602.0,5600.0,200212,2002,IN,,3,AR,AR,AR,1,A,0,0.0,0.0,0.0,0,0,0,93750,0,0,0,0,93750,508,93242,0,0,0,637403,0,0,0,0,0,637403,0,1762,N,0,N,N,0,N,0,Y,508,N,N,0,N,0,N,0,N,0,N,52029,N,0,N,0,N,637403,N,0,N,637403,N,0,N,0,N,0,0,0,0,0,0,0,0,35779,0,1,1,736,1616,2354,58091,84400,90515,126430,359436,1,0,0,0,1,0,0,0,0,0,1175,418,1217,2949,5759,0,0,0,0,0,0,0,0,0,0,0,0,0,0,0,A31,199906.0,3.0,1.0,3.0,0.0,STARR & COMPANY LLC,SCORSESE MARTIN TTEE,0.0,13.0,PF,O,AR,A,2.0,1.0,1.0,0,2,-5,0.660684,12,0,0,0,1.0,,1.0,,1.0,1.0,1.0,1.0,1.0,1.0,2,2,1,1,1,1,1,1,1,U,0.0,3.0,0.0,0.0,0.0,0.0,0.0,0.0,2.0,0.0,0.0,0.0,0.0,0.0,0.0,2.0,2.0,2.0,0.0,0.0,0.0,3.0,0.0,0.0,0.0,4.0,4.0,4.0,N,NY,10022.0,NEW YORK,core2002pf_ver1,PF,O,AR,A,IN,,A31,A
9885,,,2002,133972275,ART2FACTS,NY,A,A20,158 W 27TH ST STE 4TH FLR,NEW YORK,10001.0,10001-6216,36061.0,5602.0,5600.0,200212,2002,IN,,3,AR,AR,AR,1,A,994,994.0,119.0,0.0,60,0,0,2275,0,16000,0,0,18335,10223,8112,1823,60,7600,22339,0,0,0,0,8941,22339,0,532,N,0,N,N,60,N,16000,N,10223,N,N,0,N,1823,N,0,N,8400,N,0,N,0,N,0,N,22339,N,0,N,13398,N,1,N,0,N,0,0,1,0,0,0,0,0,14876,0,0,0,0,0,0,0,0,0,0,0,0,0,0,0,0,0,0,0,0,0,0,0,0,0,0,0,0,0,0,0,0,0,0,0,0,0,0,0,0,0,P20,199812.0,4.0,1.0,3.0,0.0,RAYMOND M PEPI,,0.0,13.0,PF,O,AR,A,2.0,1.0,1.0,0,2,-5,0.539945,12,1,0,1,1.0,,1.0,,1.0,1.0,1.0,1.0,1.0,1.0,7,U,U,U,U,U,U,U,U,7,0.0,3.0,0.0,0.0,3.0,0.0,2.0,2.0,0.0,0.0,0.0,0.0,0.0,0.0,0.0,2.0,2.0,2.0,0.0,0.0,2.0,2.0,2.0,0.0,0.0,4.0,4.0,4.0,N,NY,10001.0,NEW YORK,core2002pf_ver1,PF,S,AR,A,IN,,A40,A
9912,GS,JDD,2001,133977614,JOHNNIE L COCHRAN JR ART FUND INC,NY,A,A20,99 HUDSON ST 8TH FL,NEW YORK,10013.0,10013-2815,36061.0,5602.0,5600.0,200209,2002,IN,,3,AR,AR,AR,1,A,0,0.0,0.0,0.0,122,0,0,2100,0,0,0,30581,2222,32932,-30710,30581,122,0,0,0,0,0,0,0,0,0,1512,N,0,N,N,122,Y,0,N,2351,N,N,0,N,0,N,0,N,0,N,0,N,0,N,0,N,0,N,0,N,0,N,2,N,0,N,0,0,2,0,0,0,0,0,30699,0,1,0,0,0,1,0,0,0,0,0,1,0,0,0,1,0,0,0,0,0,0,0,0,0,0,0,0,0,0,0,0,0,0,0,0,0,0,0,0,0,A20,199906.0,3.0,1.0,3.0,0.0,% JOHNNIE L COCHRAN JR,,0.0,11.0,PF,O,AR,A,1.0,1.0,1.0,0,2,-5,0.508969,9,2,0,2,1.0,M,1.0,,1.0,1.0,1.0,1.0,1.0,1.0,2,U,U,U,U,U,U,U,U,7,0.0,2.0,2.0,0.0,0.0,0.0,0.0,2.0,0.0,0.0,0.0,0.0,0.0,0.0,0.0,0.0,0.0,1.0,0.0,0.0,0.0,2.0,2.0,0.0,0.0,4.0,4.0,4.0,N,NY,10013.0,NEW YORK,core2002pf_ver1,PF,O,AR,A,IN,,A12,A
9969,,,2001,133981562,MICA FOUNDATION,NY,A,A51,405 PARK AVE SUITE 1401,NEW YORK,10022.0,10022-9427,36061.0,5602.0,5600.0,200211,2002,IN,,3,AR,AR,AR,1,A,60,60.0,0.0,0.0,259,792,0,14706,0,0,0,17575,15757,45476,-29719,43262,1051,0,65026,29112,0,0,29112,0,72497,0,4186,N,0,N,N,1051,N,1051,Y,27901,N,N,0,N,25687,N,0,N,2214,N,35914,N,0,N,0,N,72497,N,0,N,65026,N,21,N,0,N,0,0,1,0,0,0,0,0,84989,0,1,0,0,0,1,43262,27625,49612,19288,139787,72497,97482,133135,162533,465647,0,0,0,0,0,2762,3800,4686,4617,15865,14706,0,227592,77190,319488,0,0,2276,772,3048,1051,0,7432,6719,15202,A51Z,199811.0,3.0,1.0,3.0,0.0,HOWARD MORSE MORSE ZELNICK ROSE &,,0.0,13.0,PF,O,AR,A,1.0,1.0,1.0,0,2,-5,0.534405,11,21,0,21,1.0,,1.0,,1.0,1.0,1.0,1.0,1.0,7.0,2,1,1,1,1,1,1,1,1,U,0.0,2.0,2.0,0.0,2.0,0.0,2.0,2.0,2.0,2.0,0.0,0.0,0.0,0.0,0.0,2.0,2.0,2.0,2.0,0.0,0.0,2.0,2.0,0.0,0.0,4.0,4.0,4.0,N,NY,10022.0,NEW YORK,core2002pf_ver1,PF,O,AR,A,IN,,A51,A
9981,,,2002,133984936,ANDREA AND CHARLES BRONFMAN PHILANTROPIES INC,NY,A,A31,375 PARK AVE 6TH FLR,NEW YORK,10152.0,10152-0002,36061.0,5602.0,5600.0,200212,2002,IN,,3,AR,AR,AR,1,A,602,602.0,0.0,0.0,13480,19645,0,11056015,0,0,679467,3383445,11089140,10672106,417034,10174027,33125,0,4327704,0,0,0,0,2502666,4327704,0,67088,N,0,Y,N,33125,N,33125,N,7288661,N,N,0,N,6790582,N,0,N,470105,N,0,N,0,N,4532,N,4327704,N,0,N,1825038,N,331,N,0,N,0,0,331,0,750,0,0,419,1362198,0,0,0,0,0,0,0,0,0,0,0,0,0,0,0,0,0,0,0,0,0,0,0,0,0,0,0,0,0,0,0,0,0,0,0,0,0,0,0,0,0,A31Z,199807.0,4.0,1.0,3.0,0.0,JEFFREY SOLOMAN,,0.0,13.0,PF,O,AR,A,2.0,1.0,1.0,0,2,-5,0.51647,12,-419,0,331,1.0,,1.0,,1.0,1.0,1.0,1.0,1.0,1.0,1,U,U,U,U,U,U,U,U,7,2.0,2.0,2.0,0.0,2.0,0.0,2.0,2.0,0.0,0.0,0.0,0.0,0.0,2.0,0.0,2.0,2.0,2.0,2.0,0.0,0.0,2.0,2.0,0.0,0.0,4.0,4.0,4.0,N,NY,10152.0,NEW YORK,core2002pf_ver1,PF,S,AR,A,IN,,T23,T
10027,,,2001,133995881,LUCILLE LORTEL THEATRE FOUNDATION INC,NY,A,A20,111 W 40TH ST,NEW YORK,10018.0,10018-2506,36061.0,5602.0,5600.0,200206,2002,IN,,3,AR,AR,AR,1,A,0,0.0,0.0,0.0,156,0,0,386486,0,0,30000,0,603619,689670,-86051,471601,156,156,2844186,0,0,0,0,11055,2844186,0,1008,N,216977,Y,N,156,N,217133,N,206866,N,N,0,N,155148,Y,0,N,216977,N,500,N,0,N,0,N,2844186,N,0,N,2833131,N,2,N,0,N,0,0,2,0,0,0,0,0,20476,1006,0,0,0,0,0,0,0,0,0,0,0,0,0,0,0,0,0,0,0,0,0,0,0,0,0,0,0,0,0,0,0,0,0,0,0,0,0,0,0,0,A20,199907.0,4.0,1.0,3.0,0.0,HECHT AND COMPANY PC,,0.0,13.0,PF,O,AR,A,1.0,1.0,1.0,0,2,-5,0.055176199999999995,6,2,0,2,1.0,,1.0,,7.0,1.0,1.0,1.0,1.0,1.0,7,U,U,U,U,U,U,U,U,2,2.0,2.0,0.0,0.0,2.0,0.0,2.0,2.0,2.0,0.0,0.0,0.0,0.0,0.0,0.0,2.0,2.0,2.0,0.0,0.0,0.0,2.0,2.0,2.0,0.0,4.0,4.0,4.0,N,NY,10018.0,NEW YORK,core2002pf_ver1,PF,S,AR,A,IN,,A65,A
10068,,,2001,134008719,DORIS DUKE FOUNDATION FOR ISLAMIC ART,NY,A,A51,650 FIFTH AVE 19TH FLOOR,NEW YORK,10019.0,10019-6108,36061.0,5602.0,5600.0,200207,2002,IN,,3,AR,AR,AR,1,A,91,91.0,0.0,0.0,0,0,0,1681000,0,0,0,250000,1681000,1438089,242911,1357623,0,0,1,0,0,0,0,1,1,0,4100,N,0,N,N,0,Y,0,Y,1188089,N,N,0,N,1107623,N,0,N,0,N,0,N,0,N,0,N,0,N,0,N,0,N,0,N,0,N,0,0,0,0,0,0,0,0,152706,0,1,9650,0,0,9651,0,9650,0,1425846,1435496,1,0,0,0,1,0,0,0,0,0,2733,7249,2814,2457,15253,0,0,0,0,0,0,0,0,0,0,0,0,0,0,0,A51Z,199809.0,3.0,1.0,3.0,0.0,% ALAN ALTSCHULER,,0.0,11.0,PF,O,AR,A,1.0,1.0,1.0,0,2,-5,0.385025,7,0,0,0,1.0,,1.0,,1.0,1.0,1.0,1.0,2.0,1.0,2,2,1,1,1,1,1,1,1,U,0.0,2.0,2.0,0.0,2.0,0.0,0.0,2.0,0.0,0.0,0.0,0.0,0.0,0.0,0.0,2.0,2.0,1.0,0.0,0.0,0.0,3.0,0.0,0.0,0.0,4.0,4.0,4.0,N,NY,10019.0,NEW YORK,core2002pf_ver1,PF,O,AR,A,IN,,X40,X
10088,,,2002,134010816,FRANZ SCHUBERT SOCIETY INC,NY,A,A90,9 E 9TH ST APT 5,NEW YORK,10003.0,10003-5947,36061.0,5602.0,5600.0,200212,2002,IN,,3,AR,AR,AR,1,A,0,0.0,0.0,0.0,0,0,0,0,0,0,0,0,1,0,1,0,0,0,1,0,0,0,0,1,1,0,0,N,0,N,N,0,N,0,N,0,N,N,0,N,0,N,0,N,0,N,0,N,0,N,0,N,0,N,0,N,0,N,0,N,0,N,0,0,0,0,0,0,0,0,0,0,0,0,0,0,0,0,0,0,0,0,0,0,0,0,0,0,0,0,0,0,0,0,0,0,0,0,0,0,0,0,0,0,0,0,0,0,0,0,0,0,A90,199907.0,4.0,1.0,3.0,0.0,WILLIAM LIVINGSTONE,,0.0,13.0,PF,O,AR,A,1.0,1.0,1.0,0,2,-5,0.548459,12,0,0,0,1.0,,2.0,,1.0,1.0,1.0,1.0,2.0,1.0,1,U,U,U,U,U,U,U,U,1,0.0,0.0,0.0,0.0,0.0,0.0,0.0,0.0,0.0,0.0,0.0,0.0,0.0,0.0,0.0,2.0,2.0,0.0,0.0,0.0,0.0,0.0,0.0,0.0,0.0,4.0,4.0,4.0,N,NY,10003.0,NEW YORK,core2002pf_ver1,PF,S,AR,A,IN,,A90,A
10176,,,2002,134032127,BERT STERN FOUNDATION FOR THE VISUAL ARTS INC,NY,A,A99,330 E 39TH ST APT 32G,NEW YORK,10016.0,10016-2135,36061.0,5602.0,5600.0,200212,2002,IN,,3,AR,AR,AR,1,A,0,0.0,0.0,0.0,0,0,0,31312,0,0,0,0,31312,600,30712,0,316,0,31629,0,0,0,0,0,31629,0,0,N,0,N,N,316,N,0,Y,600,N,N,0,N,0,N,0,N,0,N,31629,N,0,N,0,N,31629,N,0,N,31629,N,0,N,0,N,0,0,0,0,0,0,0,0,0,0,31629,31312,30056,0,92997,0,0,0,0,0,31629,31312,30056,0,92997,0,0,0,0,0,0,0,0,0,0,0,0,0,0,0,0,0,0,0,0,316,1256,2010,0,3582,A40,200012.0,3.0,1.0,3.0,0.0,BERT STERN,,0.0,13.0,PF,O,AR,A,2.0,1.0,1.0,0,2,-5,0.653488,12,0,0,6,2.0,,1.0,,1.0,1.0,1.0,1.0,1.0,1.0,7,2,1,2,1,1,1,1,2,U,0.0,3.0,0.0,0.0,0.0,0.0,0.0,0.0,3.0,0.0,0.0,0.0,0.0,0.0,0.0,2.0,2.0,0.0,0.0,0.0,0.0,3.0,0.0,0.0,0.0,4.0,4.0,4.0,N,NY,10016.0,NEW YORK,core2002pf_ver1,PF,O,AR,A,IN,,A40,A
10256,,,2001,134047433,NEUE GALERIE NEW YORK,NY,A,A99,1048 5TH AVE,NEW YORK,10028.0,10028-0111,36061.0,5602.0,5600.0,200112,2001,IN,,3,AR,AR,AR,1,A,0,0.0,0.0,0.0,7869,76000,0,11219970,96251,272250,200000,0,11672340,4424468,7247872,3788299,75720,39524,46099392,0,13033640,0,13033640,34707584,46099392,0,420771,N,0,N,N,83869,N,203961,Y,4424468,Y,Y,8149,N,3788299,N,8149,N,164437,N,985114,N,0,N,0,N,46099392,N,0,N,11391808,N,1514,N,0,N,0,500,1514,0,1200,0,0,146,8543581,0,39524,0,0,0,39524,18747822,15292580,420798,0,34461200,39524,0,0,0,39524,0,0,0,0,0,280514,12726,2071,0,295311,0,0,0,0,0,0,0,0,0,0,0,0,0,0,0,A51,199912.0,3.0,1.0,3.0,0.0,JACOB Z SCHUSTER,,0.0,13.0,PF,O,AR,A,1.0,1.0,1.0,170082,2,-5,0.8344959999999999,12,-146,0,1514,1.0,,1.0,,1.0,1.0,1.0,1.0,1.0,1.0,1,1,1,1,1,1,1,1,1,U,2.0,3.0,0.0,3.0,3.0,2.0,2.0,2.0,2.0,0.0,2.0,0.0,0.0,0.0,0.0,2.0,2.0,2.0,2.0,0.0,2.0,2.0,2.0,0.0,2.0,4.0,4.0,4.0,N,NY,10028.0,NEW YORK,core2002pf_ver1,PF,O,AR,A,IN,,A51,A
10285,,,2001,134055562,FASSBINDER FOUNDATION INC,NY,A,A99,410 PARK AVE FL 10,NEW YORK,10022.0,10022-4407,36061.0,5602.0,5600.0,200211,2002,IN,,3,AR,AR,AR,1,A,0,0.0,0.0,0.0,0,0,0,5000,0,0,0,0,5000,1294,3706,1294,0,0,5350,0,0,0,0,990,5350,0,209,N,0,N,N,0,N,0,N,1294,N,N,0,N,1294,N,0,N,0,N,5350,N,0,N,0,N,5350,N,0,N,4360,N,0,N,0,N,0,0,0,0,0,0,0,0,4243,209,0,0,0,0,0,0,0,0,0,0,0,0,0,0,0,0,0,0,0,0,0,0,0,0,0,0,0,0,0,0,0,0,0,0,0,0,0,0,0,0,A20,200006.0,4.0,1.0,3.0,0.0,PRYOR CASHMAN SHERMAN & FLYNN LLP,,0.0,13.0,PF,O,AR,A,1.0,1.0,1.0,0,2,-5,0.094411,11,0,0,0,1.0,,1.0,,1.0,1.0,1.0,1.0,1.0,1.0,1,U,U,U,U,U,U,U,U,1,0.0,3.0,0.0,0.0,3.0,0.0,0.0,3.0,3.0,0.0,0.0,0.0,0.0,0.0,0.0,2.0,2.0,2.0,0.0,0.0,0.0,3.0,0.0,0.0,0.0,4.0,4.0,4.0,N,NY,10022.0,NEW YORK,core2002pf_ver1,PF,S,AR,A,IN,,A20,A
10331,,,2001,134069969,AMERICAN ART FOUNDATION INC,NY,A,A20,767 FIFTH AVE 40TH FL,NEW YORK,10153.0,10153-0023,36061.0,5602.0,5600.0,200206,2002,IN,,3,AR,AR,AR,1,A,0,0.0,0.0,0.0,1968436,263073,13288440,90674241,0,3925,0,228600,106198115,814720,105383395,562943,13236664,2454505,232465325,20073040,0,3165353,23238393,4437500,232465325,0,3895483,N,0,N,N,13288441,N,2492532,Y,586120,N,N,51777,N,334343,N,51777,N,38027,N,224905,N,0,N,30000000,N,232465325,N,0,N,228027825,N,264733,N,0,N,0,232016,264733,0,52000,0,0,19283,79096100,0,2454505,792724,16633,0,3263862,8600443,71444041,42419023,0,122463507,232465325,156312659,95284300,0,484062284,155197250,147159750,76510000,0,378867000,2596989,528483,11089,0,3136561,0,0,0,0,0,0,0,0,0,0,0,0,0,0,0,A20,199911.0,3.0,1.0,3.0,0.0,MEREDITH EDWARDS,,0.0,13.0,PF,O,AR,A,2.0,1.0,1.0,0,2,-5,0.265836,6,-19283,0,264733,1.0,,1.0,,1.0,1.0,1.0,1.0,1.0,1.0,1,1,1,1,1,1,1,1,1,U,0.0,2.0,2.0,3.0,2.0,2.0,2.0,2.0,2.0,2.0,0.0,2.0,0.0,2.0,0.0,2.0,2.0,2.0,2.0,2.0,2.0,2.0,2.0,0.0,0.0,4.0,4.0,4.0,N,NY,10153.0,NEW YORK,core2002pf_ver1,PF,O,AR,A,IN,,A12,A
10333,,,2001,134070709,ART IN NATURE NEW YORK 2000 INC,NY,A,A99,83 MURRAY ST,NEW YORK,10007.0,10007-2173,36061.0,5602.0,5600.0,200112,2001,IN,,3,AR,AR,AR,1,A,0,0.0,0.0,0.0,0,0,0,20000,0,0,0,0,20000,23904,-3904,0,0,0,7990,0,0,0,0,0,7990,0,33,N,0,N,N,0,N,0,Y,23904,N,N,0,N,0,N,0,N,23904,N,7990,N,0,N,0,N,7990,N,0,N,7990,N,0,N,0,N,0,0,0,0,0,0,0,0,665,0,1,11894,0,0,11895,23904,89706,0,0,113610,7990,11894,0,0,19884,7990,11894,0,0,19884,0,0,0,0,0,0,0,0,0,0,0,0,0,0,0,0,0,0,0,0,A40,200011.0,3.0,1.0,3.0,0.0,KATE CARMEL,,0.0,13.0,PF,O,AR,A,1.0,1.0,1.0,0,2,-5,0.45744700000000005,12,0,0,0,1.0,,1.0,,1.0,1.0,1.0,1.0,1.0,1.0,2,2,1,1,1,1,1,1,1,U,0.0,3.0,0.0,0.0,0.0,0.0,3.0,0.0,3.0,0.0,0.0,0.0,0.0,0.0,0.0,2.0,2.0,2.0,0.0,0.0,0.0,3.0,0.0,0.0,0.0,4.0,4.0,4.0,N,NY,10007.0,NEW YORK,core2002pf_ver1,PF,O,AR,A,IN,,A40,A
10346,,,2002,134073167,YOUNG FOUNDATION,NY,A,A11,1088 PARK AVE,NEW YORK,10128.0,10128-1132,36061.0,5602.0,5600.0,200212,2002,IN,,3,AR,AR,AR,1,A,0,0.0,0.0,0.0,2,463,865,100106,0,0,0,60400,101436,60400,41036,60400,44302,0,79286,0,50089,0,50089,0,77435,0,1770,N,0,Y,N,44302,N,0,N,0,N,N,0,N,0,N,0,N,0,N,0,N,0,N,0,N,77435,N,0,N,79286,N,443,N,0,N,0,796,443,0,0,0,0,353,35935,1327,0,0,0,0,0,0,0,0,0,0,0,0,0,0,0,0,0,0,0,0,0,0,0,0,0,0,0,0,0,0,0,0,0,0,0,0,0,0,0,0,A11,200002.0,4.0,1.0,3.0,0.0,JOHN YOUNG,YOUNG JOHN TTEE,0.0,13.0,PF,S,ZA,A,1.0,1.0,2.0,0,2,-5,0.8009890000000001,12,-353,0,443,1.0,,1.0,,1.0,1.0,1.0,1.0,1.0,1.0,1,U,U,U,U,U,U,U,U,7,0.0,0.0,3.0,0.0,0.0,0.0,0.0,3.0,0.0,0.0,2.0,0.0,0.0,0.0,0.0,2.0,2.0,2.0,2.0,2.0,0.0,2.0,2.0,0.0,0.0,4.0,4.0,4.0,N,NY,10128.0,NEW YORK,core2002pf_ver1,PF,S,ZA,A,IN,,A11,A
10348,,,2002,134074036,A CHILDS VOICE INC,NY,A,A6C,225 BROADWAY STE 1806,NEW YORK,10007.0,10007-3001,36061.0,5602.0,5600.0,200212,2002,IN,,3,AR,AR,AR,1,A,0,0.0,0.0,0.0,20,0,0,97288,0,0,0,0,97308,100643,-3335,100643,20,20,12793,0,0,0,0,0,12793,0,832,N,0,Y,N,20,N,20,Y,100643,N,N,0,N,100643,N,0,N,0,N,12793,N,0,N,0,N,12793,N,0,N,12793,N,0,N,0,N,0,0,0,0,0,0,0,0,16883,0,20,54,64,18,156,100643,77059,11771,10178,199651,12793,16128,13133,14840,56894,0,0,0,0,0,555,485,335,451,1826,0,0,0,0,0,0,0,0,0,0,0,0,0,0,0,A6C,199910.0,3.0,1.0,3.0,0.0,ALBERT KALTER,,0.0,13.0,PF,O,AR,A,2.0,1.0,1.0,0,2,-5,0.7858350000000001,12,0,0,0,1.0,,1.0,,1.0,1.0,1.0,1.0,1.0,1.0,1,1,1,1,1,1,1,1,1,U,0.0,3.0,0.0,0.0,3.0,0.0,0.0,3.0,3.0,0.0,0.0,0.0,0.0,0.0,0.0,2.0,2.0,2.0,0.0,0.0,0.0,2.0,2.0,0.0,0.0,4.0,4.0,4.0,N,NY,10007.0,NEW YORK,core2002pf_ver1,PF,O,AR,A,IN,,A6C,A
10362,,,2002,134077058,POLISH ARMY VETERANS ASSOCIATION OF AMERICA FOUNDATION INC,NY,A,A80,119 E 15TH ST,NEW YORK,10003.0,10003-2392,36061.0,5602.0,5600.0,200212,2002,IN,,3,AR,AR,AR,1,A,0,0.0,0.0,0.0,0,0,0,9378,0,0,0,0,9378,19382,-10004,0,3118,0,-10004,0,0,0,0,0,1,0,0,N,0,N,N,3118,N,0,N,19382,N,N,0,N,0,N,0,N,0,N,178175,N,0,N,0,N,0,N,0,N,-10004,N,0,N,0,N,0,0,0,0,0,0,0,0,0,0,0,0,0,0,0,0,0,0,0,0,0,0,0,0,0,0,0,0,0,0,0,0,0,0,0,0,0,0,0,0,0,0,0,0,0,0,0,0,0,0,A80,200003.0,4.0,1.0,3.0,0.0,KAZIMIERZ S RASIEJ,,0.0,13.0,PF,O,AR,A,2.0,1.0,1.0,0,2,-5,0.10789100000000001,12,0,0,62,7.0,,1.0,,1.0,1.0,1.0,1.0,1.0,1.0,1,U,U,U,U,U,U,U,U,1,0.0,3.0,0.0,0.0,0.0,0.0,0.0,0.0,1.0,0.0,0.0,0.0,0.0,0.0,0.0,1.0,2.0,0.0,0.0,0.0,0.0,3.0,0.0,0.0,0.0,4.0,4.0,4.0,N,NY,10003.0,NEW YORK,core2002pf_ver1,PF,S,AR,A,IN,,W30,W
10381,,,2002,134080444,PARNASSUSWORKS FOUNDATION,NY,A,A11,425 E 58TH ST,NEW YORK,10022.0,10022-2300,36061.0,5602.0,5600.0,200212,2002,IN,,3,AR,AR,AR,1,A,0,0.0,0.0,0.0,0,0,0,74000,0,0,0,0,74000,4125,69875,2365,0,0,221164,0,0,0,0,1000,221164,0,2574,N,0,N,N,0,N,0,Y,4125,N,N,0,N,2365,N,0,N,0,N,50012,N,0,N,0,N,221164,N,0,N,220164,N,0,N,0,N,0,0,0,0,0,0,0,0,52271,0,1,0,0,0,1,87255,20540,86150,0,193945,1,0,0,0,1,0,0,0,0,0,1716,2576,1887,0,6179,0,0,0,0,0,0,0,0,0,0,0,0,0,0,0,A11,200001.0,3.0,1.0,3.0,0.0,RICHARD A RIFKIND,,0.0,13.0,PF,S,ZA,A,2.0,1.0,2.0,0,2,-5,0.9119520000000001,12,0,0,0,1.0,,1.0,,1.0,1.0,1.0,1.0,1.0,1.0,2,1,1,1,1,1,1,1,1,U,0.0,3.0,0.0,0.0,3.0,0.0,0.0,2.0,2.0,0.0,0.0,0.0,0.0,0.0,0.0,2.0,2.0,2.0,0.0,0.0,0.0,3.0,0.0,0.0,0.0,4.0,4.0,4.0,N,NY,10022.0,NEW YORK,core2002pf_ver1,PF,S,ZA,A,IN,,A11,A
10554,,,2001,134101047,EXEMPLARY FILMS INC,NY,A,A31,360 MADISON AVE,NEW YORK,10017.0,10017-7111,36061.0,5602.0,5600.0,200112,2001,IN,,3,AR,AR,AR,1,A,0,0.0,0.0,0.0,0,0,0,0,0,0,34500,0,0,95671,-95671,0,0,0,32428,0,0,0,0,0,32428,0,3953,N,0,N,N,0,N,0,Y,95671,N,N,0,N,0,N,0,N,0,N,7033,N,0,N,0,N,32428,N,0,N,32428,N,0,N,0,N,0,0,0,0,0,0,0,0,80264,0,-95593,128099,0,0,32506,0,0,0,0,0,32428,128099,0,0,160527,0,0,0,0,0,2635,0,0,0,2635,0,188532,0,0,188532,0,0,0,0,0,146,7895,0,0,8041,A31,200208.0,3.0,1.0,3.0,0.0,BERDON LLP,,0.0,13.0,PF,O,AR,A,1.0,1.0,1.0,0,2,-5,0.9091110000000001,12,0,0,0,1.0,,1.0,,1.0,1.0,1.0,1.0,1.0,1.0,7,1,1,1,1,1,1,1,1,U,2.0,3.0,0.0,0.0,0.0,0.0,0.0,0.0,2.0,0.0,0.0,0.0,0.0,0.0,0.0,2.0,2.0,2.0,0.0,0.0,0.0,0.0,0.0,0.0,0.0,4.0,4.0,4.0,C,NY,10017.0,NEW YORK,core2002pf_ver1,PF,O,AR,A,IN,,A31,A
10567,,,2001,134105372,AMERICAN STUDIO THEATER INC,NY,A,A65,114 W 47TH ST TAXRGR,NEW YORK,10036.0,10036-1510,36061.0,5602.0,5600.0,200112,2001,IN,,3,AR,AR,AR,1,A,0,0.0,0.0,0.0,0,0,0,11660,0,2234,0,0,13894,9790,4104,9790,0,2234,3955,0,0,0,0,0,3955,0,286,N,0,N,N,0,N,2234,Y,9790,N,N,0,N,9790,N,0,N,0,N,3955,N,0,N,0,N,3955,N,0,N,3955,N,0,N,0,N,0,0,0,0,0,0,0,0,5805,0,286,53,0,0,339,9790,16901,0,0,26691,1,0,0,0,1,0,0,0,0,0,191,35,0,0,226,0,0,0,0,0,0,0,0,0,0,0,0,0,0,0,A65,200205.0,3.0,1.0,3.0,0.0,US TRUST COMPANY OF NEW YORK,,0.0,13.0,PF,O,AR,A,2.0,1.0,1.0,0,2,-5,0.614957,12,0,0,0,1.0,,1.0,,1.0,1.0,1.0,1.0,1.0,1.0,1,1,1,1,1,1,1,1,1,U,0.0,3.0,0.0,0.0,3.0,0.0,0.0,3.0,3.0,0.0,0.0,0.0,0.0,0.0,0.0,2.0,2.0,2.0,0.0,0.0,2.0,2.0,0.0,0.0,0.0,4.0,4.0,4.0,C,NY,10036.0,NEW YORK,core2002pf_ver1,PF,O,AR,A,IN,,A6E,A
10570,,,2002,134106981,BASEBALL ORAL HISTORY PROJECT FOUNDATION,NY,A,A80,477 MADISON AVE,NEW YORK,10022.0,10022-5802,36061.0,5602.0,5600.0,200212,2002,IN,,3,AR,AR,AR,1,A,0,0.0,0.0,0.0,0,2639,0,0,0,0,0,0,2639,55800,-53161,52297,2350,0,148936,0,0,0,0,0,148936,0,8644,N,0,Y,N,2639,N,2639,N,55800,N,N,289,N,52297,N,289,N,2639,N,148936,N,0,N,0,N,148936,N,0,N,148936,N,24,N,0,N,0,200,24,0,0,0,0,176,0,0,0,0,0,0,0,0,0,0,0,0,0,0,0,0,0,0,0,0,0,0,0,0,0,0,0,0,0,0,0,0,0,0,0,0,0,0,0,0,0,0,A80,200201.0,4.0,1.0,3.0,0.0,YOHALEM GILLMAN & CO LLP,,0.0,13.0,PF,O,AR,A,2.0,1.0,1.0,0,2,-5,0.029634300000000002,12,-176,0,24,1.0,,1.0,,1.0,1.0,1.0,1.0,1.0,1.0,1,U,U,U,U,U,U,U,U,7,0.0,3.0,0.0,3.0,3.0,2.0,2.0,2.0,3.0,0.0,0.0,0.0,0.0,0.0,0.0,2.0,2.0,0.0,3.0,0.0,0.0,0.0,0.0,0.0,0.0,4.0,4.0,4.0,C,NY,10022.0,NEW YORK,core2002pf_ver1,PF,S,AR,A,IN,,N63,N
10592,,,2001,134115047,SAUL STEINBERG FOUNDATION,NY,A,A99,145 E 57TH ST,NEW YORK,10022.0,10022-2141,36061.0,5602.0,5600.0,200203,2002,IN,,3,AR,AR,AR,1,A,0,0.0,0.0,0.0,697,28884,-28554,0,0,57728,19077,0,58755,209853,-151098,142416,26976,26976,8453710,1221618,0,0,1221618,0,8286475,0,55756,N,0,Y,N,29581,N,87309,Y,209853,N,N,2605,N,142416,Y,2605,N,60333,N,0,N,0,N,0,N,8286475,N,0,N,8453710,N,270,N,0,N,0,3600,270,0,400,0,0,1000,1132094,0,26976,36762,0,0,63738,142416,69926,0,0,212342,8286475,8432101,0,0,16718576,7226879,7242096,0,0,14468975,37171,24508,0,0,61679,0,0,0,0,0,0,0,0,0,0,0,0,0,0,0,A25,200006.0,3.0,1.0,3.0,0.0,JOHN SILBERMAN ASSOCIATES,,0.0,13.0,PF,O,AR,A,2.0,1.0,1.0,0,2,-5,0.338717,3,-3730,2730,270,1.0,,1.0,,1.0,1.0,1.0,1.0,1.0,1.0,1,1,1,1,1,1,1,1,1,U,2.0,3.0,0.0,3.0,3.0,2.0,2.0,2.0,0.0,2.0,0.0,0.0,0.0,0.0,0.0,2.0,2.0,2.0,2.0,2.0,2.0,0.0,2.0,0.0,0.0,4.0,4.0,4.0,N,NY,10022.0,NEW YORK,core2002pf_ver1,PF,O,AR,A,IN,,A25,A
10670,GS,JDD,2002,134138655,COMMISSION FOR ART RECOVERY INC,NY,A,A99,767 FIFTH AVE 46TH FLR,NEW YORK,10153.0,10153-0023,36061.0,5602.0,5600.0,200212,2002,IN,,3,AR,AR,AR,1,A,0,0.0,0.0,0.0,0,0,0,855000,0,0,0,50000,855000,1078667,-223667,895759,0,0,49936,0,0,0,0,399409,1,0,3653,N,0,N,N,0,N,0,N,1028667,N,N,0,N,845759,N,0,N,0,N,49936,N,0,N,0,N,0,N,0,N,-349473,N,0,N,0,N,0,0,0,0,0,0,0,0,74167,0,1,0,0,0,1,0,0,0,0,0,1,0,0,0,1,0,0,0,0,0,0,0,0,0,0,0,0,0,0,0,0,0,0,0,0,0,0,0,0,0,A20,200102.0,3.0,1.0,3.0,0.0,ANDREW L JAGODA,,0.0,13.0,PF,O,AR,A,1.0,1.0,1.0,0,2,-5,0.373159,12,0,0,0,1.0,M,1.0,,1.0,1.0,1.0,1.0,1.0,1.0,2,U,U,U,U,U,U,U,U,7,0.0,2.0,2.0,0.0,2.0,0.0,0.0,2.0,3.0,0.0,0.0,0.0,0.0,0.0,0.0,2.0,1.0,1.0,0.0,0.0,0.0,3.0,0.0,0.0,0.0,4.0,4.0,4.0,N,NY,10153.0,NEW YORK,core2002pf_ver1,PF,O,AR,A,IN,,A20,A
10699,,,2001,134145549,JOHN ROSSELLI FOUNDATION,NY,A,A99,523 E 73RD ST,NEW YORK,10021.0,10021-4003,36061.0,5602.0,5600.0,200112,2001,IN,,3,AR,AR,AR,1,A,0,0.0,0.0,0.0,74,0,0,138770,0,0,0,77466,138844,79750,59094,77466,74,0,59094,0,48750,0,48750,0,59094,0,611,N,0,N,N,74,N,0,N,2284,N,N,0,N,0,N,0,N,0,N,10344,N,0,N,0,N,59094,N,0,N,59094,N,0,N,0,N,0,0,0,0,0,0,0,0,12411,611,0,0,0,0,0,0,0,0,0,0,0,0,0,0,0,0,0,0,0,0,0,0,0,0,0,0,0,0,0,0,0,0,0,0,0,0,0,0,0,0,A12,200112.0,15.0,10.0,3.0,200412.0,KUPPERSMITH MOTTEL & CO LLP,,0.0,13.0,PC,O,AR,A,1.0,1.0,1.0,0,2,-5,0.135506,12,0,0,1,2.0,,1.0,,1.0,1.0,1.0,1.0,1.0,1.0,1,U,U,U,U,U,U,U,U,1,0.0,2.0,2.0,0.0,0.0,0.0,0.0,2.0,2.0,0.0,2.0,0.0,0.0,0.0,0.0,2.0,2.0,2.0,0.0,0.0,0.0,2.0,2.0,0.0,0.0,4.0,4.0,4.0,N,NY,10021.0,NEW YORK,core2002pf_ver1,PF,O,AR,A,IN,,A12,A
10777,,,2001,134156715,INDIAN DIAMOND & JEWELRY CHARITABLE FUND OF NY INC,NY,A,A99,60 E 42ND ST STE 2536,NEW YORK,10165.0,10165-2599,36061.0,5602.0,5600.0,200112,2001,IN,,3,AR,AR,AR,1,A,0,0.0,0.0,0.0,64,26497,0,1338258,0,0,0,1050000,1364819,1062387,302432,1050000,22998,0,302432,0,0,0,0,0,302432,0,35184,N,0,N,N,26561,N,0,N,12387,N,N,3563,N,0,N,3563,N,0,N,302432,N,0,N,0,N,302432,N,0,N,302432,N,460,N,0,N,0,0,460,0,0,3479,0,0,714387,34724,0,0,0,0,0,0,0,0,0,0,0,0,0,0,0,0,0,0,0,0,0,0,0,0,0,0,0,0,0,0,0,0,0,0,0,0,0,0,0,0,A12,200107.0,4.0,1.0,3.0,0.0,NORMAN J TANNENBAUM,,0.0,13.0,PF,O,AR,A,1.0,1.0,1.0,0,2,-5,0.986519,12,-3019,3019,460,1.0,,1.0,,1.0,1.0,1.0,1.0,1.0,1.0,1,U,U,U,U,U,U,U,U,4,0.0,2.0,2.0,3.0,0.0,2.0,0.0,2.0,3.0,0.0,0.0,0.0,0.0,0.0,0.0,2.0,2.0,2.0,2.0,0.0,0.0,2.0,2.0,0.0,0.0,4.0,4.0,4.0,N,NY,10165.0,NEW YORK,core2002pf_ver1,PF,S,AR,A,IN,,A23,A
10797,,,2001,134165975,FRIENDS OF RINRI KENKYUSHO OF NEW YORK INC,NY,A,A99,28 W 44TH ST STE 1507,NEW YORK,10036.0,10036-6600,36061.0,5602.0,5600.0,200208,2002,IN,,3,AR,AR,AR,1,A,0,0.0,0.0,0.0,0,0,0,112025,0,0,39787,3022,112025,113722,-1697,108183,0,0,14140,0,0,0,0,6000,14140,0,736,N,0,N,N,0,N,0,Y,110700,N,N,0,N,105161,N,0,N,110700,N,9260,N,0,N,0,N,14140,N,0,N,8140,N,0,N,0,N,0,0,0,0,0,0,0,0,14937,0,736,0,0,0,736,108183,60024,0,0,168207,14140,15837,0,0,29977,14140,15837,0,0,29977,0,0,0,0,0,112025,75931,0,0,187956,112025,75931,0,0,187956,0,0,0,0,0,A23,200112.0,3.0,1.0,3.0,0.0,EMIKO AKUTAGAWA LINDSAY,RINRI TOMO-NO-KAI,0.0,13.0,PF,O,AR,A,1.0,1.0,1.0,0,2,-5,0.07611799999999999,8,0,0,0,1.0,,1.0,,1.0,1.0,1.0,1.0,1.0,1.0,7,1,1,1,1,1,1,1,1,U,2.0,2.0,2.0,0.0,2.0,0.0,2.0,2.0,2.0,0.0,0.0,0.0,0.0,0.0,0.0,2.0,2.0,2.0,0.0,0.0,0.0,3.0,0.0,0.0,0.0,4.0,4.0,4.0,N,NY,10036.0,NEW YORK,core2002pf_ver1,PF,O,AR,A,IN,,A1170,A
10829,,,2002,134181214,MALEVICH SOCIETY,NY,A,A25,2 PARK AVE,NEW YORK,10016.0,10016-5675,36061.0,5602.0,5600.0,200212,2002,IN,,3,AR,AR,AR,1,A,0,0.0,0.0,0.0,8117,0,0,0,0,0,0,46000,8117,88836,-80719,85357,4638,0,917388,0,0,0,0,0,917388,0,47414,N,0,Y,N,8117,N,0,N,42836,N,N,3479,N,39357,N,3479,N,0,N,1880,N,0,N,0,N,917388,N,0,N,917388,Y,46,N,0,N,0,0,46,0,0,0,0,0,962714,47368,0,0,0,0,0,0,0,0,0,0,0,0,0,0,0,0,0,0,0,0,0,0,0,0,0,0,0,0,0,0,0,0,0,0,0,0,0,0,0,0,A25,200201.0,4.0,1.0,3.0,0.0,LAWRENCE KAYE TRUSTEE,,0.0,13.0,PF,O,AR,A,2.0,1.0,1.0,0,2,-5,0.562112,12,46,0,46,1.0,,1.0,,1.0,1.0,1.0,1.0,1.0,1.0,1,U,U,U,U,U,U,U,U,3,0.0,2.0,2.0,3.0,2.0,2.0,0.0,2.0,2.0,0.0,0.0,0.0,0.0,0.0,0.0,2.0,2.0,2.0,0.0,0.0,0.0,0.0,3.0,0.0,0.0,4.0,4.0,4.0,C,NY,10016.0,NEW YORK,core2002pf_ver1,PF,S,AR,A,IN,,A25,A
10831,,,2002,134182614,HARRIET AND ESTEBAN VICENTE FOUNDATION,NY,A,A99,501 FIFTH AVE STE 1803,NEW YORK,10017.0,10017-6189,36061.0,5602.0,5600.0,200212,2002,IN,,3,AR,AR,AR,1,A,0,0.0,0.0,0.0,7,0,0,6000,0,0,0,0,6007,1203,4804,745,0,0,4804,0,0,0,0,0,4804,0,80,N,0,N,N,7,N,0,N,1203,N,N,458,N,745,N,458,N,0,N,4804,N,0,N,0,N,4804,N,0,N,4804,N,0,N,0,N,0,0,0,0,0,0,0,0,1634,80,0,0,0,0,0,0,0,0,0,0,0,0,0,0,0,0,0,0,0,0,0,0,0,0,0,0,0,0,0,0,0,0,0,0,0,0,0,0,0,0,A20,200111.0,4.0,1.0,3.0,0.0,ROBERT S WARSHAW,,0.0,13.0,PF,O,AR,A,1.0,1.0,1.0,0,2,-5,0.0971967,12,0,0,0,1.0,,1.0,,1.0,1.0,1.0,1.0,1.0,1.0,1,U,U,U,U,U,U,U,U,1,0.0,3.0,0.0,3.0,3.0,2.0,0.0,2.0,3.0,0.0,0.0,0.0,0.0,0.0,0.0,2.0,2.0,2.0,0.0,0.0,0.0,2.0,2.0,0.0,0.0,4.0,4.0,4.0,N,NY,10017.0,NEW YORK,core2002pf_ver1,PF,S,AR,A,IN,,A20,A
10969,,,2000,136019220,POETRY SOCIETY OF AMERICA,NY,A,A70,15 GRAMERCY PARK,NEW YORK,10003.0,10003-1705,36061.0,5602.0,5600.0,200109,2001,IN,,3,AR,AR,AR,1,A,119,119.0,0.0,0.0,17506,0,0,395263,0,86479,66652,0,499248,488575,10673,394879,9978,15478,3443151,0,0,0,0,9007,3473851,0,168555,N,0,N,N,17506,N,103985,N,488575,N,N,7528,N,394879,N,7528,N,88507,N,49992,N,0,N,0,N,3473851,N,0,N,3434144,N,200,N,0,N,0,0,200,0,0,0,0,0,3422441,0,0,0,0,0,0,0,0,0,0,0,0,0,0,0,0,0,0,0,0,0,0,0,0,0,0,0,0,0,0,0,0,0,0,0,0,0,0,0,0,0,A70,193705.0,15.0,10.0,3.0,0.0,,,0.0,13.0,PC,O,AR,A,1.0,1.0,5.0,0,2,-5,0.7041229999999999,9,0,0,200,1.0,,1.0,,1.0,1.0,1.0,1.0,1.0,1.0,7,U,U,U,U,U,U,U,U,7,2.0,3.0,0.0,3.0,3.0,2.0,2.0,2.0,2.0,0.0,0.0,0.0,0.0,0.0,0.0,2.0,2.0,2.0,0.0,0.0,2.0,2.0,2.0,0.0,0.0,4.0,4.0,4.0,N,NY,10003.0,NEW YORK,core2002pf_ver1,PF,O,AR,A,IN,,A0370,A
13017,,,2001,137061011,WEISS MEMORIAL FOUNDATION TR,NY,A,A11,440 PARK AVE,NEW YORK,10016.0,10016-8012,36061.0,5602.0,5600.0,200206,2002,IN,,3,AR,AR,AR,1,A,60,60.0,0.0,0.0,0,0,0,34500,0,0,0,0,34500,1790,32710,120,197,1790,275087,0,0,0,0,0,275087,0,14096,N,0,N,N,0,N,0,Y,1790,N,N,197,Y,120,N,-197,N,-1790,N,1378,N,0,N,0,N,331781,N,0,N,275087,N,0,N,0,N,0,0,0,0,0,0,0,0,286206,0,1,0,0,0,1,34675,60474,68401,69238,232788,297280,264571,197794,144725,904370,297280,264571,197794,144725,904370,9402,6830,5556,3689,25477,34500,69000,70400,71000,244900,34500,69000,70400,71000,244900,0,0,0,0,0,A50I,199701.0,3.0,1.0,3.0,0.0,EUGENE STOLER CPA KONIGSBERG WOLF,WEISS HERBERT TTEE,0.0,13.0,PF,S,ZA,A,1.0,1.0,2.0,0,2,-5,0.528809,6,0,0,0,1.0,,1.0,,1.0,1.0,1.0,1.0,1.0,1.0,7,1,1,1,1,1,1,1,1,U,0.0,3.0,0.0,1.0,3.0,2.0,2.0,2.0,2.0,0.0,0.0,0.0,0.0,0.0,0.0,2.0,2.0,2.0,0.0,0.0,0.0,3.0,0.0,0.0,0.0,4.0,4.0,4.0,N,NY,10016.0,NEW YORK,core2002pf_ver1,PF,S,ZA,A,IN,,A50,A
13074,GS,,2002,137091348,LEO BRONSTEIN TRUST UW ELEANOR L WOLFF,NY,A,A70,157 E 71ST ST STE 3R,NEW YORK,10021.0,10021-4309,36061.0,5602.0,5600.0,200212,2002,IN,,3,AR,AR,AR,1,A,92,92.0,119.0,602.0,745,0,0,0,0,0,0,0,745,32902,-32157,30929,745,0,42246,0,0,0,0,0,42246,0,2846,N,0,N,N,745,N,0,N,32902,N,N,0,N,30929,N,0,N,0,N,0,N,0,N,0,N,42246,N,0,N,42246,N,15,N,0,N,0,0,15,0,0,0,0,0,57782,2831,0,0,0,0,0,0,0,0,0,0,0,0,0,0,0,0,0,0,0,0,0,0,0,0,0,0,0,0,0,0,0,0,0,0,0,0,0,0,0,0,A76Z,199701.0,4.0,1.0,3.0,0.0,KATHRYN K SOMAN,,0.0,13.0,PF,O,AR,A,3.0,1.0,2.0,0,2,-5,0.8261459999999999,12,15,0,15,1.0,M,1.0,,1.0,1.0,1.0,1.0,1.0,1.0,1,U,U,U,U,U,U,U,U,2,0.0,3.0,0.0,0.0,3.0,0.0,0.0,2.0,0.0,0.0,0.0,0.0,0.0,0.0,0.0,2.0,2.0,2.0,0.0,0.0,0.0,0.0,3.0,0.0,0.0,4.0,4.0,4.0,N,NY,10021.0,NEW YORK,core2002pf_ver1,PF,S,AR,A,IN,,T22,T
13102,YI.,JDD,2002,137100859,THE JAMES E AND PATRICIA D CAYNE CHARITABLE TRUST,NY,A,A99,383 MADISON AVE,NEW YORK,10179.0,10179-0001,36061.0,5602.0,5600.0,200305,2003,IN,,3,AR,AR,AR,1,A,602,602.0,0.0,0.0,644,177619,1882869,0,0,0,0,2444048,2061132,2471592,-410460,2444883,2061132,0,730422,0,682526,0,682526,0,19691089,0,838475,N,0,Y,N,2061132,N,0,N,27544,N,N,0,N,835,N,0,N,0,N,47896,N,0,N,0,N,19691089,N,0,N,730422,N,20611,N,0,N,0,20550,20611,0,0,0,0,0,17024880,817864,0,0,0,0,0,0,0,0,0,0,0,0,0,0,0,0,0,0,0,0,0,0,0,0,0,0,0,0,0,0,0,0,0,0,0,0,0,0,0,0,A99Z,199704.0,4.0,1.0,3.0,0.0,JAMES E CAYNE BEAR STEARNS & CO,,0.0,13.0,PF,O,AR,A,1.0,1.0,2.0,0,2,-5,0.21721,5,61,0,20611,1.0,M,1.0,2.0,1.0,1.0,1.0,1.0,1.0,1.0,1,U,U,U,U,U,U,U,U,4,0.0,2.0,2.0,0.0,2.0,0.0,0.0,2.0,2.0,0.0,2.0,0.0,0.0,0.0,0.0,1.0,2.0,2.0,2.0,2.0,0.0,0.0,2.0,0.0,0.0,4.0,4.0,4.0,N,NY,10179.0,NEW YORK,core2002pf_ver1,PF,S,AR,A,IN,,T22,T
13103,,,2002,137101223,KIKI KOGELNIK FOUNDATION,NY,A,A40,330 LAFAYETTE ST 7,NEW YORK,10012.0,10012-2739,36061.0,5602.0,5600.0,200212,2002,IN,,3,AR,AR,AR,1,A,91,91.0,0.0,0.0,51,0,0,66060,0,20871,0,0,86982,59898,27084,59898,0,20922,2951881,0,0,0,0,16961,4592643,0,4011,N,0,N,N,0,N,20922,Y,59898,N,N,0,N,59898,N,0,N,0,N,92643,N,0,N,2859238,N,4592643,N,0,N,2934920,N,0,N,0,N,0,20,0,0,0,0,0,20,81436,0,4011,0,0,0,4011,59898,12003,0,0,71901,1,0,0,0,1,0,0,0,0,0,0,0,0,0,0,0,0,0,0,0,0,0,0,0,0,0,0,0,0,0,A45Z,199705.0,3.0,1.0,3.0,0.0,STEPHEN KILDUNNE,,0.0,13.0,PF,O,AR,A,2.0,1.0,2.0,0,2,-5,0.391345,12,-20,0,0,1.0,,1.0,,1.0,1.0,1.0,1.0,1.0,1.0,1,1,1,1,1,1,1,1,1,U,0.0,3.0,0.0,0.0,3.0,0.0,0.0,3.0,2.0,0.0,0.0,0.0,0.0,2.0,0.0,2.0,2.0,2.0,0.0,0.0,2.0,2.0,2.0,0.0,0.0,4.0,4.0,4.0,N,NY,10012.0,NEW YORK,core2002pf_ver1,PF,O,AR,A,IN,,A40,A
13107,,,2001,137102174,RENATE HOFMANN ARTICLE 3 CHARITABLE TRUST 1874860,NY,A,A51,1211 AVE OF THE AMERICAS,NEW YORK,10036.0,10036-0000,36061.0,5602.0,5600.0,200209,2002,IN,,3,AR,AR,AR,1,A,326,326.0,91.0,0.0,6767,100115,-206457,0,0,0,49589,101400,-99575,155979,-255554,130185,80104,0,3076119,0,1790722,0,1790722,0,2977422,136915,161786,N,0,N,N,104898,N,0,N,54579,N,N,24794,N,28785,Y,24794,N,0,N,11269,N,0,N,600000,N,2977422,N,0,N,3076119,N,1602,N,0,N,0,2224,1602,0,0,0,0,622,3284997,160184,0,0,0,0,0,0,0,0,0,0,0,0,0,0,0,0,0,0,0,0,0,0,0,0,0,0,0,0,0,0,0,0,0,0,0,0,0,0,0,0,A51Z,199705.0,4.0,1.0,3.0,0.0,CHASE MANHATTAN BANK TAX DEPT,,0.0,13.0,PF,O,AR,A,1.0,1.0,2.0,0,2,-5,0.155474,9,-622,0,1602,1.0,,1.0,,1.0,1.0,1.0,1.0,1.0,1.0,1,U,U,U,U,U,U,U,U,4,2.0,2.0,2.0,3.0,2.0,2.0,0.0,2.0,2.0,0.0,2.0,0.0,0.0,2.0,0.0,2.0,2.0,2.0,4.0,2.0,0.0,0.0,4.0,0.0,0.0,4.0,4.0,4.0,N,NY,10036.0,NEW YORK,core2002pf_ver1,PF,S,AR,A,IN,,T22,T
15709,,,2002,222809914,MUSIC AND MORE INC,NY,A,A68,1995 BROADWAY 16TH FLR,NEW YORK,10023.0,10023-5882,36061.0,5602.0,5600.0,200212,2002,IN,,3,AR,AR,AR,1,A,90,90.0,0.0,0.0,512,41,0,35,0,0,0,28600,588,62230,-61642,28600,553,0,207902,0,0,0,0,0,113757,0,7500,N,0,N,N,553,N,0,N,33630,N,N,0,N,0,N,0,N,0,N,0,N,0,N,115654,N,113757,N,0,N,207902,N,11,N,0,N,0,0,11,0,0,0,0,0,152292,7489,0,0,0,0,0,0,0,0,0,0,0,0,0,0,0,0,0,0,0,0,0,0,0,0,0,0,0,0,0,0,0,0,0,0,0,0,0,0,0,0,A68Z,198708.0,4.0,1.0,3.0,0.0,GANER,,0.0,13.0,PF,O,AR,A,1.0,1.0,1.0,0,2,-5,0.119824,12,11,0,11,1.0,,1.0,,1.0,1.0,1.0,1.0,1.0,1.0,1,U,U,U,U,U,U,U,U,2,0.0,2.0,2.0,0.0,0.0,0.0,0.0,2.0,0.0,0.0,0.0,0.0,0.0,2.0,0.0,2.0,2.0,2.0,2.0,0.0,0.0,2.0,2.0,0.0,0.0,4.0,4.0,4.0,N,NY,10023.0,NEW YORK,core2002pf_ver1,PF,S,AR,A,IN,,A68,A
16000,,,2001,223047700,NEW YORK FOUNDATION FOR ARCHITECTURE INC,NY,A,A40,536 LAGUARDIA PL,NEW YORK,10012.0,10012-1401,36061.0,5602.0,5600.0,200112,2001,IN,,3,AR,AR,AR,1,A,59,59.0,0.0,0.0,2662,26217,-58942,381673,0,0,0,18000,351610,294081,57529,321464,26712,0,1098824,185697,0,0,185697,20605,1098824,0,48764,N,0,Y,N,28879,N,0,N,276081,N,N,2167,N,303464,N,2167,N,0,N,0,N,0,N,675412,N,1098824,N,0,N,1078219,Y,267,N,0,N,0,0,267,0,0,0,0,0,990132,48497,0,0,0,0,0,0,0,0,0,0,0,0,0,0,0,0,0,0,0,0,0,0,0,0,0,0,0,0,0,0,0,0,0,0,0,0,0,0,0,0,,196703.0,4.0,1.0,3.0,200312.0,,,0.0,13.0,PF,O,AR,A,1.0,1.0,1.0,0,2,-5,0.179327,12,267,0,267,1.0,,1.0,,1.0,1.0,1.0,1.0,1.0,1.0,1,U,U,U,U,U,U,U,U,3,0.0,2.0,2.0,3.0,2.0,2.0,0.0,1.0,0.0,2.0,0.0,0.0,0.0,2.0,0.0,2.0,2.0,2.0,2.0,2.0,0.0,4.0,2.0,0.0,0.0,4.0,4.0,4.0,N,NY,10012.0,NEW YORK,core2002pf_ver1,PF,S,AR,A,IN,,A40,A
16717,,,2002,223527668,YATES ART FOUNDATION INC,NY,A,A40,350 FIFTH STE 2822,NEW YORK,10118.0,10118-2899,36061.0,5602.0,5600.0,200306,2003,IN,,3,AR,AR,AR,1,A,60,60.0,0.0,0.0,0,15072,0,250000,0,0,0,0,265072,15657,249415,500,15072,15072,1612325,0,968401,0,968401,0,1448942,0,55813,N,0,Y,N,15072,N,15072,Y,15657,N,N,0,N,500,N,0,N,0,N,12401,N,0,N,0,N,1448942,N,0,N,1612325,N,301,N,0,N,0,0,301,0,0,0,0,0,1133251,0,15072,14071,18632,7154,54929,78500,44075,43589,40233,206397,1,0,0,0,1,0,0,0,0,0,37209,34306,28921,22192,122628,0,0,0,0,0,0,0,0,0,0,0,0,0,0,0,A40Z,199803.0,3.0,1.0,3.0,0.0,WOLLIN,,0.0,13.0,PF,O,AR,A,1.0,1.0,1.0,0,2,-5,0.79333,6,301,0,151,7.0,,1.0,,1.0,1.0,1.0,1.0,1.0,1.0,1,1,1,1,1,1,1,1,1,U,0.0,3.0,0.0,0.0,3.0,0.0,0.0,2.0,2.0,0.0,2.0,0.0,0.0,0.0,0.0,2.0,2.0,2.0,2.0,0.0,0.0,2.0,0.0,0.0,0.0,4.0,4.0,4.0,N,NY,10118.0,NEW YORK,core2002pf_ver1,PF,O,AR,A,IN,,A12,A
17003,,,2001,223668584,CWJ CLASSIC AUTOMOBILE MUSEUM INC,NY,A,A99,358 FIFTH AVE 9TH FLR,NEW YORK,10001.0,10001-2209,36061.0,5602.0,5600.0,200206,2002,IN,,3,AR,AR,AR,1,A,0,0.0,0.0,0.0,0,0,0,475000,0,0,0,0,475000,208842,266158,178883,0,0,2012945,0,0,0,0,0,2082031,0,96014,N,0,N,N,0,N,0,Y,208842,N,N,0,N,178883,N,0,N,0,N,116506,N,0,N,0,N,2082031,N,0,N,2012945,N,0,N,0,N,0,0,0,0,0,0,0,0,1949524,0,1,0,0,0,1,178883,212133,322730,0,713746,2082031,1721991,1665624,0,5469646,2081031,1721991,1665624,0,5468646,0,0,0,0,0,0,0,0,0,0,0,0,0,0,0,0,0,0,0,0,A54,200009.0,3.0,1.0,3.0,0.0,BEHAN LING & RUTA CPAS PC,,0.0,13.0,PF,O,AR,A,1.0,1.0,1.0,0,2,-5,0.474605,6,0,0,0,1.0,,1.0,,1.0,1.0,1.0,1.0,1.0,1.0,2,1,1,1,1,1,1,1,1,U,0.0,3.0,0.0,0.0,3.0,0.0,0.0,2.0,2.0,0.0,0.0,0.0,0.0,0.0,0.0,2.0,2.0,2.0,0.0,0.0,0.0,3.0,0.0,0.0,0.0,4.0,4.0,4.0,N,NY,10001.0,NEW YORK,core2002pf_ver1,PF,O,AR,A,IN,,A50,A
23411,,,2002,300021188,JOEL FAN FOUNDATION,NY,A,A12,200 W 15TH ST,NEW YORK,10011.0,10011-6539,36061.0,5602.0,5600.0,200212,2002,IN,,3,AR,AR,AR,1,A,0,0.0,0.0,0.0,0,825,398,0,0,0,0,22500,1223,23250,-22027,0,825,0,117973,0,117897,0,117897,0,108432,0,6166,N,0,N,N,825,N,0,N,750,N,N,0,N,0,N,0,N,0,N,76,N,0,N,0,N,108432,N,0,N,117973,N,17,N,0,N,0,0,17,0,0,0,0,0,125199,6149,0,0,0,0,0,0,0,0,0,0,0,0,0,0,0,0,0,0,0,0,0,0,0,0,0,0,0,0,0,0,0,0,0,0,0,0,0,0,0,0,A12,200305.0,4.0,1.0,3.0,0.0,JOEL FAN,,0.0,13.0,PF,S,ZB,A,1.0,1.0,1.0,0,2,-5,0.863951,12,17,0,17,1.0,,1.0,,1.0,1.0,1.0,1.0,1.0,1.0,1,U,U,U,U,U,U,U,U,2,0.0,2.0,2.0,0.0,0.0,0.0,0.0,0.0,2.0,0.0,2.0,0.0,0.0,0.0,0.0,2.0,2.0,2.0,2.0,2.0,0.0,0.0,0.0,0.0,0.0,4.0,4.0,4.0,C,NY,10011.0,NEW YORK,core2002pf_ver1,PF,S,ZB,A,IN,,A12,A
24699,YI.,JDD,2001,311584853,PRESERVATION AMERICA,NY,A,A80,907 FIFTH AVE STE 2A,NEW YORK,10021.0,10021-4156,36061.0,5602.0,5600.0,200112,2001,IN,,3,AR,AR,AR,1,A,62,62.0,0.0,0.0,369,0,0,0,0,0,0,0,369,8353,-7984,0,0,0,401723,0,0,0,0,453890,401723,0,0,N,0,N,N,369,N,3690,Y,8353,N,N,8353,N,0,N,8353,N,8353,N,0,N,0,N,0,N,401723,N,400000,N,-52167,N,0,N,0,N,0,0,0,0,0,0,0,0,0,0,1,0,0,0,1,0,0,0,0,0,1,0,0,0,1,0,0,0,0,0,0,0,0,0,0,0,0,0,0,0,0,0,0,0,0,0,0,0,0,0,A82Z,199802.0,3.0,1.0,3.0,0.0,MARILYN MEYERS,,0.0,13.0,PF,O,AR,A,2.0,1.0,2.0,0,2,-5,0.590727,12,0,0,0,1.0,M,1.0,3.0,1.0,1.0,1.0,1.0,1.0,1.0,2,1,1,1,1,1,1,1,1,U,0.0,3.0,0.0,3.0,0.0,3.0,3.0,0.0,0.0,0.0,0.0,0.0,0.0,0.0,2.0,2.0,2.0,0.0,0.0,0.0,0.0,0.0,3.0,0.0,0.0,4.0,4.0,2.0,N,NY,10021.0,NEW YORK,core2002pf_ver1,PF,O,AR,A,IN,,A82,A
24767,,,2001,311599286,SASSON SOFFER FOUNDATION INC,NY,A,A51,78 GRAND ST,NEW YORK,10013.0,10013-2255,36061.0,5602.0,5600.0,200210,2002,IN,,3,AR,AR,AR,1,A,998,998.0,0.0,0.0,6,0,0,907648,0,0,0,98400,907654,104792,802862,104786,0,0,825712,0,0,0,0,0,825712,0,0,N,0,N,N,6,N,6,Y,6392,N,N,48,N,6386,N,48,N,6,N,712,N,0,N,0,N,825712,N,0,N,825712,N,0,N,0,N,0,0,0,0,0,0,0,0,0,0,1,8,0,0,9,104786,8690,0,0,113476,1,0,0,0,1,0,0,0,0,0,0,0,0,0,0,0,0,0,0,0,0,0,0,0,0,0,0,0,0,0,A51,199903.0,3.0,1.0,3.0,0.0,SASSON SOFFER,,0.0,13.0,PF,O,AR,A,1.0,1.0,1.0,0,2,-5,0.600008,10,0,0,0,1.0,,1.0,,1.0,1.0,1.0,1.0,1.0,1.0,2,2,1,1,1,1,1,1,1,U,0.0,2.0,2.0,3.0,2.0,2.0,2.0,2.0,2.0,0.0,0.0,0.0,0.0,0.0,0.0,2.0,2.0,0.0,0.0,0.0,0.0,2.0,2.0,0.0,0.0,4.0,4.0,4.0,N,NY,10013.0,NEW YORK,core2002pf_ver1,PF,O,AR,A,IN,,A51,A
42924,,,2001,510393305,INSTITUTE FOR THE ADVANCEMENT OF CONTEMPORARY CHINESE ARCH LTD,NY,A,A23,350 FIFTH AVE STE 5411,NEW YORK,10118.0,10118-5411,36061.0,5602.0,5600.0,200112,2001,IN,,3,AR,AR,AR,1,A,0,0.0,0.0,0.0,0,0,0,61664,0,0,0,61664,61664,61664,0,61664,0,0,1,0,0,0,0,1,1,0,0,N,0,N,N,0,N,0,N,0,N,N,0,N,0,N,0,N,0,N,0,N,0,N,0,N,0,N,0,N,0,N,0,N,0,N,0,0,0,0,0,0,0,0,0,0,0,0,0,0,0,0,0,0,0,0,0,0,0,0,0,0,0,0,0,0,0,0,0,0,0,0,0,0,0,0,0,0,0,0,0,0,0,0,0,0,A23,200001.0,15.0,20.0,3.0,200312.0,YI TUAN & BRUNSTEIN,,0.0,13.0,PC,O,AR,A,1.0,1.0,1.0,0,2,-5,0.169454,12,0,0,0,1.0,,1.0,,1.0,1.0,1.0,1.0,2.0,1.0,1,U,U,U,U,U,U,U,U,1,0.0,0.0,3.0,0.0,0.0,0.0,0.0,3.0,0.0,0.0,0.0,0.0,0.0,0.0,0.0,2.0,2.0,0.0,0.0,0.0,0.0,3.0,0.0,0.0,0.0,4.0,4.0,4.0,N,NY,10118.0,NEW YORK,core2002pf_ver1,PF,O,AR,A,IN,,A40,A
57266,,,2001,742798673,JUDD FOUNDATION,NY,A,A20,300 E 42ND ST,NEW YORK,10017.0,10017-5947,36061.0,5602.0,5600.0,200206,2002,IN,,3,AR,AR,AR,1,A,60,60.0,91.0,0.0,541,0,247500,4061927,0,99529,0,0,4409497,267104,4142393,129710,0,0,61696349,0,0,0,0,40200,61696349,0,6689,N,0,N,N,541,N,100070,Y,267104,N,N,1000,N,129710,Y,1000,N,100440,N,244592,N,0,N,0,N,61696349,N,0,N,61656149,N,0,N,0,N,0,0,0,0,0,0,0,0,135809,0,1,0,0,0,1,129710,27071,0,0,156781,61696350,61513756,895879,925986,125031971,61449634,61496742,890787,922765,124759928,0,0,0,0,0,0,0,0,0,0,0,0,0,0,0,0,0,0,0,0,A20Z,199702.0,3.0,1.0,3.0,0.0,LUTZ AND CARR CPAS LLP,,0.0,13.0,PF,O,AR,A,2.0,1.0,1.0,0,2,-5,0.5828270000000001,6,0,0,0,1.0,,1.0,,1.0,1.0,1.0,1.0,1.0,1.0,2,1,1,1,1,1,1,1,1,U,0.0,3.0,0.0,3.0,3.0,2.0,2.0,2.0,2.0,0.0,0.0,0.0,0.0,0.0,0.0,2.0,2.0,2.0,0.0,2.0,2.0,2.0,2.0,0.0,0.0,4.0,4.0,4.0,N,NY,10017.0,NEW YORK,core2002pf_ver1,PF,O,AR,A,IN,,A20,A
60881,,,2002,770415802,NATIONAL ACADEMY OF EDUCATION,NY,A,A99,726 BROADWAY 5TH FLOOR,NEW YORK,10003.0,10003-9502,36061.0,5602.0,5600.0,200212,2002,IN,,3,AR,AR,AR,1,A,124,124.0,0.0,0.0,37674,0,0,22405,0,44152,78022,1450000,104231,2268903,-2164672,2267295,37674,81826,3965721,0,0,0,0,943209,3965721,0,95970,N,0,N,N,37674,N,81826,Y,818903,N,N,0,N,817295,N,0,N,0,N,351069,N,0,N,62077,N,3965721,N,0,N,3022512,Y,753,N,0,N,0,1342,753,0,0,0,0,589,1948631,0,81826,97193,96934,147496,423449,2267295,2376165,1897410,1733482,8274352,1,6313527,9466720,3782880,19563128,0,6313527,9466720,3782880,19563127,63980,64795,64623,151197,344595,0,0,0,0,0,0,0,0,0,0,0,0,0,0,0,A99Z,199606.0,3.0,1.0,3.0,0.0,NEW YORK UNIVERSITY SCHOOL OF ED,,0.0,13.0,PF,O,AR,A,1.0,1.0,1.0,0,2,-5,0.906861,12,-589,0,753,1.0,,1.0,,1.0,1.0,1.0,1.0,1.0,1.0,1,1,1,2,1,1,1,1,1,U,2.0,2.0,2.0,0.0,2.0,0.0,0.0,2.0,2.0,0.0,0.0,0.0,0.0,2.0,0.0,2.0,2.0,2.0,0.0,0.0,2.0,2.0,2.0,0.0,0.0,4.0,4.0,4.0,N,NY,10003.0,NEW YORK,core2002pf_ver1,PF,O,AR,A,IN,,A99,A
65169,,,2002,911898350,ROY LICHTENSTEIN FOUNDATION,NY,A,T23,745 WASHINGTON ST,NEW YORK,10014.0,10014-2042,36061.0,5602.0,5600.0,200212,2002,IN,,3,AR,AR,AR,1,A,124,124.0,0.0,0.0,495,232518,0,6575500,0,0,252297,0,6808513,931300,5877213,918758,149328,0,20499708,7935938,0,0,7935938,0,20815226,0,436864,N,0,N,N,149328,N,0,Y,931300,N,N,0,N,918758,N,0,N,0,N,34430,N,0,N,0,N,20815226,N,0,N,20499708,N,2987,N,0,N,0,7000,2987,0,0,0,60,3953,8870331,0,1,0,0,0,1,918758,671053,430917,178442,2199170,1,0,0,0,1,0,0,0,0,0,291243,268903,633,1460,562239,0,0,0,0,0,0,0,0,0,0,0,0,0,0,0,T99Z,199809.0,3.0,1.0,3.0,0.0,DOROTHY LICHTENSTEIN,,0.0,13.0,PF,O,ZC,A,1.0,1.0,1.0,0,2,-5,0.82996,12,-3953,0,2987,1.0,,1.0,,1.0,1.0,1.0,1.0,1.0,1.0,2,1,1,1,1,1,1,1,1,U,2.0,3.0,0.0,0.0,3.0,0.0,0.0,2.0,2.0,2.0,0.0,0.0,0.0,0.0,0.0,2.0,2.0,2.0,2.0,0.0,0.0,2.0,2.0,0.0,0.0,4.0,4.0,4.0,N,NY,10014.0,NEW YORK,core2002pf_ver1,PF,O,AR,A,IN,,T23,T
71734,,,2002,113024142,COMMITTEE TO SAVE THE RKO KEITHS THEATRE OF FLUSHING INC,NY,A,A65,33 47 165TH ST,FLUSHING,11358.0,11358-1443,36081.0,5602.0,5600.0,200212,2002,IN,,3,AR,AR,AR,1,A,352,352.0,0.0,0.0,0,0,0,0,0,0,0,0,0,0,0,0,0,0,1,0,0,0,0,0,1,0,0,N,0,N,N,0,N,0,N,0,N,N,0,N,0,N,0,N,0,N,0,N,0,N,0,N,0,N,0,N,0,N,0,N,0,N,0,0,0,0,0,0,0,0,0,0,0,0,0,0,0,0,0,0,0,0,0,0,0,0,0,0,0,0,0,0,0,0,0,0,0,0,0,0,0,0,0,0,0,0,0,0,0,0,0,0,B99Z,199106.0,4.0,1.0,3.0,0.0,GERARD S ROTONDI,,0.0,11.0,PF,O,AR,A,1.0,1.0,1.0,0,29491297019074,0,0.296327,12,0,0,0,,,,,,,,,,,,,,,,,,,,,,,,,,,,,,,,,,,,,,,,,,,,,,,,,C,NY,11358.0,FLUSHING,core2003pf,PF,S,AR,A,IN,,A65,A
71743,,,2001,113265032,CHILDRENS TALENT UNLIMITED INC,NY,A,A20,1059 CLARKSON AVE,BROOKLYN,11212.0,11212-2040,36047.0,5602.0,5600.0,200211,2002,IN,,3,AR,AR,AR,1,A,994,994.0,88.0,90.0,0,0,0,0,0,0,0,0,1,0,1,0,0,0,1,0,0,0,0,0,1,0,0,N,0,N,N,0,N,0,N,0,N,N,0,N,0,N,0,N,0,N,0,N,0,N,0,N,0,N,0,N,0,N,0,N,0,N,0,0,0,0,0,0,0,0,0,0,0,0,0,0,0,0,0,0,0,0,0,0,0,0,0,0,0,0,0,0,0,0,0,0,0,0,0,0,0,0,0,0,0,0,0,0,0,0,0,0,A20Z,199601.0,4.0,1.0,3.0,0.0,JANICE ROBERTSON,,0.0,11.0,PF,O,AR,A,1.0,1.0,1.0,0,29491311029074,0,0.845067,11,0,0,0,,,,,,,,,,,,,,,,,,,,,,,,,,,,,,,,,,,,,,,,,,,,,,,,,C,NY,11212.0,BROOKLYN,core2003pf,PF,S,AR,A,IN,,A20,A
71746,,,2002,113343213,ROY AND SHERRY DECARAVA FOUNDATION,NY,A,A25,201 EASTERN PKWY 5G,BROOKLYN,11238.0,11238-6137,36047.0,5602.0,5600.0,200309,2003,IN,,3,AR,AR,AR,1,A,0,0.0,0.0,0.0,328,0,0,9008,0,0,20000,8000,9336,30281,-20945,10233,328,328,172033,0,0,0,0,60000,172033,0,3163,N,0,N,N,328,N,328,Y,22281,N,N,0,Y,2233,Y,0,N,0,N,28784,N,0,N,0,N,172033,N,0,N,112033,N,7,N,0,N,0,0,7,0,0,0,0,0,64214,0,328,293,1908,2370,4899,10233,13197,25407,20907,69744,1,0,0,0,1,0,0,0,0,0,0,0,0,0,0,0,0,0,0,0,0,0,0,0,0,0,0,0,0,0,A25,199904.0,3.0,1.0,3.0,0.0,ROY & SHERRY & SUSAN W DECARAVA,,0.0,11.0,PF,O,AR,A,1.0,1.0,2.0,0,29491192020184,0,0.664334,9,7,0,0,,,,,,,,,,,,,,,,,,,,,,,,,,,,,,,,,,,,,,,,,,,,,,,,,C,NY,11238.0,BROOKLYN,core2003pf,PF,O,AR,A,IN,,A25,A
71796,,,2002,132930528,EAST ASIAN HISTORY OF SCIENCE INC EAHS,NY,A,A80,1285 AVE OF AMER,NEW YORK,10019.0,10019-0000,36061.0,5602.0,5600.0,200212,2002,IN,,3,AR,AR,AR,1,A,124,124.0,0.0,0.0,204,0,0,0,0,0,0,0,204,1590,-1386,796,0,0,13364,0,0,0,0,1350,13364,0,688,N,0,N,N,204,N,0,N,1590,N,N,796,N,796,N,796,N,0,N,0,N,0,N,0,N,13364,N,0,N,12014,N,0,N,0,N,0,0,0,0,0,0,0,0,13979,688,0,0,0,0,0,0,0,0,0,0,0,0,0,0,0,0,0,0,0,0,0,0,0,0,0,0,0,0,0,0,0,0,0,0,0,0,0,0,0,0,,197803.0,15.0,20.0,3.0,0.0,PAUL WEISS,,0.0,13.0,PC,O,AR,A,2.0,1.0,1.0,0,29491249056013,0,0.0468723,12,0,0,0,,,,,,,,,,,,,,,,,,,,,,,,,,,,,,,,,,,,,,,,,,,,,,,,,C,NY,10019.0,NEW YORK,core2003pf,PC,O,AR,A,IN,,A80,A
71802,,,2002,133070082,AMERICAN FRIENDS OF APHRODISIAS,NY,A,A11,410 PARK AVE S STE 1610,NEW YORK,10022.0,10022-9436,36061.0,5602.0,5600.0,200311,2003,IN,,3,AR,AR,AR,1,A,119,119.0,0.0,0.0,0,563,3100,0,0,0,0,3150,3663,5800,-2137,5138,3001,0,41096,0,40560,0,40560,0,41371,0,2003,N,0,N,N,3663,N,0,N,2650,N,N,662,N,1988,N,662,N,0,N,536,N,0,N,0,N,41371,N,0,N,41096,N,60,N,0,N,0,0,60,0,0,0,0,0,40673,1943,0,0,0,0,0,0,0,0,0,0,0,0,0,0,0,0,0,0,0,0,0,0,0,0,0,0,0,0,0,0,0,0,0,0,0,0,0,0,0,0,,198105.0,4.0,1.0,3.0,0.0,NINA J KOPRULU,,0.0,13.0,PF,S,ZA,A,1.0,1.0,1.0,0,29491311032064,0,0.722205,11,60,0,0,,,,,,,,,,,,,,,,,,,,,,,,,,,,,,,,,,,,,,,,,,,,,,,,,A,NY,10022.0,NEW YORK,core2003pf,PF,S,ZA,A,IN,,N99,N
71815,,,2002,133224878,TURNABOUT SONGS INC,NY,A,A20,315 RIVERSIDE DRIVE SUITE,NEW YORK,10025.0,10025-4100,36061.0,5602.0,5600.0,200212,2002,IN,,3,AR,AR,AR,1,A,123,123.0,0.0,0.0,28,0,0,22037,0,2267,0,0,24332,26948,-2616,25864,28,28,2040,0,0,0,0,0,2040,0,0,N,0,N,N,28,N,28,Y,26948,N,N,0,N,25864,N,0,N,0,N,0,N,0,N,0,N,2040,N,0,N,2040,N,0,N,0,N,0,0,0,0,0,0,0,0,2921,0,1,0,0,0,1,25864,13589,21427,34302,95182,2040,4656,4546,2538,13780,2040,4656,4546,2538,13780,0,0,0,0,0,24304,15804,18703,35396,94207,24304,15804,18703,35396,94207,28,17,11,19,75,A20Z,199112.0,3.0,1.0,3.0,0.0,,,0.0,13.0,PF,O,AR,A,1.0,1.0,1.0,0,29491354006233,0,0.5501560000000001,12,0,0,0,,,,,,,,,,,,,,,,,,,,,,,,,,,,,,,,,,,,,,,,,,,,,,,,,C,NY,10025.0,NEW YORK,core2003pf,PF,O,AR,A,IN,,A20,A
71840,,,2002,133464919,WORLD PRESS PHOTO USA FOUNDATION INC,NY,A,A40,45 ROCKEFELLER PLZ STE 15,NEW YORK,10111.0,10111-1502,36061.0,5602.0,5600.0,200212,2002,IN,,3,AR,AR,AR,1,A,91,91.0,0.0,0.0,0,0,0,0,0,0,0,0,0,719,-719,0,17,17,18376,0,0,0,0,15960,18376,0,0,N,0,N,N,17,N,17,N,719,N,N,0,N,0,N,0,N,0,N,18376,N,0,N,0,N,18376,N,0,N,2416,N,0,N,0,N,0,0,0,0,0,0,0,0,0,0,0,0,0,0,0,0,0,0,0,0,0,0,0,0,0,0,0,0,0,0,0,0,0,0,0,0,0,0,0,0,0,0,0,0,0,0,0,0,0,0,,198909.0,4.0,1.0,3.0,0.0,AMICORP SERVICES LTD,,0.0,13.0,PF,O,AR,A,1.0,1.0,1.0,0,29491361009143,0,0.358091,12,0,0,0,,,,,,,,,,,,,,,,,,,,,,,,,,,,,,,,,,,,,,,,,,,,,,,,,B,NY,10111.0,NEW YORK,core2003pf,PF,S,AR,A,IN,,A40,A
71854,,,2002,133590722,THE BERNSTEIN FAMILY FOUNDATION,NY,A,A12,25 CENTRAL PARK W 1Y,NEW YORK,10023.0,10023-7214,36061.0,5602.0,5600.0,200212,2002,IN,,3,AR,AR,AR,1,A,119,119.0,149.0,59.0,0,0,0,0,0,0,0,0,0,0,0,0,0,0,0,0,0,0,0,0,0,0,0,N,0,N,N,0,N,0,N,0,N,N,0,N,0,N,0,N,0,N,0,N,0,N,0,N,0,N,0,N,0,N,0,N,0,N,0,0,0,0,0,0,0,0,0,0,0,0,0,0,0,0,0,0,0,0,0,0,0,0,0,0,0,0,0,0,0,0,0,0,0,0,0,0,0,0,0,0,0,0,0,0,0,0,0,0,A20Z,199105.0,15.0,10.0,3.0,0.0,,,0.0,13.0,PC,S,ZB,A,1.0,1.0,1.0,0,29491220029024,0,0.389554,12,0,0,0,,,,,,,,,,,,,,,,,,,,,,,,,,,,,,,,,,,,,,,,,,,,,,,,,A,NY,10023.0,NEW YORK,core2003pf,PC,S,ZB,A,IN,,A1261,A
71871,,,2002,133794783,CONTEMPORARY ART FOR AMERICA,NY,A,A50,330 15TH ST 5D,NEW YORK,10011.0,10011-5963,36061.0,5602.0,5600.0,200306,2003,IN,,3,AR,AR,AR,1,A,994,994.0,60.0,0.0,0,0,0,0,0,0,0,0,1,0,1,0,0,0,1,0,0,0,0,0,1,0,0,N,0,N,N,0,N,0,N,0,N,N,0,N,0,N,0,N,0,N,0,N,0,N,0,N,0,N,0,N,0,N,0,N,0,N,0,0,0,0,0,0,0,0,0,0,0,0,0,0,0,0,0,0,0,0,0,0,0,0,0,0,0,0,0,0,0,0,0,0,0,0,0,0,0,0,0,0,0,0,0,0,0,0,0,0,A50Z,199507.0,4.0,1.0,3.0,0.0,DELEY GAZINELLI,,0.0,13.0,PF,O,AR,A,2.0,1.0,1.0,0,29491206033204,0,0.777986,6,0,0,0,,,,,,,,,,,,,,,,,,,,,,,,,,,,,,,,,,,,,,,,,,,,,,,,,C,NY,10011.0,NEW YORK,core2003pf,PF,S,AR,A,IN,,A50,A
71873,,,2002,133834448,CHOREOTECTONICS INC,NY,A,A60,155 W 70TH ST PH 2G,NEW YORK,10023.0,10023-4429,36061.0,5602.0,5600.0,200308,2003,IN,,3,AR,AR,AR,1,A,995,995.0,90.0,0.0,0,0,0,0,0,0,0,0,0,0,0,0,0,0,32,0,0,0,0,0,32,1,1,N,0,N,N,0,N,0,N,0,N,N,0,N,0,N,0,N,0,N,0,N,0,N,0,N,0,N,0,N,32,N,0,N,0,N,0,0,0,0,0,0,0,0,32,1,0,0,0,0,0,0,0,0,0,0,0,0,0,0,0,0,0,0,0,0,0,0,0,0,0,0,0,0,0,0,0,0,0,0,0,0,0,0,0,0,A60Z,199605.0,4.0,1.0,3.0,0.0,RUKA KITO,,0.0,13.0,PF,O,AR,A,2.0,1.0,1.0,0,29491199054244,0,0.771936,8,0,0,0,,,,,,,,,,,,,,,,,,,,,,,,,,,,,,,,,,,,,,,,,,,,,,,,,C,NY,10023.0,NEW YORK,core2003pf,PF,S,AR,A,IN,,A60,A
71879,,,2002,133887504,HOPE HOUSE THEATER INC,NY,A,A65,53 STANTON ST,NEW YORK,10002.0,10002-1361,36061.0,5602.0,5600.0,200212,2002,IN,,3,AR,AR,AR,1,A,994,994.0,88.0,90.0,0,0,0,0,0,0,0,0,1,0,1,0,0,0,1,0,0,0,0,0,1,0,0,N,0,N,N,0,N,0,N,0,N,N,0,N,0,N,0,N,0,N,0,N,0,N,0,N,0,N,0,N,0,N,0,N,0,N,0,0,0,0,0,0,0,0,0,0,0,0,0,0,0,0,0,0,0,0,0,0,0,0,0,0,0,0,0,0,0,0,0,0,0,0,0,0,0,0,0,0,0,0,0,0,0,0,0,0,A65,199605.0,16.0,20.0,3.0,0.0,GREG DROZDEK,,0.0,13.0,PC,O,AR,A,1.0,1.0,1.0,0,29491213040024,0,0.0470914,12,0,0,0,,,,,,,,,,,,,,,,,,,,,,,,,,,,,,,,,,,,,,,,,,,,,,,,,C,NY,10002.0,NEW YORK,core2003pf,PC,O,AR,A,IN,,A65,A
71892,,,2002,133973817,FRIENDS OF CHINA HERITAGE FUND LIMITED,NY,A,A11,440 W END AVE,NEW YORK,10024.0,10024-5358,36061.0,5602.0,5600.0,200309,2003,IN,,3,AR,AR,AR,1,A,994,994.0,119.0,0.0,3213,2707,0,20000,0,0,0,520000,25920,536392,-510472,531634,5920,0,956360,0,758466,0,758466,13258,956360,0,53047,N,0,Y,N,5920,N,0,N,16392,N,N,0,N,11634,N,0,N,0,N,197894,N,0,N,0,N,956360,N,0,N,943102,N,59,N,0,N,0,0,59,0,0,0,0,0,1077099,52988,0,0,0,0,0,0,0,0,0,0,0,0,0,0,0,0,0,0,0,0,0,0,0,0,0,0,0,0,0,0,0,0,0,0,0,0,0,0,0,0,A82Z,199807.0,4.0,1.0,3.0,0.0,DIANE T WOO,,0.0,13.0,PF,S,ZA,A,1.0,1.0,1.0,0,29491241087234,0,0.344918,9,59,0,0,,,,,,,,,,,,,,,,,,,,,,,,,,,,,,,,,,,,,,,,,,,,,,,,,C,NY,10024.0,NEW YORK,core2003pf,PF,S,ZA,A,IN,,A1180,A
71894,,,2002,133976351,DAVID MERRICK AND NATALIE LLOYD FOUNDATION INC,NY,A,A60,117 E 57TH ST,NEW YORK,10022.0,10022-2002,36061.0,5602.0,5600.0,200306,2003,IN,,3,AR,AR,AR,1,A,994,994.0,927.0,602.0,0,0,0,0,0,0,0,0,1,0,1,0,0,0,1,0,0,0,0,0,1,0,0,N,0,N,N,0,N,0,N,0,N,N,0,N,0,N,0,N,0,N,0,N,0,N,0,N,0,N,0,N,0,N,0,N,0,N,0,0,0,0,0,0,0,0,0,0,0,0,0,0,0,0,0,0,0,0,0,0,0,0,0,0,0,0,0,0,0,0,0,0,0,0,0,0,0,0,0,0,0,0,0,0,0,0,0,0,A60Z,199803.0,4.0,1.0,3.0,200206.0,SCOTT GILDEA & COMPANY,,0.0,13.0,PF,O,AR,A,1.0,1.0,1.0,0,29491340001013,0,0.634476,6,0,0,0,,,,,,,,,,,,,,,,,,,,,,,,,,,,,,,,,,,,,,,,,,,,,,,,,C,NY,10022.0,NEW YORK,core2003pf,PF,S,AR,A,IN,,G20,G
71902,,,2002,134006236,TEREZIN PUBLISHING PROJECT LTD,NY,A,A33,422 HUDSON ST,NEW YORK,10014.0,10014-3932,36061.0,5602.0,5600.0,200212,2002,IN,,3,AR,AR,AR,1,A,995,995.0,120.0,0.0,0,0,0,0,0,0,0,0,0,6014,-6014,0,0,0,1910,0,0,0,0,0,1910,0,0,N,0,N,N,0,N,0,N,6014,N,N,0,N,0,N,0,N,0,N,1910,N,0,N,0,N,1910,N,0,N,1910,N,0,N,0,N,0,0,0,0,0,0,0,0,1000,0,0,0,0,0,0,0,0,0,0,0,0,0,0,0,0,0,0,0,0,0,0,0,0,0,0,0,0,0,0,0,0,0,0,0,0,0,0,0,0,0,A33Z,199808.0,4.0,1.0,3.0,0.0,AMY LOWENHAR,,0.0,13.0,PF,O,AR,A,1.0,1.0,1.0,0,29491241052194,0,0.22611599999999998,12,0,0,0,,,,,,,,,,,,,,,,,,,,,,,,,,,,,,,,,,,,,,,,,,,,,,,,,C,NY,10014.0,NEW YORK,core2003pf,PF,S,AR,A,IN,,A33,A
71947,,,2002,136149781,PERFORMING ARTS FOUNDATION INC,NY,A,A60,21 E 40TH ST STE 1006,NEW YORK,10016.0,10016-0501,36061.0,5602.0,5600.0,200308,2003,IN,,3,AR,AR,AR,1,A,90,90.0,0.0,0.0,12423,287994,1280,100000,0,6280,0,28722,420125,227523,192602,213297,302742,309815,4379974,0,3686320,311773,3998093,0,4601837,0,217611,N,12148,N,N,313845,N,312565,Y,198801,N,N,11103,N,184575,N,11103,N,2750,N,36402,N,81851,N,2734,N,4533383,N,0,N,4379974,N,6055,N,0,N,0,9161,6055,0,0,0,0,3106,4418502,0,217611,209188,202318,194381,823498,213297,175680,231529,268150,888656,1,0,0,0,1,0,0,0,0,0,145074,139459,134879,129587,548999,0,0,0,0,0,0,0,0,0,0,0,0,0,0,0,A60Z,196411.0,3.0,1.0,3.0,0.0,SPITZ & EDELSTEIN CPAS,,0.0,13.0,PF,O,AR,A,1.0,1.0,1.0,0,29491017035054,0,0.405456,8,-3106,0,0,,,,,,,,,,,,,,,,,,,,,,,,,,,,,,,,,,,,,,,,,,,,,,,,,C,NY,10016.0,NEW YORK,core2003pf,PF,O,AR,A,IN,,A1260,A
71981,,,2002,137325028,FISHER LANDAU CENTER FOR ART,NY,A,A51,299 PARK AVE,NEW YORK,10171.0,10171-0002,36061.0,5602.0,5600.0,200212,2002,IN,,3,AR,AR,AR,1,A,0,0.0,0.0,0.0,0,20,0,4198616,0,0,0,0,4198636,104685,4093951,88505,20,0,4116777,0,0,0,0,22826,4132957,0,0,N,0,N,N,20,N,0,Y,104685,N,N,0,N,88505,N,0,N,0,N,0,N,0,N,0,N,4132957,N,0,N,4093951,N,0,N,0,N,0,0,0,0,0,0,0,0,0,0,1,0,0,0,1,594775,0,0,0,594775,4132957,0,0,0,4132957,4083444,0,0,0,4083444,4198616,0,0,0,4198616,0,0,0,0,0,0,0,0,0,0,20,0,0,0,20,A51,200210.0,3.0,1.0,3.0,0.0,FISHER BROTHERS,LANDAU EMILY FISHER TTEE,0.0,13.0,PF,O,AR,A,2.0,1.0,2.0,0,29491361015123,0,0.8605809999999999,12,0,0,0,,,,,,,,,,,,,,,,,,,,,,,,,,,,,,,,,,,,,,,,,,,,,,,,,C,NY,10171.0,NEW YORK,core2003pf,PF,O,AR,A,IN,,A51,A
72336,,,2002,311693404,PIECE BY PIECE PRODUCTIONS INC,NY,A,A99,1430 BROADWAY 17TH FLR,NEW YORK,10018.0,10018-3355,36061.0,5602.0,5600.0,200308,2003,IN,,3,AR,AR,AR,1,A,0,0.0,0.0,0.0,0,0,0,0,0,0,0,0,1,0,1,0,0,0,1,0,0,0,0,0,1,0,0,N,0,N,N,0,N,0,Y,0,N,N,0,N,0,N,0,N,0,N,0,N,0,N,0,N,0,N,0,N,0,N,0,N,0,N,0,0,0,0,0,0,0,0,0,0,1,0,0,0,1,0,0,0,0,0,1,0,0,0,1,0,0,0,0,0,0,0,0,0,0,0,0,0,0,0,0,0,0,0,0,0,0,0,0,0,A20,200006.0,3.0,1.0,3.0,0.0,REMINICK AARONS & CO LLP,,0.0,13.0,PF,O,AR,A,1.0,1.0,1.0,0,29491073069184,0,0.30493899999999996,8,0,0,0,,,,,,,,,,,,,,,,,,,,,,,,,,,,,,,,,,,,,,,,,,,,,,,,,C,NY,10018.0,NEW YORK,core2003pf,PF,O,AR,A,IN,,A20,A
72341,,,2002,311735171,INSTITUTE FOR ACOUSTICS FOR THE PERFORMING ARTS,NY,A,A99,114 W 26TH ST,NEW YORK,10001.0,10001-6812,36061.0,5602.0,5600.0,200306,2003,IN,,3,AR,AR,AR,1,A,0,0.0,0.0,0.0,938,0,0,35000,0,0,0,7000,35938,7505,28433,7505,938,0,160480,0,0,0,0,0,160480,0,7211,N,0,Y,N,938,N,0,N,505,N,N,0,N,505,N,0,N,0,N,0,N,0,N,0,N,160480,N,0,N,160480,N,9,N,0,N,0,0,9,0,0,0,0,0,146418,7202,0,0,0,0,0,0,0,0,0,0,0,0,0,0,0,0,0,0,0,0,0,0,0,0,0,0,0,0,0,0,0,0,0,0,0,0,0,0,0,0,A60,200102.0,15.0,10.0,3.0,200506.0,HERMAN KRAWITZ,,0.0,13.0,PC,O,AR,A,2.0,1.0,1.0,0,29491052055204,0,0.816096,6,9,0,0,,,,,,,,,,,,,,,,,,,,,,,,,,,,,,,,,,,,,,,,,,,,,,,,,C,NY,10001.0,NEW YORK,core2003pf,PC,O,AR,A,IN,,A60,A
73693,,,2002,986000319,AMERICAN CENTER FOUNDATION,NY,A,A25,120 WOOSTER ST,NEW YORK,10012.0,10012-5200,36061.0,5602.0,5600.0,200308,2003,OUT,I,3,AR,AR,AR,1,A,349,349.0,59.0,119.0,59,403213,386981,0,0,989,0,557972,791242,774282,16960,702141,718952,0,17174319,853616,12142348,1902323,14898287,80387,17174319,51226,767746,N,0,N,N,790253,N,0,N,216310,N,N,71301,N,144501,N,71301,N,0,N,40083,N,0,N,1680110,N,17174319,N,0,N,17093932,Y,14379,Y,0,N,0,0,14379,0,0,0,0,0,15588756,753367,0,0,0,0,0,0,0,0,0,0,0,0,0,0,0,0,0,0,0,0,0,0,0,0,0,0,0,0,0,0,0,0,0,0,0,0,0,0,0,0,T20,196402.0,4.0,1.0,3.0,0.0,FREDERICK B HENRY,,0.0,13.0,PF,O,AR,A,1.0,1.0,1.0,0,29491213019004,0,0.617668,8,14379,0,0,,,,,,,,,,,,,,,,,,,,,,,,,,,,,,,,,,,,,,,,,,,,,,,,,B,NY,10012.0,NEW YORK,core2003pf,PF,S,AR,A,OUT,I,A25,A
73711,,,2001,10547898,WTC PLATFORM FOUNDATION INC,NY,A,A80,5 UNION SQ W,NEW YORK,10003.0,10003-3306,36061.0,5602.0,5600.0,200112,2001,IN,,3,AR,AR,AR,1,A,0,0.0,0.0,0.0,0,0,0,55000,0,0,0,0,55000,0,55000,0,0,0,230000,0,0,0,0,175000,230000,0,0,N,0,N,N,0,N,0,N,0,N,N,0,N,0,N,0,N,0,N,230000,N,0,N,0,N,230000,N,0,N,55000,N,0,N,0,N,0,0,0,0,0,0,0,0,112500,0,0,0,0,0,0,0,0,0,0,0,0,0,0,0,0,0,0,0,0,0,0,0,0,0,0,0,0,0,0,0,0,0,0,0,0,0,0,0,0,0,A80,200205.0,4.0,1.0,3.0,0.0,% MILGROM GALUSKIN BALMUTH & CO CPA,,0.0,13.0,PF,O,AR,A,1.0,1.0,1.0,0,29491306028152,0,0.110107,12,0,0,0,,,,,,,,,,,,,,,,,,,,,,,,,,,,,,,,,,,,,,,,,,,,,,,,,C,NY,10003.0,NEW YORK,core2001pf,PF,S,AR,A,IN,,A80,A
73999,,,2001,113276202,ART SPIRIT INC,NY,A,A99,845 3RD AVE,NEW YORK,10022.0,10022-6601,36061,5602.0,5600.0,200112,2001,IN,,3,AR,AR,AR,1,A,994,994.0,91.0,0.0,0,0,0,36537,0,0,4628,250,36537,34881,1656,250,0,0,2034,0,0,0,0,0,2034,0,158,N,0,N,N,0,N,0,N,34631,N,N,0,N,0,N,0,N,0,N,2034,N,0,N,0,N,2034,N,0,N,2034,N,0,N,0,N,0,0,0,0,0,0,0,0,3217,158,0,0,0,0,0,0,0,0,0,0,0,0,0,0,0,0,0,0,0,0,0,0,0,0,0,0,0,0,0,0,0,0,0,0,0,0,0,0,0,0,A25,199602.0,15.0,20.0,3.0,199912.0,% ROSENZWEIG & MAFFIA,,0.0,13.0,PC,O,AR,A,1.0,1.0,1.0,0,29491229007082,0,0.466487,12,0,0,0,,,,,,,,,,,,,,,,,,,,,,,,,,,,,,,,,,,,,,,,,,,,,,,,,N,NY,10022.0,NEW YORK,core2001pf,PF,O,AR,A,IN,,A25,A
74146,,,2001,133626986,FRIENDS OF LOUISIANA MUSEUM OF MODERN ART IN DENMARK INC,NY,A,A11,620 FIFTH AVE STE 314,NEW YORK,10020.0,10020-2402,36061,5602.0,5600.0,200206,2002,IN,,3,AR,AR,AR,1,A,998,998.0,0.0,0.0,0,0,0,0,0,0,0,41675,0,43830,-43830,41675,0,0,1,0,0,0,0,0,1,0,0,N,0,N,N,0,N,0,N,2155,N,N,0,N,0,N,0,N,0,N,0,N,0,N,0,N,0,N,0,N,0,N,0,N,0,N,0,0,0,0,0,0,0,0,0,0,0,0,0,0,0,0,0,0,0,0,0,0,0,0,0,0,0,0,0,0,0,0,0,0,0,0,0,0,0,0,0,0,0,0,0,0,0,0,0,0,,199201.0,4.0,1.0,3.0,0.0,% ROSE & BOXER,,0.0,13.0,PF,S,ZA,A,1.0,1.0,1.0,0,29491222014072,0,0.262637,6,0,0,0,,,,,,,,,,,,,,,,,,,,,,,,,,,,,,,,,,,,,,,,,,,,,,,,,N,NY,10020.0,NEW YORK,core2001pf,PF,S,ZA,A,IN,,A1151,A
74152,,,2001,133702827,MILLENIAL ARTS INCORPORATED,NY,A,A99,733 THIRD AVE RM 1900,NEW YORK,10017.0,10017-3204,36061,5602.0,5600.0,200112,2001,IN,,3,AR,AR,AR,1,A,994,994.0,90.0,94.0,0,0,0,115900,0,0,0,0,115900,131231,-15331,131231,0,0,1,0,0,0,0,87266,1,0,653,N,0,Y,N,0,N,0,N,131231,N,N,0,N,131231,N,0,N,0,N,0,N,0,N,0,N,0,N,0,N,-87266,N,0,N,0,N,0,0,0,0,0,0,0,0,13249,653,0,0,0,0,0,0,0,0,0,0,0,0,0,0,0,0,0,0,0,0,0,0,0,0,0,0,0,0,0,0,0,0,0,0,0,0,0,0,0,0,,199407.0,4.0,1.0,3.0,0.0,% GMH CONSULTING INC,,0.0,13.0,PF,O,AR,A,1.0,1.0,1.0,0,29491250116162,0,0.238117,12,0,0,0,,,,,,,,,,,,,,,,,,,,,,,,,,,,,,,,,,,,,,,,,,,,,,,,,N,NY,10017.0,NEW YORK,core2001pf,PF,S,AR,A,IN,,A99,A
74165,,,2000,133795322,INTERNATIONAL SOCIETY FOR CONSCIOUSNESS AND THE ARTS,NY,A,A40,28 E 10TH ST APT 12L,NEW YORK,10003.0,10003-6214,36061,5602.0,5600.0,200107,2001,IN,,3,AR,AR,AR,1,A,994,994.0,123.0,0.0,0,0,0,0,0,0,0,0,1,0,1,0,0,0,1,0,0,0,0,0,1,0,0,N,0,N,N,0,N,0,N,0,N,N,0,N,0,N,0,N,0,N,0,N,0,N,0,N,0,N,0,N,0,N,0,N,0,N,0,0,0,0,0,0,0,0,0,0,0,0,0,0,0,0,0,0,0,0,0,0,0,0,0,0,0,0,0,0,0,0,0,0,0,0,0,0,0,0,0,0,0,0,0,0,0,0,0,0,A40Z,199509.0,4.0,1.0,3.0,0.0,% NINA REZNICK,,0.0,11.0,PF,O,AR,A,1.0,1.0,1.0,0,29491082031222,0,0.885193,7,0,0,0,,,,,,,,,,,,,,,,,,,,,,,,,,,,,,,,,,,,,,,,,,,,,,,,,N,NY,10003.0,NEW YORK,core2001pf,PF,S,AR,A,IN,,A03,A
74194,,,2000,133953850,MAJESTIC HARMONY INC,NY,A,A19,630 E 170TH ST 3A,BRONX,10456.0,10456-2340,36005,5602.0,5600.0,200106,2001,IN,,3,AR,AR,AR,1,A,994,994.0,119.0,0.0,0,0,0,0,0,0,0,0,1,0,1,0,0,0,1,0,0,0,0,0,1,0,0,N,0,N,N,0,N,0,N,0,N,N,0,N,0,N,0,N,0,N,0,N,0,N,0,N,0,N,0,N,0,N,0,N,0,N,0,0,0,0,0,0,0,0,0,0,0,0,0,0,0,0,0,0,0,0,0,0,0,0,0,0,0,0,0,0,0,0,0,0,0,0,0,0,0,0,0,0,0,0,0,0,0,0,0,0,A99M,199805.0,15.0,20.0,3.0,200106.0,% VERONICA CLARKE,,0.0,11.0,PC,O,AR,A,1.0,1.0,1.0,0,29491229033032,0,0.29630700000000004,6,0,0,0,,,,,,,,,,,,,,,,,,,,,,,,,,,,,,,,,,,,,,,,,,,,,,,,,N,NY,10456.0,BRONX,core2001pf,PF,O,AR,A,IN,,A99,A
74197,,,2001,133967980,LANDMARKS FOUNDATION PROTECTING SAC RED SITES GLOBALLY INC,NY,A,A70,155 E 75TH ST,NEW YORK,10021.0,10021-3251,36061,5602.0,5600.0,200112,2001,IN,,3,AR,AR,AR,1,A,994,994.0,119.0,0.0,0,0,0,38990,0,0,0,6000,38990,36271,2719,36271,0,0,6634,0,0,0,0,0,6634,0,260,N,0,N,N,0,N,0,N,30271,N,N,0,N,30271,N,0,N,0,N,6634,N,0,N,0,N,6634,N,0,N,6634,N,0,N,0,N,0,0,0,0,0,0,0,0,5275,260,0,0,0,0,0,0,0,0,0,0,0,0,0,0,0,0,0,0,0,0,0,0,0,0,0,0,0,0,0,0,0,0,0,0,0,0,0,0,0,0,A70Z,199712.0,15.0,10.0,3.0,200112.0,,,0.0,13.0,PC,O,AR,A,1.0,1.0,1.0,0,29491180078032,0,0.70885,12,0,0,0,,,,,,,,,,,,,,,,,,,,,,,,,,,,,,,,,,,,,,,,,,,,,,,,,N,NY,10021.0,NEW YORK,core2001pf,PF,O,AR,A,IN,,A70,A
74248,,,2001,134150082,STONE BARNS RESTORATION CORP,NY,A,A99,30 ROCKEFELLER PLZ STE 5600,NEW YORK,10112.0,10112-0002,36061,5602.0,5600.0,200112,2001,IN,,3,AR,AR,AR,1,A,0,0.0,0.0,0.0,5461,1593,0,6889554,0,787,0,0,6894173,3564,6890609,0,4277,4277,6890609,0,0,0,0,0,6925946,238868,238954,N,0,N,N,7841,N,7841,N,3564,N,N,3564,N,0,N,3564,N,3564,N,477195,N,0,N,909414,N,6925946,N,0,N,6890609,N,0,N,0,N,0,0,86,0,0,0,0,86,4851853,238868,0,0,0,0,0,0,0,0,0,0,0,0,0,0,0,0,0,0,0,0,0,0,0,0,0,0,0,0,0,0,0,0,0,0,0,0,0,0,0,0,A50,200107.0,4.0,1.0,3.0,0.0,% RICHARD N CATALDO,,0.0,13.0,PF,O,AR,A,1.0,2.0,1.0,0,29491271041182,0,0.56299,12,0,0,0,,,,,,,,,,,,,,,,,,,,,,,,,,,,,,,,,,,,,,,,,,,,,,,,,N,NY,10112.0,NEW YORK,core2001pf,PF,S,AR,A,IN,,A50,A
74331,,,2000,136227356,DANCE PERSPECTIVES FOUNDATION INC,NY,A,A62,433 E 51ST 8D,NEW YORK,10022.0,10022-6472,36061,5602.0,5600.0,200012,2000,IN,,3,AR,AR,AR,1,A,119,119.0,40.0,59.0,0,10734,0,6957,0,22915,0,3520,40606,24042,16564,12248,9765,22915,158483,0,0,0,0,0,158483,0,7549,N,0,N,N,10734,N,22915,N,20522,N,N,969,N,8728,N,969,N,0,N,0,N,0,N,141195,N,158483,N,0,N,158483,N,0,N,0,N,0,0,195,0,0,0,0,195,153279,7354,0,0,0,0,0,0,0,0,0,0,0,0,0,0,0,0,0,0,0,0,0,0,0,0,0,0,0,0,0,0,0,0,0,0,0,0,0,0,0,0,,196709.0,4.0,1.0,3.0,0.0,,,0.0,13.0,PF,O,AR,A,1.0,1.0,1.0,0,29491307092081,0,0.44855500000000004,12,0,0,0,,,,,,,,,,,,,,,,,,,,,,,,,,,,,,,,,,,,,,,,,,,,,,,,,C,NY,10022.0,NEW YORK,core2001pf,PF,S,AR,A,IN,,A62,A
77486,,,2000,133593900,SOVIET BUSINESS AND COMMERCIAL LAW EDUCATION FOUNDATION INC,NY,A,A99,30 ROCKEFELLER PLAZA,NEW YORK,10112.0,10112-0002,36061,5602.0,5600.0,200012,2000,IN,,3,AR,AR,AR,1,A,123,123.0,0.0,0.0,204,0,0,0,0,0,0,10678,204,10848,-10644,10515,204,0,1,0,0,0,0,0,1,0,425,N,0,Y,N,204,N,0,N,0,N,N,0,Y,0,N,0,N,0,N,0,N,0,N,0,N,0,N,0,N,0,N,0,N,0,N,0,0,2,0,0,0,0,2,8638,423,0,0,0,0,0,0,0,0,0,0,0,0,0,0,0,0,0,0,0,0,0,0,0,0,0,0,0,0,0,0,0,0,0,0,0,0,0,0,0,0,A99Z,199102.0,4.0,1.0,3.0,0.0,% EUGENE R SULLICAN ESQ CHADBOURNE,,0.0,13.0,PF,O,AR,A,1.0,1.0,1.0,0,29491132125241,0,0.22249000000000002,12,0,0,0,,,,,,,,,,,,,,,,,,,,,,,,,,,,,,,,,,,,,,,,,,,,,,,,,N,NY,10112.0,NEW YORK,core2001pf,PF,S,AR,A,IN,,B11,B
77499,,,2000,133783618,WORLD CITY PICTURES INC,NY,A,A65,520 W 43RD ST 5L,NEW YORK,10036.0,10036-4345,36061,5602.0,5600.0,200012,2000,IN,,3,AR,AR,AR,1,A,994,994.0,92.0,0.0,0,0,0,0,0,0,0,0,1,0,1,0,0,0,1,0,0,0,0,0,1,0,0,N,0,N,N,0,N,0,N,0,N,N,0,N,0,N,0,N,0,N,0,N,0,N,0,N,0,N,0,N,0,N,0,N,0,N,0,0,0,0,0,0,0,0,0,0,0,0,0,0,0,0,0,0,0,0,0,0,0,0,0,0,0,0,0,0,0,0,0,0,0,0,0,0,0,0,0,0,0,0,0,0,0,0,0,0,A65Z,199601.0,4.0,1.0,3.0,0.0,,,0.0,13.0,PF,O,AR,A,1.0,1.0,1.0,0,29491244038011,0,0.604173,12,0,0,0,,,,,,,,,,,,,,,,,,,,,,,,,,,,,,,,,,,,,,,,,,,,,,,,,N,NY,10036.0,NEW YORK,core2001pf,PF,S,AR,A,IN,,A65,A
77518,,,2000,134133834,VISIBLE THEATRE INC,NY,A,A99,201 E 28TH ST STE 3E,NEW YORK,10016.0,10016-8538,36061,5602.0,5600.0,200012,2000,IN,,3,AR,AR,AR,1,A,0,0.0,0.0,0.0,0,0,0,0,0,0,0,0,1,0,1,0,0,0,1,0,0,0,0,0,1,0,0,N,0,N,N,0,N,0,N,0,N,N,0,N,0,N,0,N,0,N,0,N,0,N,0,N,0,N,0,N,0,N,0,N,0,N,0,0,0,0,0,0,0,0,0,0,0,0,0,0,0,0,0,0,0,0,0,0,0,0,0,0,0,0,0,0,0,0,0,0,0,0,0,0,0,0,0,0,0,0,0,0,0,0,0,0,A65,200101.0,15.0,10.0,3.0,200412.0,% KRISTA D SMITH,,0.0,75.0,PC,O,AR,A,2.0,1.0,1.0,0,29491181035201,0,0.169791,12,0,0,0,,,,,,,,,,,,,,,,,,,,,,,,,,,,,,,,,,,,,,,,,,,,,,,,,N,NY,10016.0,NEW YORK,core2001pf,PF,O,AR,A,IN,,A65,A
