,EIN,TAXPER,FisYr,CYCLE,DLN,NTEE,ARC,LRC,RESERVED,EOSTATUS,STYEAR,RECCODE,ASS_CODE,INC_CODE,SUBSECCD,ACTIV,P1TCONT,P1INTREV,P1DIVID,P1NGASTS,P1GINVPF,P1OTHINC,P1OFCOMP,P1CONTPD,P1TOTREV,P1TOTEXP,P1EXCREV,P1TEXMEX,P1NETINV,P1NADINC,P2TOTAST,P2GVTINV,P2CRPSTK,P2CRPBND,P2TINVSC,P2TLIABL,P2TASFMV,P13UNDST,P10MIR,P6EXMPF,P6DOMORG,P7POLIT,P7LIQUID,P7POFCLM,P7DISSAL,P7DISBOR,P7DISSER,P7DISPAY,P7DISTRA,P7PAYGVT,P7UNDINC,P7BUSINT,P7JEOINV,P7PROPAG,P7ELECT,P7INDGRT,P7ORGGRT,P7OTHPUR,P1GRENTS,P1GOODS,P1INVRV,P1NADJRV,P1ADMEXP,P1INVEXP,P1CHAEXP,P1TINVEX,P1TADJEX,P2CASHBV,P2MORTG,P2EYOTIN,P2EYASST,P2MTGNTS,P3EYTFND,P6TEXCTX,P6TX511,P6TXSUBA,P6ESTTX,P6TXWTH,P6TXINV,P6TXWERR,P6TXPNLT,P6TXCRDT,P6TX4940,P10TASST,P11DISTR,P14NADJA,P14NADJB,P14NADJC,P14NADJD,P14TNADJ,P14QDISA,P14QDISB,P14QDISC,P14QDISD,P14TQDIS,P14ASVLA,P14ASVLB,P14ASVLC,P14ASVLD,P14TASVL,P14A4942,P14B4942,P14C4942,P14D4942,P14T4942,P14ENDWA,P14ENDWB,P14ENDWC,P14ENDWD,P14TENDW,P14TSUPA,P14TSUPB,P14TSUPC,P14TSUPD,P14TTSUP,P14PSUPA,P14PSUPB,P14PSUPC,P14PSUPD,P14TPSUP,P14GINVA,P14GINVB,P14GINVC,P14GINVD,P14TGINV,ZIP5,NAME,CONTACT,ADDRESS,CITY,STATE,ZIP,GEN,AFCD,CLASSCD,RULEDATE,DEDUCTCD,FNDNCD,ORGCD,DISTRICT,ARED,FRCD,ACCPER,SEC_NAME,ACTIV1,ACTIV2,ACTIV3,TFLD,P6TXRFD,verify,NTEECC,NTEE1,LEVEL1,LEVEL2,LEVEL3,LEVEL4,MAJGRPB,OUTNCCS,OUTREAS,NTEESRC,ntmaj10,ntmaj12,ntmaj5,randnum,nteeConf,FIPS,MSA_NECH,PMSA,stateOld1,zip5Old1,cityOld1,SOURCE,LEVEL1old20090616,LEVEL2old20090616,LEVEL3old20090616,LEVEL4old20090616,OUTNCCSold20090616,OUTREASold20090616,nteeFinal,nteeFinal1
174,10547898,200312,2003,200451.0,29491311026054,A80,N,Y,0.0,1.0,2003,3.0,4.0,2.0,3,0,20000,0,0,0,0,0,0,0,20000,2244,17756,2244,0,0,135325,0,0,0,0,125000,135325,0,0,N,N,N,N,N,N,N,Y,N,N,N,N,N,N,N,N,N,N,N,0,0,0,0,2244,2244,2244,2244,0,10325,0,0,135325,0,10325,0,0,0,0,0,0,0,0,0,0,0,0,0,0,0,0,0,0,0,0,0,0,0,0,0,0,0,0,0,0,0,0,0,0,0,0,0,0,0,0,0,0,0,0,0,0,0,0,0,0,0,0,10003.0,WTC PLATFORM FOUNDATION INC,MILGROM GALUSKIN BALMUTH & CO CPA,5 UNION SQ W,NEW YORK,NY,10003-3306,0.0,3.0,1.0,200205.0,1.0,4.0,1.0,13.0,0.0,1.0,12,,0.0,0.0,0.0,0,0,,A80,A,PF,O,AR,A,A,IN,,1,AR,AR,AR,0.489726,C,36061.0,5602.0,5600.0,NY,10003.0,NEW YORK,core2003pf_ver1,PF,S,AR,A,IN,,A80,A
177,10548602,200309,2003,200431.0,29491143244214,A51,N,Y,0.0,1.0,2002,2.0,6.0,5.0,3,0,500000,4130,19738,0,0,0,0,0,523868,8047,515821,0,23868,23868,1239481,0,0,0,0,0,1237419,51919,52158,N,Y,N,N,Y,N,N,N,N,N,N,N,N,N,N,N,N,N,N,0,0,23868,23868,8047,0,0,0,0,0,0,1102960,1237419,0,1239481,477,0,0,0,0,1100,0,0,623,477,1059039,51919,23868,12004,0,0,35872,50000,35000,0,0,85000,1,0,0,0,1,0,0,0,0,0,34772,23609,0,0,58381,0,0,0,0,0,0,0,0,0,0,0,0,0,0,0,10118.0,PETER AND CYNTHIA WILSON ART FOUNDATION INC,L WOLLIN,350 FIFTH AVE STE 2822,NEW YORK,NY,10118-2896,0.0,3.0,2.0,200207.0,1.0,3.0,1.0,13.0,0.0,1.0,9,,0.0,0.0,0.0,-623,0,,A51,A,PF,O,AR,A,A,IN,,1,AR,AR,AR,0.026045099999999998,C,36061.0,5602.0,5600.0,NY,10118.0,NEW YORK,core2003pf_ver1,PF,O,AR,A,IN,,A51,A
353,10733159,200312,2003,200426.0,29491164220004,A70,N,Y,0.0,1.0,2003,2.0,4.0,1.0,3,0,0,0,0,0,0,1547,20625,0,1547,53313,-51766,51764,0,0,124223,0,0,0,0,0,124223,0,0,N,N,N,Y,Y,N,N,N,Y,N,N,N,N,N,N,N,N,N,N,0,0,0,1547,53313,0,51764,0,1549,28223,0,0,124223,0,124223,0,0,0,0,0,0,0,0,0,0,0,0,1,0,0,0,1,51764,0,0,0,51764,124223,0,0,0,124223,0,0,0,0,0,1941,3562,0,0,5503,0,0,0,0,0,0,0,0,0,0,0,0,0,0,0,10011.0,FELIX GONZALEZ-TORRES FOUNDATION,ANDREA M ROSEN,525 W 24TH ST,NEW YORK,NY,10011-1104,0.0,3.0,1.0,200307.0,1.0,3.0,1.0,13.0,0.0,1.0,12,,0.0,0.0,0.0,0,0,,A70,A,PF,O,AR,A,A,IN,,1,AR,AR,AR,0.417724,C,36061.0,5602.0,5600.0,NY,10011.0,NEW YORK,core2003pf_ver1,PF,O,AR,A,IN,,A70,A
2757,43649708,200312,2003,200425.0,29491157013084,A51,N,Y,0.0,1.0,2003,2.0,3.0,3.0,3,0,79968,192,0,0,0,0,0,0,80160,6485,73675,4913,0,0,92128,0,0,0,0,0,92128,0,0,N,Y,N,N,N,N,N,N,N,N,N,N,N,N,N,N,N,N,N,0,0,192,0,6485,1572,4913,1572,0,92128,0,0,0,0,92128,0,0,0,0,0,0,0,0,0,0,0,0,0,0,0,0,0,0,0,0,0,0,0,0,0,0,0,0,0,0,0,0,0,0,0,0,0,0,0,0,0,0,0,0,0,0,0,0,0,0,0,0,10025.0,PISANO CHASE CATALOGUE RAISONNE PROJECT INC,D FREDERICK BAKER,375 RIVERSIDE DR ATE 13B,NEW YORK,NY,10025-2149,0.0,3.0,2.0,200302.0,1.0,3.0,1.0,13.0,0.0,1.0,12,,0.0,0.0,0.0,0,0,M,A51,A,PF,O,AR,A,A,IN,,1,AR,AR,AR,0.9567680000000001,C,36061.0,5602.0,5600.0,NY,10025.0,NEW YORK,core2003pf_ver1,PF,O,AR,A,IN,,A51,A
4230,50523809,200312,2003,200451.0,29491332097194,A51,N,Y,0.0,1.0,2003,2.0,8.0,6.0,3,0,3697876,2247,0,0,0,1912,0,27204,3707035,3173406,533629,3243050,2127,9039,38594354,0,0,0,0,1868161,38594354,0,15888,N,Y,N,N,Y,N,N,N,N,N,N,N,N,N,N,N,N,N,N,5000,0,2247,9159,3146202,120,120,120,120,203970,0,0,38594354,0,36726193,21,0,0,0,0,21,0,0,0,21,322593,0,9039,500,0,0,9539,9039,500,0,0,9539,37585088,37496250,0,0,75081338,37585088,37496250,0,0,75081338,0,0,0,0,0,0,0,0,0,0,0,0,0,0,0,0,0,0,0,0,10019.0,DORIS DUKE FOUNDATION FOR ISLAMIC ART,DORIS DUKE CHARITABLE FOUNDATION,650 FIFTH AVE 19TH FLR,NEW YORK,NY,10019-6108,0.0,3.0,1.0,200312.0,1.0,3.0,1.0,13.0,0.0,1.0,12,,0.0,0.0,0.0,0,0,M,A51,A,PF,O,AR,A,A,IN,,1,AR,AR,AR,0.218111,C,36061.0,5602.0,5600.0,NY,10019.0,NEW YORK,core2003pf_ver1,PF,O,AR,A,IN,,X40,X
4994,61532031,200312,2003,200429.0,29491178149094,A12,N,Y,0.0,1.0,2003,3.0,6.0,1.0,3,0,0,50,0,0,0,0,0,95000,50,99001,-98951,99000,50,0,1535349,0,0,0,0,0,1535349,0,78053,N,Y,N,N,N,N,N,N,N,N,N,N,N,N,N,N,N,Y,N,0,0,50,0,4001,0,4000,0,0,5349,0,0,1535349,0,1535349,1,0,0,0,0,0,0,0,0,1,1584825,78052,0,0,0,0,0,0,0,0,0,0,0,0,0,0,0,0,0,0,0,0,0,0,0,0,0,0,0,0,0,0,0,0,0,0,0,0,0,0,0,0,10021.0,ALEPH FOUNDATION FOR HUMANITIES,JOEL ORNSTEIN,667 MADISON AVE 11TH FLR,NEW YORK,NY,10021-8029,0.0,3.0,1.0,199904.0,1.0,4.0,1.0,13.0,0.0,1.0,12,,0.0,0.0,0.0,1,0,,A12,A,PF,S,ZB,A,A,IN,,1,AR,AR,AR,0.25185599999999997,C,36061.0,5602.0,5600.0,NY,10021.0,NEW YORK,core2003pf_ver1,PF,S,ZB,A,IN,,A70,A
5039,61551999,200406,2004,200446.0,29491297046074,A68,N,Y,0.0,1.0,2003,2.0,3.0,4.0,3,0,20146,204,1569,-619,0,3640,0,23500,24940,50754,-25814,45341,0,0,75319,0,0,0,0,0,75319,0,4715,N,N,N,N,Y,N,N,N,N,N,N,N,N,N,N,N,N,N,N,0,0,1773,5413,27254,2114,21841,2114,5413,2050,0,0,75319,0,75319,0,0,0,0,0,0,0,0,0,0,95732,0,1,0,0,0,1,21841,21045,21365,14242,78493,1,0,0,0,1,0,0,0,0,0,3143,3731,4950,6663,18487,0,0,0,0,0,0,0,0,0,0,0,0,0,0,0,10463.0,JOYCE DUTKA ARTS FOUNDATION INC,JOYCE DUTKA,PO BOX 630053,BRONX,NY,10463-0800,0.0,3.0,1.0,200004.0,1.0,3.0,1.0,13.0,0.0,1.0,6,,0.0,0.0,0.0,0,0,,A99,A,PF,O,AR,A,A,IN,,1,AR,AR,AR,0.578432,C,36005.0,5602.0,5600.0,NY,10463.0,BRONX,core2003pf_ver1,PF,O,AR,A,IN,,A1261,A
6114,113024142,200212,2002,200446.0,29491297019074,B99Z,N,Y,0.0,1.0,2002,3.0,1.0,0.0,3,352,0,0,0,0,0,0,0,0,0,0,0,0,0,0,1,0,0,0,0,0,1,0,0,N,N,N,N,N,N,N,N,N,N,N,N,N,N,N,N,N,N,N,0,0,0,0,0,0,0,0,0,0,0,0,0,0,0,0,0,0,0,0,0,0,0,0,0,0,0,0,0,0,0,0,0,0,0,0,0,0,0,0,0,0,0,0,0,0,0,0,0,0,0,0,0,0,0,0,0,0,0,0,0,0,0,0,0,0,0,11358.0,COMMITTEE TO SAVE THE RKO KEITHS THEATRE OF FLUSHING INC,GERARD S ROTONDI,33 47 165TH ST,FLUSHING,NY,11358-1443,0.0,3.0,1.0,199106.0,1.0,4.0,1.0,11.0,0.0,1.0,12,,352.0,0.0,0.0,0,0,,A65,A,PF,O,AR,A,A,IN,,1,AR,AR,AR,0.10491700000000001,C,36081.0,5602.0,5600.0,NY,11358.0,FLUSHING,core2003pf_ver1,PF,S,AR,A,IN,,A65,A
6115,113027025,200312,2003,200439.0,29491255028104,A23Z,N,Y,0.0,1.0,2003,3.0,2.0,1.0,3,119,0,3,712,-668,0,0,0,835,47,4948,-4901,3767,0,715,20417,0,0,0,0,0,18614,0,1022,N,N,N,N,N,N,N,N,N,N,N,N,N,N,N,N,N,N,N,0,0,715,715,4113,874,2932,874,0,1159,0,16222,18614,0,20417,0,0,0,0,0,0,0,0,0,0,20743,1022,0,0,0,0,0,0,0,0,0,0,0,0,0,0,0,0,0,0,0,0,0,0,0,0,0,0,0,0,0,0,0,0,0,0,0,0,0,0,0,0,10021.0,SJMS HUMANITIES ARTS AND SCIENCES CHARITY INC,MELVIN ROSEN,340 E 74TH ST,NEW YORK,NY,10021-3737,0.0,3.0,1.0,199108.0,1.0,4.0,1.0,13.0,0.0,1.0,12,,119.0,0.0,0.0,0,0,,A70,A,PF,O,AR,A,A,IN,,1,AR,AR,AR,0.325471,A,36061.0,5602.0,5600.0,NY,10021.0,NEW YORK,core2003pf_ver1,PF,S,AR,A,IN,,A70,A
6171,113121207,200402,2004,200451.0,29491332098244,A60Z,N,Y,0.0,1.0,2003,3.0,4.0,1.0,3,122,0,0,0,0,0,0,0,0,1,0,1,0,0,0,101510,0,0,0,0,75962,101510,0,0,N,N,N,N,N,N,N,N,N,N,N,N,N,N,N,N,N,N,N,0,0,0,0,0,0,0,0,0,0,0,0,101510,0,25548,0,0,0,0,0,0,0,0,0,0,0,0,0,0,0,0,0,0,0,0,0,0,0,0,0,0,0,0,0,0,0,0,0,0,0,0,0,0,0,0,0,0,0,0,0,0,0,0,0,0,0,0,10022.0,B KING PRODUCTIONS INC,STARR & CO,350 PARK AVE,NEW YORK,NY,10022-6022,0.0,3.0,1.0,199402.0,1.0,4.0,1.0,13.0,0.0,1.0,2,,122.0,0.0,0.0,0,0,,A60,A,PF,O,AR,A,A,IN,,1,AR,AR,AR,0.465242,C,36061.0,5602.0,5600.0,NY,10022.0,NEW YORK,core2003pf_ver1,PF,S,AR,A,IN,,A60,A
6179,113131714,200312,2003,200430.0,29491185051114,A99Z,N,Y,0.0,1.0,2003,3.0,1.0,1.0,3,560,0,0,0,0,0,0,0,0,1,0,1,0,0,0,1,0,0,0,0,0,1,0,0,N,N,N,N,N,N,N,N,N,N,N,N,N,N,N,N,N,N,N,0,0,0,0,0,0,0,0,0,0,0,0,0,0,0,0,0,0,0,0,0,0,0,0,0,0,0,0,0,0,0,0,0,0,0,0,0,0,0,0,0,0,0,0,0,0,0,0,0,0,0,0,0,0,0,0,0,0,0,0,0,0,0,0,0,0,0,11419.0,PEACE UNITY AND PROSPERITY FOUNDATION INC,SARITA SACHOEUA,95 54 111TH ST,RICHMOND HILL,NY,11419-1023,0.0,3.0,1.0,199607.0,1.0,4.0,1.0,11.0,0.0,1.0,12,,560.0,0.0,0.0,0,0,,A99,A,PF,O,AR,A,A,IN,,1,AR,AR,AR,0.36244899999999997,C,36081.0,5602.0,5600.0,NY,11419.0,RICHMOND HILL,core2003pf_ver1,PF,S,AR,A,IN,,A99,A
6191,113137086,200312,2003,200445.0,29491290078024,A99Z,N,Y,0.0,1.0,2003,3.0,4.0,4.0,3,560,100000,975,0,0,0,0,0,101185,100975,101339,-364,101185,821,821,196372,0,0,0,0,0,196372,0,9897,N,Y,N,N,N,N,N,N,N,N,N,N,N,N,N,N,N,N,N,0,0,975,975,154,154,0,154,154,196372,0,0,196372,0,196372,8,0,0,0,0,0,0,0,0,8,200951,9889,0,0,0,0,0,0,0,0,0,0,0,0,0,0,0,0,0,0,0,0,0,0,0,0,0,0,0,0,0,0,0,0,0,0,0,0,0,0,0,0,11423.0,J Z L FOUNDATION,MICKEY WOHL,87 09 CLIO ST,HOLLISWOOD,NY,11423-1229,0.0,3.0,1.0,199508.0,1.0,4.0,2.0,11.0,0.0,1.0,12,,560.0,0.0,0.0,8,0,,A99,A,PF,O,AR,A,A,IN,,1,AR,AR,AR,0.296069,C,36081.0,5602.0,5600.0,NY,11423.0,HOLLISWOOD,core2003pf_ver1,PF,S,AR,A,IN,,A99,A
6209,113162087,200312,2003,200452.0,29491339256124,,N,Y,0.0,1.0,2003,3.0,6.0,5.0,3,994,257295,0,0,0,0,315781,0,0,573076,474475,98601,455783,0,301219,1222938,0,566138,0,566138,222475,1222938,0,4372,N,N,N,N,N,N,N,N,N,N,N,N,N,N,N,N,N,N,N,0,0,0,315781,474475,0,455783,0,14562,24017,0,0,1222938,0,1000463,0,0,0,0,0,0,0,0,0,0,88761,0,0,0,0,0,0,0,0,0,0,0,0,0,0,0,0,0,0,0,0,0,0,0,0,0,0,0,0,0,0,0,0,0,0,0,0,0,0,0,0,0,10018.0,AMERICAN AIRPOWER MUSEUM,AVIREX LTD,15 W 39TH ST,NEW YORK,NY,10018-3806,0.0,3.0,1.0,199308.0,1.0,4.0,1.0,13.0,0.0,1.0,12,,994.0,60.0,0.0,0,0,,A50,A,PF,O,AR,A,A,IN,,1,AR,AR,AR,0.15026099999999998,B,36061.0,5602.0,5600.0,NY,10018.0,NEW YORK,core2003pf_ver1,PF,S,AR,A,IN,,A50,A
6282,113227149,200406,2004,200446.0,29491304006054,A47P,N,Y,0.0,1.0,2003,3.0,1.0,3.0,3,91,0,0,0,0,0,59870,0,50,59870,58136,1734,50,0,0,7948,0,0,0,0,7093,7945,0,0,N,N,N,N,N,N,N,N,N,N,N,N,N,N,N,N,N,N,N,0,0,0,0,58086,0,0,0,0,4560,0,0,0,0,854,0,0,0,0,0,0,0,0,0,0,7800,0,0,0,0,0,0,0,0,0,0,0,0,0,0,0,0,0,0,0,0,0,0,0,0,0,0,0,0,0,0,0,0,0,0,0,0,0,0,0,0,0,11231.0,CLAYWORKS ON COLUMBIA INC,,195 COLUMBIA STREET,BROOKLYN,NY,11231-0000,0.0,3.0,3.0,199612.0,1.0,4.0,1.0,11.0,0.0,1.0,6,,91.0,149.0,59.0,0,0,,A40,A,PF,O,AR,A,A,IN,,1,AR,AR,AR,0.342063,C,36047.0,5602.0,5600.0,NY,11231.0,BROOKLYN,core2003pf_ver1,PF,S,AR,A,IN,,A40,A
6324,113265032,200211,2002,200447.0,29491311029074,A20Z,N,Y,0.0,1.0,2001,3.0,1.0,1.0,3,994,0,0,0,0,0,0,0,0,1,0,1,0,0,0,1,0,0,0,0,0,1,0,0,N,N,N,N,N,N,N,N,N,N,N,N,N,N,N,N,N,N,N,0,0,0,0,0,0,0,0,0,0,0,0,0,0,0,0,0,0,0,0,0,0,0,0,0,0,0,0,0,0,0,0,0,0,0,0,0,0,0,0,0,0,0,0,0,0,0,0,0,0,0,0,0,0,0,0,0,0,0,0,0,0,0,0,0,0,0,11212.0,CHILDRENS TALENT UNLIMITED INC,JANICE ROBERTSON,1059 CLARKSON AVE,BROOKLYN,NY,11212-2040,0.0,3.0,1.0,199601.0,1.0,4.0,1.0,11.0,0.0,1.0,11,,994.0,88.0,90.0,0,0,,A20,A,PF,O,AR,A,A,IN,,1,AR,AR,AR,0.5048229999999999,C,36047.0,5602.0,5600.0,NY,11212.0,BROOKLYN,core2003pf_ver1,PF,S,AR,A,IN,,A20,A
6404,113343213,200309,2003,200430.0,29491192020184,A25,N,Y,0.0,1.0,2002,2.0,4.0,1.0,3,0,9008,328,0,0,0,0,20000,8000,9336,30281,-20945,10233,328,328,172033,0,0,0,0,60000,172033,0,3163,N,N,N,N,Y,N,N,Y,Y,N,N,N,N,N,N,N,N,N,N,0,0,328,328,22281,0,2233,0,0,28784,0,0,172033,0,112033,7,0,0,0,0,0,0,0,0,7,64214,0,328,293,1908,2370,4899,10233,13197,25407,20907,69744,1,0,0,0,1,0,0,0,0,0,0,0,0,0,0,0,0,0,0,0,0,0,0,0,0,0,0,0,0,0,11238.0,ROY AND SHERRY DECARAVA FOUNDATION,ROY & SHERRY & SUSAN W DECARAVA,201 EASTERN PKWY 5G,BROOKLYN,NY,11238-6137,0.0,3.0,1.0,199904.0,1.0,3.0,2.0,11.0,0.0,1.0,9,,0.0,0.0,0.0,7,0,,A25,A,PF,O,AR,A,A,IN,,1,AR,AR,AR,0.43557399999999996,C,36047.0,5602.0,5600.0,NY,11238.0,BROOKLYN,core2003pf_ver1,PF,O,AR,A,IN,,A25,A
6692,113498583,200307,2003,200417.0,29491101019184,T22,N,Y,0.0,42.0,2002,3.0,6.0,5.0,3,0,15248,71654,73487,0,0,782155,57434,20,942544,204265,738279,20,0,0,4932702,299875,2059428,588481,2947784,67675,6257280,0,0,N,N,N,N,N,N,N,N,N,N,N,N,N,N,N,N,N,N,N,0,0,0,0,204245,0,0,0,0,3,0,0,6257280,0,4865027,0,0,0,0,0,0,0,0,0,0,0,0,0,0,0,0,0,0,0,0,0,0,0,0,0,0,0,0,0,0,0,0,0,0,0,0,0,0,0,0,0,0,0,0,0,0,0,0,0,0,0,0,11354.0,VOELKER-ORTH MUSEUM,CATHERINE ABRAMS,149 19 38TH AVE,FLUSHING,NY,11354-4839,0.0,3.0,1.0,200006.0,1.0,4.0,5.0,11.0,0.0,1.0,7,,0.0,0.0,0.0,0,0,M,A50,A,PF,O,AR,A,A,IN,,1,AR,AR,AR,0.454979,C,36081.0,5602.0,5600.0,NY,11354.0,FLUSHING,core2003pf_ver1,PF,S,AR,A,IN,,A50,A
6820,113559712,200312,2003,200445.0,29491220040074,A51,N,Y,0.0,1.0,2003,2.0,6.0,2.0,3,0,0,0,0,-300,0,0,0,800,-300,17581,-17881,-17881,0,0,2620348,0,0,0,0,0,2621411,0,0,N,N,N,N,Y,N,N,N,N,N,N,N,N,N,N,N,N,N,N,0,0,0,0,16781,0,16135,0,16935,60448,0,0,2621411,0,2620348,0,0,0,0,0,0,0,0,0,0,0,0,1,0,0,0,1,16935,7549,6186,0,30670,1,0,0,0,1,0,0,0,0,0,0,0,0,0,0,0,0,0,0,0,0,0,0,0,0,0,0,0,0,0,11215.0,HAROLD WESTON FOUNDATION,REBECCA FOSTER,338 8TH ST 8,BROOKLYN,NY,11215-3339,0.0,3.0,1.0,200108.0,1.0,3.0,2.0,11.0,0.0,1.0,12,,0.0,0.0,0.0,0,0,,A99,A,PF,O,AR,A,A,IN,,1,AR,AR,AR,0.828991,C,36047.0,5602.0,5600.0,NY,11215.0,BROOKLYN,core2003pf_ver1,PF,O,AR,A,IN,,A51,A
6908,113630680,200306,2003,200445.0,29491178101004,A51,N,Y,0.0,1.0,2002,2.0,5.0,6.0,3,0,199153,290,0,3765,0,-46652,23835,120774,156556,386516,-229960,379076,1321,0,976617,0,0,0,0,15898,976617,0,52310,N,Y,N,N,Y,N,N,N,Y,N,N,N,Y,N,N,N,N,N,N,0,0,4055,4447,265742,2734,258302,2734,4447,671,0,875810,976617,0,960719,13,0,0,0,0,10,0,0,0,13,1062136,0,1,0,0,0,1,379076,118457,0,0,497533,1,0,0,0,1,0,0,0,0,0,0,0,0,0,0,0,0,0,0,0,0,0,0,0,0,0,0,0,0,0,11101.0,DORSKY GALLERY CURATORIAL PROGRAMS,DAVID DORSKY,11 03 45TH AVE,LONG IS CITY,NY,11101-5109,0.0,3.0,1.0,200204.0,1.0,3.0,1.0,11.0,0.0,1.0,6,,0.0,0.0,0.0,3,0,,A51,A,PF,O,AR,A,A,IN,,1,AR,AR,AR,0.8832969999999999,C,36081.0,5602.0,5600.0,NY,11101.0,LONG IS CITY,core2003pf_ver1,PF,O,AR,A,IN,,A50,A
7394,131873289,200312,2003,200421.0,29491122079154,A50Z,N,Y,0.0,1.0,2003,3.0,6.0,4.0,3,119,43625,4,60380,32386,0,0,0,73548,136396,145574,-9178,123406,70725,0,1720972,100072,1038164,571934,1710170,570,2107412,0,96536,N,Y,N,N,N,N,N,N,N,N,N,N,N,N,N,N,Y,N,N,0,0,92771,0,72026,22046,49858,22046,0,3444,0,0,2107412,0,1720401,707,0,0,611,0,0,0,0,0,707,1960139,95829,0,0,0,0,0,0,0,0,0,0,0,0,0,0,0,0,0,0,0,0,0,0,0,0,0,0,0,0,0,0,0,0,0,0,0,0,0,0,0,0,10017.0,BAGBY FOUNDATION FOR THE MUSICAL ARTS INC,,501 FIFTH AVE,NEW YORK,NY,10017-6103,0.0,3.0,1.0,194211.0,1.0,4.0,1.0,13.0,0.0,1.0,12,,119.0,0.0,0.0,97,0,,A50,A,PF,O,AR,A,A,IN,,1,AR,AR,AR,0.0980688,C,36061.0,5602.0,5600.0,NY,10017.0,NEW YORK,core2003pf_ver1,PF,S,AR,A,IN,,A68,A
7419,131966496,200112,2001,200417.0,29491073056034,,N,Y,0.0,1.0,2001,3.0,6.0,4.0,3,119,159709,98672,8608,6593,0,-37954,0,304110,235628,508172,-272544,455202,3155,28286,4860131,4300939,0,0,4300939,11145,4860131,0,455082,N,N,N,N,N,N,N,N,N,N,N,N,N,N,N,N,N,N,N,0,0,44195,69326,204062,41040,151092,41040,41040,47584,0,0,4860131,0,4848986,63,0,0,0,0,0,0,0,0,63,9240238,0,0,0,0,0,0,0,0,0,0,0,0,0,0,0,0,0,0,0,0,0,0,0,0,0,0,0,0,0,0,0,0,0,0,0,0,0,0,0,0,0,10016.0,AUTHORS LEAGUE FUND ESTABLISHED BY THE AUTHORS LEAGUE OF AMERICA INC,,31 E 28TH ST 10TH FLR,NEW YORK,NY,10016-7923,0.0,1.0,1.0,193603.0,1.0,4.0,1.0,13.0,0.0,1.0,12,,119.0,561.0,0.0,63,0,M,A11,A,PF,S,ZA,A,A,IN,,1,AR,AR,AR,0.5914119999999999,A,36061.0,5602.0,5600.0,NY,10016.0,NEW YORK,core2003pf_ver1,PF,S,ZA,A,IN,,A1170,A
7573,132930528,200212,2002,200406.0,29491249056013,,N,Y,0.0,1.0,2002,3.0,2.0,1.0,3,124,0,204,0,0,0,0,0,0,204,1590,-1386,796,0,0,13364,0,0,0,0,1350,13364,0,688,N,N,N,N,N,N,N,N,N,N,N,N,N,N,N,N,N,N,N,0,0,204,0,1590,796,796,796,0,0,0,0,13364,0,12014,0,0,0,0,0,0,0,0,0,0,13979,688,0,0,0,0,0,0,0,0,0,0,0,0,0,0,0,0,0,0,0,0,0,0,0,0,0,0,0,0,0,0,0,0,0,0,0,0,0,0,0,0,10019.0,EAST ASIAN HISTORY OF SCIENCE INC EAHS,PAUL WEISS,1285 AVE OF AMER,NEW YORK,NY,10019-0000,0.0,3.0,2.0,197803.0,1.0,15.0,1.0,13.0,0.0,20.0,12,,124.0,0.0,0.0,0,0,,A80,A,PC,O,AR,A,A,IN,,1,AR,AR,AR,0.779503,C,36061.0,5602.0,5600.0,NY,10019.0,NEW YORK,core2003pf_ver1,PC,O,AR,A,IN,,A80,A
7757,133070082,200311,2003,200447.0,29491311032064,,N,Y,0.0,1.0,2002,3.0,3.0,1.0,3,119,0,0,563,3100,0,0,0,3150,3663,5800,-2137,5138,3001,0,41096,0,40560,0,40560,0,41371,0,2003,N,N,N,N,N,N,N,N,N,N,N,N,N,N,N,N,N,N,N,0,0,3663,0,2650,662,1988,662,0,536,0,0,41371,0,41096,60,0,0,0,0,0,0,0,0,60,40673,1943,0,0,0,0,0,0,0,0,0,0,0,0,0,0,0,0,0,0,0,0,0,0,0,0,0,0,0,0,0,0,0,0,0,0,0,0,0,0,0,0,10022.0,AMERICAN FRIENDS OF APHRODISIAS,NINA J KOPRULU,410 PARK AVE S STE 1610,NEW YORK,NY,10022-9436,0.0,3.0,1.0,198105.0,1.0,4.0,1.0,13.0,0.0,1.0,11,,119.0,0.0,0.0,60,0,,A11,A,PF,S,ZA,A,A,IN,,1,AR,AR,AR,0.395476,A,36061.0,5602.0,5600.0,NY,10022.0,NEW YORK,core2003pf_ver1,PF,S,ZA,A,IN,,N99,N
7793,133096058,200312,2003,200444.0,29491164097054,,N,Y,0.0,1.0,2003,3.0,4.0,1.0,3,90,0,0,5989,434,0,0,0,17500,6423,18696,-12273,18070,5853,0,236145,0,0,0,0,0,250209,0,11972,N,Y,N,N,N,N,N,N,N,N,N,N,N,N,N,N,N,N,N,0,0,6423,0,1196,570,570,570,0,55833,0,180312,250209,0,236145,59,0,0,0,0,0,0,0,0,59,243084,11913,0,0,0,0,0,0,0,0,0,0,0,0,0,0,0,0,0,0,0,0,0,0,0,0,0,0,0,0,0,0,0,0,0,0,0,0,0,0,0,0,10016.0,BARBARA BARONDESS THEATRE LAB FOUNDATION INC,ERE & CO,440 PARK AVE S 5TH,NEW YORK,NY,10016-8012,0.0,3.0,1.0,198201.0,1.0,4.0,1.0,13.0,198312.0,1.0,12,,90.0,995.0,0.0,59,0,,A60,A,PF,O,AR,A,A,IN,,1,AR,AR,AR,0.425584,A,36061.0,5602.0,5600.0,NY,10016.0,NEW YORK,core2003pf_ver1,PF,S,AR,A,IN,,A60,A
7830,133106895,200405,2004,200447.0,29491311041134,A25I,N,Y,0.0,1.0,2003,3.0,1.0,2.0,3,46,18950,75,0,0,0,200,0,26000,19225,69752,-50527,69752,75,0,8895,0,0,0,0,0,8895,0,1615,N,Y,N,N,N,N,N,N,N,N,N,N,N,N,N,N,N,N,N,0,0,75,0,43752,0,43752,0,0,7464,0,0,8895,0,8895,1,0,0,0,0,0,0,0,0,1,32799,1614,0,0,0,0,0,0,0,0,0,0,0,0,0,0,0,0,0,0,0,0,0,0,0,0,0,0,0,0,0,0,0,0,0,0,0,0,0,0,0,0,10023.0,LACOSTE SCHOOL OF THE ARTS IN FRANCE INC,CLEVELAND INSTITUTE OF ART,PO BOX 230339 ANSONIA STA,NEW YORK,NY,10023-0006,0.0,3.0,1.0,200404.0,1.0,4.0,1.0,13.0,0.0,1.0,5,,46.0,0.0,0.0,1,0,,A11,A,PF,S,ZA,A,A,IN,,1,AR,AR,AR,0.825161,A,36061.0,5602.0,5600.0,NY,10023.0,NEW YORK,core2003pf_ver1,PF,S,ZA,A,IN,,A1125,A
7898,133150248,200312,2003,200438.0,29491255019134,,N,Y,0.0,1.0,2003,3.0,6.0,4.0,3,149,3122,867,109656,23724,0,0,0,103500,137369,156255,-18886,132727,110719,0,2680419,1455778,1128119,0,2583897,0,3070428,115130,144875,N,Y,N,N,N,N,N,N,N,N,N,N,N,N,N,N,N,N,N,0,0,134247,0,52755,23528,29227,23528,0,10506,0,0,3070428,0,2680419,1107,0,0,1731,0,0,0,0,624,1107,2941624,143768,0,0,0,0,0,0,0,0,0,0,0,0,0,0,0,0,0,0,0,0,0,0,0,0,0,0,0,0,0,0,0,0,0,0,0,0,0,0,0,0,10150.0,SOCIETE DES PROFESSEORS FRANCAIS EN AMERIQUE,,PO BOX 6026,NEW YORK,NY,10150-6026,0.0,3.0,2.0,199410.0,1.0,4.0,1.0,13.0,0.0,1.0,12,,149.0,0.0,0.0,-624,0,,A70,A,PF,O,AR,A,A,IN,,1,AR,AR,AR,0.9260729999999999,A,36061.0,5602.0,5600.0,NY,10150.0,NEW YORK,core2003pf_ver1,PF,S,AR,A,IN,,B82,B
8028,133224878,200212,2002,200405.0,29491354006233,A20Z,N,Y,0.0,1.0,2002,2.0,1.0,2.0,3,123,22037,28,0,0,0,2267,0,0,24332,26948,-2616,25864,28,28,2040,0,0,0,0,0,2040,0,0,N,N,N,N,Y,N,N,N,N,N,N,N,N,N,N,N,N,N,N,0,0,28,28,26948,0,25864,0,0,0,0,0,2040,0,2040,0,0,0,0,0,0,0,0,0,0,2921,0,1,0,0,0,1,25864,13589,21427,34302,95182,2040,4656,4546,2538,13780,2040,4656,4546,2538,13780,0,0,0,0,0,24304,15804,18703,35396,94207,24304,15804,18703,35396,94207,28,17,11,19,75,10025.0,TURNABOUT SONGS INC,,315 RIVERSIDE DRIVE SUITE,NEW YORK,NY,10025-4100,0.0,3.0,1.0,199112.0,1.0,3.0,1.0,13.0,0.0,1.0,12,,123.0,0.0,0.0,0,0,,A20,A,PF,O,AR,A,A,IN,,1,AR,AR,AR,0.265602,C,36061.0,5602.0,5600.0,NY,10025.0,NEW YORK,core2003pf_ver1,PF,O,AR,A,IN,,A20,A
8037,133229829,200404,2004,200437.0,29491241042054,A23Z,N,Y,0.0,1.0,2003,3.0,1.0,3.0,3,46,59992,0,0,0,0,0,0,0,59992,70786,-10794,0,0,0,3463,0,0,0,0,603,3463,0,0,N,N,N,N,N,N,N,N,N,N,N,N,N,N,N,N,N,N,N,0,0,0,0,70786,0,0,0,0,3463,0,0,3463,0,2860,0,0,0,0,0,0,0,0,0,0,0,0,0,0,0,0,0,0,0,0,0,0,0,0,0,0,0,0,0,0,0,0,0,0,0,0,0,0,0,0,0,0,0,0,0,0,0,0,0,0,0,0,10001.0,KOREAN LANGUAGE & CULTURAL INSTITUTE INC,,246 5TH AVE 500,NEW YORK,NY,10001-7603,0.0,3.0,1.0,199101.0,1.0,4.0,1.0,13.0,0.0,1.0,4,,46.0,0.0,0.0,0,0,,A23,A,PF,O,AR,A,A,IN,,1,AR,AR,AR,0.984087,A,36061.0,5602.0,5600.0,NY,10001.0,NEW YORK,core2003pf_ver1,PF,S,AR,A,IN,,A23,A
8457,133389923,200310,2003,200411.0,29491059019004,,N,Y,0.0,1.0,2002,3.0,4.0,1.0,3,122,0,0,0,0,0,234,0,0,234,2461,-2227,1787,0,0,120675,0,0,0,0,302168,22652,0,180,N,N,N,N,N,N,N,N,N,N,N,N,N,N,N,N,N,N,N,0,0,0,234,2461,0,1787,0,35539,2652,0,0,22652,0,-181493,0,0,0,0,0,0,0,0,0,0,3652,0,0,0,0,0,0,0,0,0,0,0,0,0,0,0,0,0,0,0,0,0,0,0,0,0,0,0,0,0,0,0,0,0,0,0,0,0,0,0,0,0,10024.0,THE TEREZIN FOUNDATION INC,,262 CENTRAL PARK WEST,NEW YORK,NY,10024-3512,0.0,3.0,1.0,198703.0,1.0,4.0,1.0,13.0,0.0,1.0,10,,122.0,0.0,0.0,0,0,,A31,A,PF,O,AR,A,A,IN,,1,AR,AR,AR,0.975183,A,36061.0,5602.0,5600.0,NY,10024.0,NEW YORK,core2003pf_ver1,PF,S,AR,A,IN,,A31,A
8511,133406046,200312,2003,200431.0,29491192037214,A40,N,Y,0.0,1.0,2003,3.0,1.0,1.0,3,0,0,11,0,0,0,0,0,0,11,116,-105,116,11,0,7614,0,0,0,0,0,7614,0,378,N,N,N,N,N,N,N,N,N,N,N,N,N,N,N,N,N,N,N,0,0,11,11,116,0,116,0,0,7614,0,0,7614,0,7614,0,0,0,0,0,0,0,0,0,0,7667,378,0,0,0,0,0,0,0,0,0,0,0,0,0,0,0,0,0,0,0,0,0,0,0,0,0,0,0,0,0,0,0,0,0,0,0,0,0,0,0,0,10003.0,FRANCIS J GREENBURGER FOUNDATION INC,TIME EQUITIES INC,55 5TH AVE,NEW YORK,NY,10003-4301,0.0,3.0,1.0,200106.0,1.0,4.0,1.0,13.0,0.0,1.0,12,,0.0,0.0,0.0,0,0,,A99,A,PF,O,AR,A,A,IN,,1,AR,AR,AR,0.8876930000000001,C,36061.0,5602.0,5600.0,NY,10003.0,NEW YORK,core2003pf_ver1,PF,S,AR,A,IN,,A40,A
8606,133442953,200212,2002,200403.0,29491361042163,,N,Y,0.0,1.0,2002,3.0,1.0,1.0,3,121,0,12,0,0,0,0,0,0,12,1147,-1135,0,12,12,6340,0,0,0,0,2166,6282,0,0,N,N,N,N,N,N,N,N,N,N,N,Y,N,N,N,N,N,N,N,0,0,12,12,25,0,0,0,0,3956,0,0,6282,0,4174,0,0,0,0,0,0,0,0,0,0,0,0,0,0,0,0,0,0,0,0,0,0,0,0,0,0,0,0,0,0,0,0,0,0,0,0,0,0,0,0,0,0,0,0,0,0,0,0,0,0,0,0,10024.0,VIDEO INFORMATION NETWORK,,257 W 86TH ST APT 5A,NEW YORK,NY,10024-3105,0.0,3.0,1.0,198802.0,1.0,4.0,1.0,13.0,0.0,1.0,12,,121.0,0.0,0.0,0,0,,A31,A,PF,O,AR,A,A,IN,,1,AR,AR,AR,0.31714499999999995,B,36061.0,5602.0,5600.0,NY,10024.0,NEW YORK,core2003pf_ver1,PF,S,AR,A,IN,,A31,A
8652,133464919,200212,2002,200405.0,29491361009143,,N,Y,0.0,1.0,2002,3.0,2.0,0.0,3,91,0,0,0,0,0,0,0,0,0,719,-719,0,17,17,18376,0,0,0,0,15960,18376,0,0,N,N,N,N,N,N,N,N,N,N,N,N,N,N,N,N,N,N,N,0,0,17,17,719,0,0,0,0,18376,0,0,18376,0,2416,0,0,0,0,0,0,0,0,0,0,0,0,0,0,0,0,0,0,0,0,0,0,0,0,0,0,0,0,0,0,0,0,0,0,0,0,0,0,0,0,0,0,0,0,0,0,0,0,0,0,0,0,10111.0,WORLD PRESS PHOTO USA FOUNDATION INC,AMICORP SERVICES LTD,45 ROCKEFELLER PLZ STE 15,NEW YORK,NY,10111-1502,0.0,3.0,1.0,198909.0,1.0,4.0,1.0,13.0,0.0,1.0,12,,91.0,0.0,0.0,0,0,,A40,A,PF,O,AR,A,A,IN,,1,AR,AR,AR,0.137025,B,36061.0,5602.0,5600.0,NY,10111.0,NEW YORK,core2003pf_ver1,PF,S,AR,A,IN,,A40,A
8682,133486646,200312,2003,200437.0,29491241048224,,N,Y,0.0,1.0,2003,3.0,4.0,4.0,3,123,0,1747,2599,-1645,0,0,0,25000,2701,28127,-25426,41690,3863,0,247847,0,0,0,0,0,247847,848,13563,N,Y,N,N,N,N,N,N,N,N,N,N,N,N,N,N,N,N,N,0,0,4346,0,3127,483,1690,483,0,0,0,0,247847,0,247847,39,0,0,720,0,0,0,0,681,39,275400,28524,0,0,0,0,0,0,0,0,0,0,0,0,0,0,0,0,0,0,0,0,0,0,0,0,0,0,0,0,0,0,0,0,0,0,0,0,0,0,0,0,10036.0,RONALD A WILFORD FOUNDATION FOR CONDUCTORS INC,US TRUST CO OF NY,114 W 47TH ST TAXVS,NEW YORK,NY,10036-1510,0.0,3.0,1.0,198906.0,1.0,4.0,1.0,13.0,0.0,1.0,12,,123.0,0.0,0.0,-681,0,,A60,A,PF,O,AR,A,A,IN,,1,AR,AR,AR,0.30430999999999997,B,36061.0,5602.0,5600.0,NY,10036.0,NEW YORK,core2003pf_ver1,PF,S,AR,A,IN,,A60,A
8837,133556699,200312,2003,200450.0,29491332014014,,N,Y,0.0,1.0,2003,3.0,2.0,3.0,3,60,65670,0,0,0,0,0,0,0,65670,80815,-15145,0,0,0,14390,0,0,0,0,0,14390,0,0,N,N,N,N,N,N,N,N,N,N,N,Y,N,N,N,N,N,N,N,0,0,0,0,80815,0,0,0,0,0,0,0,14390,0,14390,0,0,0,0,0,0,0,0,0,0,0,0,0,0,0,0,0,0,0,0,0,0,0,0,0,0,0,0,0,0,0,0,0,0,0,0,0,0,0,0,0,0,0,0,0,0,0,0,0,0,0,0,10012.0,CHAIM GROSS MUSEUM,ADFEL LEVY ZLOTNICK & CO,526 LAGUARDIA PL,NEW YORK,NY,10012-1401,0.0,3.0,1.0,199008.0,1.0,4.0,1.0,13.0,0.0,1.0,12,,60.0,0.0,0.0,0,0,,A50,A,PF,O,AR,A,A,IN,,1,AR,AR,AR,0.9570879999999999,B,36061.0,5602.0,5600.0,NY,10012.0,NEW YORK,core2003pf_ver1,PF,S,AR,A,IN,,A50,A
8881,133573737,200312,2003,200449.0,29491325001034,A23Z,N,Y,0.0,1.0,2003,3.0,3.0,4.0,3,92,299157,246,0,0,0,0,44631,0,299403,270910,28493,263947,0,0,39583,0,0,0,0,2114,39583,0,4031,N,N,N,N,N,N,N,N,N,N,N,N,N,N,N,N,N,N,N,0,0,246,0,270910,246,263947,246,0,28617,0,0,39583,0,37469,0,0,0,0,0,0,0,0,0,0,81839,4031,0,0,0,0,0,0,0,0,0,0,0,0,0,0,0,0,0,0,0,0,0,0,0,0,0,0,0,0,0,0,0,0,0,0,0,0,0,0,0,0,10003.0,FINNISH FOUNDATION FOR VISUAL ARTS INC,CHRISTY & VIENER,799 BROADWAY ROOM 527,NEW YORK,NY,10003-6815,0.0,3.0,1.0,199011.0,1.0,4.0,1.0,13.0,0.0,1.0,12,,92.0,0.0,0.0,0,0,,A23,A,PF,O,AR,A,A,IN,,1,AR,AR,AR,0.660187,A,36061.0,5602.0,5600.0,NY,10003.0,NEW YORK,core2003pf_ver1,PF,S,AR,A,IN,,A23,A
8882,133573803,200312,2003,200424.0,29491143247154,,N,Y,0.0,1.0,2003,3.0,1.0,1.0,3,119,0,0,0,0,0,0,0,0,1,194,-193,194,0,0,1,0,0,0,0,0,1,0,0,N,N,N,N,N,N,N,N,N,N,N,N,N,N,N,N,N,N,N,0,0,0,0,194,0,194,0,0,0,0,0,0,0,0,0,0,0,0,0,0,0,0,0,0,0,0,0,0,0,0,0,0,0,0,0,0,0,0,0,0,0,0,0,0,0,0,0,0,0,0,0,0,0,0,0,0,0,0,0,0,0,0,0,0,0,0,10022.0,FILM FOUNDATION INC,STARR & COMPANY,445 PARK AVE 7TH FLR,NEW YORK,NY,10022-2606,0.0,3.0,1.0,199008.0,1.0,4.0,1.0,13.0,0.0,1.0,12,,119.0,0.0,0.0,0,0,,A31,A,PF,O,AR,A,A,IN,,1,AR,AR,AR,0.8612299999999999,B,36061.0,5602.0,5600.0,NY,10022.0,NEW YORK,core2003pf_ver1,PF,S,AR,A,IN,,A31,A
8920,133590722,200212,2002,200444.0,29491220029024,A20Z,Y,N,0.0,1.0,2002,3.0,0.0,0.0,3,119,0,0,0,0,0,0,0,0,0,0,0,0,0,0,0,0,0,0,0,0,0,0,0,N,N,N,N,N,N,N,N,N,N,N,N,N,N,N,N,N,N,N,0,0,0,0,0,0,0,0,0,0,0,0,0,0,0,0,0,0,0,0,0,0,0,0,0,0,0,0,0,0,0,0,0,0,0,0,0,0,0,0,0,0,0,0,0,0,0,0,0,0,0,0,0,0,0,0,0,0,0,0,0,0,0,0,0,0,0,10023.0,THE BERNSTEIN FAMILY FOUNDATION,,25 CENTRAL PARK W 1Y,NEW YORK,NY,10023-7214,0.0,3.0,1.0,199105.0,1.0,15.0,1.0,13.0,0.0,10.0,12,,119.0,149.0,59.0,0,0,,A12,A,PC,S,ZB,A,A,IN,,1,AR,AR,AR,0.309473,A,36061.0,5602.0,5600.0,NY,10023.0,NEW YORK,core2003pf_ver1,PC,S,ZB,A,IN,,A1261,A
8921,133591085,200312,2003,200425.0,29491150141094,A42Z,N,Y,0.0,1.0,2003,3.0,5.0,1.0,3,91,0,2797,0,0,0,1845,0,7500,4642,21424,-16782,0,0,0,519786,0,0,0,0,13000,517466,0,0,N,N,N,N,N,N,N,N,N,N,N,N,N,N,N,N,N,N,N,0,0,4642,4642,13924,13924,13924,13924,13924,0,105000,0,517466,0,506786,0,0,0,0,0,0,0,0,0,0,0,0,0,0,0,0,0,0,0,0,0,0,0,0,0,0,0,0,0,0,0,0,0,0,0,0,0,0,0,0,0,0,0,0,0,0,0,0,0,0,0,0,10016.0,LISETTE MODEL FOUNDATION INC,BLUM GERSEN AND WOOD ESQ,270 MADISON AVE,NEW YORK,NY,10016-0601,0.0,3.0,1.0,199604.0,1.0,4.0,1.0,11.0,0.0,1.0,12,,91.0,0.0,0.0,0,0,,A40,A,PF,O,AR,A,A,IN,,1,AR,AR,AR,0.275093,C,36061.0,5602.0,5600.0,NY,10016.0,NEW YORK,core2003pf_ver1,PF,S,AR,A,IN,,A40,A
9110,133674360,200312,2003,200449.0,29491318022224,A20,N,Y,0.0,1.0,2003,3.0,6.0,8.0,3,90,13000000,703,26411,618,0,0,0,0,13027732,48812,12978920,-853,4139,3521,3287686,0,0,0,0,0,3287686,0,163354,N,N,N,Y,Y,N,N,N,N,N,N,N,N,N,N,N,N,N,N,0,0,27732,27114,48812,23593,-853,23593,23593,7212,0,0,3287686,0,3287686,83,0,0,0,0,0,0,0,0,83,3316827,0,3521,134310,312862,321914,772607,-853,778455,939003,931139,2647744,0,0,0,19121708,19121708,0,0,0,19121708,19121708,108903,361726,514155,637390,1622174,0,0,0,0,0,0,0,0,0,0,0,0,0,0,0,10118.0,CIVITELLA RANIERI FOUNDATION,JD MILLER & CO LLP,350 5TH AVE STE 5019,NEW YORK,NY,10118-5019,0.0,3.0,1.0,199302.0,1.0,4.0,2.0,13.0,0.0,1.0,12,,90.0,62.0,93.0,83,0,M,A20,A,PF,O,AR,A,A,IN,,1,AR,AR,AR,0.958155,C,36061.0,5602.0,5600.0,NY,10118.0,NEW YORK,core2003pf_ver1,PF,S,AR,A,IN,,A20,A
9142,133685701,200112,2001,200405.0,29491010030244,A60Z,N,Y,0.0,1.0,2001,3.0,4.0,6.0,3,90,0,0,0,0,260340,0,85000,0,260340,197003,63337,0,0,63337,226200,0,0,0,0,0,1,0,0,N,N,N,N,N,N,N,N,N,N,N,N,N,N,N,N,N,N,N,0,1004166,0,260340,197003,0,0,0,197003,955,0,0,0,0,226200,0,0,0,0,0,0,0,0,0,0,0,0,0,0,0,0,0,0,0,0,0,0,0,0,0,0,0,0,0,0,0,0,0,0,0,0,0,0,0,0,0,0,0,0,0,0,0,0,0,0,0,0,10107.0,LIVING ARTS INC,PETER KLEIN,250 W 57TH ST,NEW YORK,NY,10107-0001,0.0,3.0,1.0,199305.0,1.0,4.0,1.0,13.0,0.0,1.0,12,,90.0,0.0,0.0,0,0,,A26,A,PF,O,AR,A,A,IN,,1,AR,AR,AR,0.533628,B,36061.0,5602.0,5600.0,NY,10107.0,NEW YORK,core2003pf_ver1,PF,S,AR,A,IN,,A26,A
9192,133702827,200312,2003,200447.0,29491311020244,,N,Y,0.0,1.0,2003,3.0,3.0,3.0,3,994,95420,0,0,0,0,0,0,0,95420,700153,-604733,700152,0,0,26387,0,0,0,0,713410,26387,0,756,N,N,N,N,N,N,N,N,N,N,N,N,N,N,N,N,N,N,N,0,0,0,0,700153,0,700152,0,0,14742,0,0,26387,0,-687023,0,0,0,0,0,0,0,0,0,0,15356,0,0,0,0,0,0,0,0,0,0,0,0,0,0,0,0,0,0,0,0,0,0,0,0,0,0,0,0,0,0,0,0,0,0,0,0,0,0,0,0,0,10019.0,MILLENIAL ARTS INCORPORATED,GMH CONSULTING INC,146 W 57TH ST,NEW YORK,NY,10019-3301,0.0,3.0,1.0,199407.0,1.0,4.0,1.0,13.0,0.0,1.0,12,,994.0,90.0,94.0,0,0,,A99,A,PF,O,AR,A,A,IN,,1,AR,AR,AR,0.959823,B,36061.0,5602.0,5600.0,NY,10019.0,NEW YORK,core2003pf_ver1,PF,S,AR,A,IN,,A99,A
9221,133719303,200403,2004,200441.0,29491262074234,A75Z,N,Y,0.0,1.0,2003,2.0,1.0,0.0,3,914,0,0,0,0,0,0,0,0,0,621,-621,0,0,0,305,0,0,0,0,32008,305,0,0,N,N,N,N,Y,N,N,N,N,N,N,N,N,N,N,N,N,N,N,0,0,0,0,621,0,0,0,0,305,0,0,305,0,-31703,0,0,0,0,0,0,0,0,0,0,0,0,1,0,0,0,1,0,0,0,0,0,1,0,0,0,1,0,0,0,0,0,10,10,15,9,44,0,0,0,0,0,0,0,0,0,0,0,0,0,0,0,10017.0,KAWAMURA CULTURAL FOUNDATION INC,KISO & TANAKA,675 3RD AVE STE 3008,NEW YORK,NY,10017-5704,0.0,3.0,2.0,199504.0,1.0,3.0,1.0,13.0,0.0,1.0,3,,914.0,119.0,0.0,0,0,,A70,A,PF,O,AR,A,A,IN,,1,AR,AR,AR,0.690916,C,36061.0,5602.0,5600.0,NY,10017.0,NEW YORK,core2003pf_ver1,PF,O,AR,A,IN,,A1220,A
9313,133747492,200306,2003,200411.0,29491059034034,A20J,N,Y,0.0,1.0,2002,3.0,1.0,1.0,3,994,0,0,9,0,0,0,0,0,9,0,9,0,9,9,3332,0,0,0,0,70706,3332,0,164,N,N,N,N,N,N,N,N,N,N,N,N,N,N,N,N,N,N,N,0,0,9,9,0,0,0,0,0,3332,0,0,3332,0,-67374,0,0,0,0,0,0,0,0,0,0,3328,0,0,0,0,0,0,0,0,0,0,0,0,0,0,0,0,0,0,0,0,0,0,0,0,0,0,0,0,0,0,0,0,0,0,0,0,0,0,0,0,0,10022.0,INTERNATIONAL CENTER OF DESIGN ART TO GOD TO THE WORLD AND TO MAN INC,WOLF POPPER LLP,845 THIRD AVE 12TH FLR,NEW YORK,NY,10022-6601,0.0,3.0,1.0,199505.0,1.0,4.0,1.0,13.0,0.0,1.0,6,,994.0,119.0,63.0,0,0,,A12,A,PF,S,ZB,A,A,IN,,1,AR,AR,AR,0.179094,C,36061.0,5602.0,5600.0,NY,10022.0,NEW YORK,core2003pf_ver1,PF,S,ZB,A,IN,,A20,A
9315,133747781,200311,2003,200428.0,29491171083114,,N,Y,0.0,1.0,2002,2.0,6.0,5.0,3,994,154533,5855,13733,44081,0,4034,26600,0,222236,310358,-88122,291284,63636,23827,1638298,0,1260492,0,1260492,918,1680909,0,71107,N,Y,N,N,Y,N,N,N,Y,N,N,N,N,N,N,N,N,N,N,0,0,63669,23827,310358,33,291284,33,0,5166,0,0,1680909,0,1637380,636,0,0,3267,0,0,0,0,2631,636,1443790,0,23827,68668,72118,77386,241999,291284,451982,386850,149767,1279883,1,0,0,0,1,0,0,0,0,0,47405,51567,74788,42517,216277,0,0,0,0,0,0,0,0,0,0,0,0,0,0,0,10017.0,INSTITUTE FOR COOPERATION OF ART AND RESEARCH INC,CITRIN COOPERMAN,529 5TH AVE,NEW YORK,NY,10017-4608,0.0,3.0,1.0,199405.0,1.0,3.0,1.0,13.0,0.0,1.0,11,,994.0,199.0,0.0,-2631,0,,A25,A,PF,O,AR,A,A,IN,,1,AR,AR,AR,0.237591,B,36061.0,5602.0,5600.0,NY,10017.0,NEW YORK,core2003pf_ver1,PF,O,AR,A,IN,,A25,A
9385,133772926,200312,2003,200450.0,29491339051154,A51Z,N,Y,0.0,1.0,2003,3.0,1.0,1.0,3,994,801,22,0,0,0,0,0,1480,823,1480,-657,0,0,0,5605,0,0,0,0,0,5605,0,283,N,N,N,N,N,N,N,N,N,N,N,N,N,N,N,N,N,N,N,0,0,22,22,1480,1480,0,1480,1480,5605,0,0,5605,0,5605,0,0,0,0,0,200,0,0,200,0,5742,283,0,0,0,0,0,0,0,0,0,0,0,0,0,0,0,0,0,0,0,0,0,0,0,0,0,0,0,0,0,0,0,0,0,0,0,0,0,0,0,0,10010.0,V I A ART INC,FRANK E BUNTS,15 W 24TH ST 7TH FLR,NEW YORK,NY,10010-3214,0.0,3.0,1.0,199505.0,1.0,4.0,1.0,13.0,199712.0,1.0,12,,994.0,91.0,0.0,-200,0,,A51,A,PF,O,AR,A,A,IN,,1,AR,AR,AR,0.8585370000000001,C,36061.0,5602.0,5600.0,NY,10010.0,NEW YORK,core2003pf_ver1,PF,S,AR,A,IN,,A51,A
9407,133781874,200312,2003,200426.0,29491164185124,A51Z,N,Y,0.0,1.0,2003,3.0,7.0,7.0,3,60,6325000,5780,43115,285973,0,0,24630,120000,6659868,224817,6435051,150636,261546,0,7164335,0,4142964,49282,4192246,0,8598632,28565,359433,N,N,N,N,N,N,N,N,Y,N,N,N,N,N,N,N,N,N,N,0,0,336102,0,104817,74556,30636,74556,0,53353,0,1999300,8598632,0,7164335,5231,0,0,211,0,8000,0,0,2980,5231,7298126,354202,0,0,0,0,0,0,0,0,0,0,0,0,0,0,0,0,0,0,0,0,0,0,0,0,0,0,0,0,0,0,0,0,0,0,0,0,0,0,0,0,10011.0,COBY FOUNDATION LTD,MILBANK TWEED HADLEY & MCCLOY,511 AVENUE OF THE AMERICA,NEW YORK,NY,10011-8436,0.0,3.0,1.0,199503.0,1.0,4.0,1.0,13.0,0.0,1.0,12,,60.0,0.0,0.0,-2980,0,,A51,A,PF,O,AR,A,A,IN,,1,AR,AR,AR,0.632532,C,36061.0,5602.0,5600.0,NY,10011.0,NEW YORK,core2003pf_ver1,PF,S,AR,A,IN,,A51,A
9414,133783618,200312,2003,200433.0,29491206041214,A65Z,N,Y,0.0,1.0,2003,3.0,1.0,2.0,3,994,20585,97,0,0,0,0,0,0,20682,20482,200,0,0,0,200,0,0,0,0,0,200,0,0,N,N,N,N,N,N,N,N,N,N,N,N,N,N,N,N,N,N,N,0,0,0,0,20482,0,0,0,0,200,0,0,200,0,200,0,0,0,0,0,0,0,0,0,0,0,0,0,0,0,0,0,0,0,0,0,0,0,0,0,0,0,0,0,0,0,0,0,0,0,0,0,0,0,0,0,0,0,0,0,0,0,0,0,0,0,0,10036.0,WORLD CITY PICTURES INC,,520 W 43RD ST 5L,NEW YORK,NY,10036-4345,0.0,3.0,1.0,199601.0,1.0,4.0,1.0,13.0,0.0,1.0,12,,994.0,92.0,0.0,0,0,,A65,A,PF,O,AR,A,A,IN,,1,AR,AR,AR,0.9879389999999999,C,36061.0,5602.0,5600.0,NY,10036.0,NEW YORK,core2003pf_ver1,PF,S,AR,A,IN,,A65,A
9443,133794021,200312,2003,200426.0,29491164347184,A60Z,N,Y,0.0,1.0,2003,3.0,2.0,3.0,3,602,59000,21,0,0,0,0,0,43500,59021,43501,15520,43500,20,0,16604,0,0,0,0,0,16604,0,74,N,Y,N,N,N,N,N,N,N,N,N,N,N,N,N,N,N,N,N,0,0,21,0,1,1,0,1,0,0,0,0,16604,0,16604,0,0,0,0,0,0,0,0,0,0,1494,74,0,0,0,0,0,0,0,0,0,0,0,0,0,0,0,0,0,0,0,0,0,0,0,0,0,0,0,0,0,0,0,0,0,0,0,0,0,0,0,0,10314.0,GOTTLIEB-SCHWARTZ FAMILY FOUNDATION INC,WEISS & COMPANY,724 COLLFIELD AVE,STATEN ISLAND,NY,10314-4253,0.0,3.0,1.0,199505.0,1.0,4.0,1.0,13.0,0.0,1.0,12,,602.0,0.0,0.0,0,0,,A60,A,PF,O,AR,A,A,IN,,1,AR,AR,AR,0.42547299999999993,C,36085.0,5602.0,5600.0,NY,10314.0,STATEN ISLAND,core2003pf_ver1,PF,S,AR,A,IN,,A60,A
9446,133794783,200306,2003,200432.0,29491206033204,A50Z,N,Y,0.0,1.0,2002,3.0,1.0,1.0,3,994,0,0,0,0,0,0,0,0,1,0,1,0,0,0,1,0,0,0,0,0,1,0,0,N,N,N,N,N,N,N,N,N,N,N,N,N,N,N,N,N,N,N,0,0,0,0,0,0,0,0,0,0,0,0,0,0,0,0,0,0,0,0,0,0,0,0,0,0,0,0,0,0,0,0,0,0,0,0,0,0,0,0,0,0,0,0,0,0,0,0,0,0,0,0,0,0,0,0,0,0,0,0,0,0,0,0,0,0,0,10011.0,CONTEMPORARY ART FOR AMERICA,DELEY GAZINELLI,330 15TH ST 5D,NEW YORK,NY,10011-5963,0.0,3.0,2.0,199507.0,1.0,4.0,1.0,13.0,0.0,1.0,6,,994.0,60.0,0.0,0,0,,A50,A,PF,O,AR,A,A,IN,,1,AR,AR,AR,0.403829,C,36061.0,5602.0,5600.0,NY,10011.0,NEW YORK,core2003pf_ver1,PF,S,AR,A,IN,,A50,A
9501,133800381,200311,2003,200447.0,29491304016004,B99I,N,Y,0.0,1.0,2002,3.0,3.0,5.0,3,994,750000,0,0,0,0,0,0,793549,750000,793613,-43613,793549,0,0,33081,0,0,0,0,0,33081,0,2224,N,N,N,N,N,N,N,N,N,N,N,N,N,N,N,N,N,N,N,0,0,0,0,64,0,0,0,0,33081,0,0,33081,0,33081,0,0,0,0,0,0,0,0,0,0,45153,2224,0,0,0,0,0,0,0,0,0,0,0,0,0,0,0,0,0,0,0,0,0,0,0,0,0,0,0,0,0,0,0,0,0,0,0,0,0,0,0,0,11385.0,THE GODINGER LEFKOWITZ MEMORIAL FOUNDATION INC,,63 15 TRAFFIC AVE,RIDGEWOOD,NY,11385-2629,0.0,3.0,1.0,199505.0,1.0,4.0,1.0,11.0,199911.0,1.0,11,,994.0,602.0,0.0,0,0,,A80,A,PF,O,AR,A,A,IN,,1,AR,AR,AR,0.54068,B,36081.0,5602.0,5600.0,NY,11385.0,RIDGEWOOD,core2003pf_ver1,PF,S,AR,A,IN,,B99,B
9521,133801734,200306,2003,200406.0,29491017023084,A99Z,N,Y,0.0,1.0,2002,3.0,4.0,2.0,3,119,0,2887,0,0,0,18750,0,0,21637,1780,19857,1780,2887,2887,376980,0,0,0,0,2,405645,17296,17354,N,N,N,N,N,N,N,N,N,N,N,Y,N,N,N,N,N,N,N,0,0,2887,2887,1780,0,1780,0,0,17059,0,99255,405645,0,376978,58,0,0,0,0,0,0,0,0,58,352367,17296,0,0,0,0,0,0,0,0,0,0,0,0,0,0,0,0,0,0,0,0,0,0,0,0,0,0,0,0,0,0,0,0,0,0,0,0,0,0,0,0,10024.0,HARRY M STEVENS FAMILY FOUNDATION INC,WILLIAM M HUNT,186 RIVERSIDE DR APT 16D,NEW YORK,NY,10024-1007,0.0,3.0,1.0,199601.0,1.0,4.0,1.0,13.0,0.0,1.0,6,,119.0,0.0,0.0,58,0,,A99,A,PF,O,AR,A,A,IN,,1,AR,AR,AR,0.261387,C,36061.0,5602.0,5600.0,NY,10024.0,NEW YORK,core2003pf_ver1,PF,S,AR,A,IN,,A99,A
9523,133802490,200312,2003,200426.0,29491164316174,A76Z,N,Y,0.0,1.0,2003,2.0,4.0,4.0,3,93,486475,216,0,0,0,6963,0,99055,493654,488090,5564,99055,216,0,212729,0,0,0,0,6000,212729,0,4311,N,N,N,N,Y,N,N,N,N,N,N,N,N,N,N,N,N,N,N,0,0,216,7179,389035,0,0,0,14732,109757,0,0,131986,0,206729,4,0,0,0,0,0,0,0,0,4,87540,0,1,0,0,0,1,99055,215197,171726,246002,731980,1,0,0,230996,230997,0,0,0,0,0,0,0,0,0,0,0,0,0,0,0,0,0,0,0,0,0,0,0,0,0,10019.0,FOUNDATION FOR HELLENIC CULTURE INC,E MYRIVILI,7 W 57TH ST,NEW YORK,NY,10019-3404,0.0,3.0,1.0,199504.0,1.0,3.0,1.0,13.0,0.0,1.0,12,,93.0,0.0,0.0,4,0,,A70,A,PF,O,AR,A,A,IN,,1,AR,AR,AR,0.42638000000000004,C,36061.0,5602.0,5600.0,NY,10019.0,NEW YORK,core2003pf_ver1,PF,O,AR,A,IN,,A12,A
9538,133809561,200312,2003,200452.0,29491339153234,A50Z,N,Y,0.0,1.0,2003,3.0,4.0,3.0,3,90,1500,7862,4219,-2680,0,0,0,0,10901,69323,-58422,62930,5688,5688,473887,141919,262531,0,404450,0,499469,0,24965,N,N,N,N,N,N,N,N,N,N,N,N,N,N,N,N,N,N,N,0,0,12081,12081,69323,6393,62930,6393,6393,69437,0,0,499469,0,473887,114,0,0,0,0,200,0,0,86,114,506903,24851,0,0,0,0,0,0,0,0,0,0,0,0,0,0,0,0,0,0,0,0,0,0,0,0,0,0,0,0,0,0,0,0,0,0,0,0,0,0,0,0,10025.0,ARTUR BALSAM FOUNDATION FOR CHAMBER MUSIC,MOSHE MIRSKY,825 W END AVE STE 2C,NEW YORK,NY,10025-5349,0.0,3.0,1.0,199505.0,1.0,4.0,1.0,13.0,0.0,1.0,12,,90.0,0.0,0.0,-86,0,,A50,A,PF,O,AR,A,A,IN,,1,AR,AR,AR,0.753961,C,36061.0,5602.0,5600.0,NY,10025.0,NEW YORK,core2003pf_ver1,PF,S,AR,A,IN,,A6C,A
9542,133811670,200312,2003,200425.0,29491150151174,A76Z,N,Y,0.0,1.0,2003,3.0,1.0,1.0,3,995,4078,0,0,0,0,0,0,0,4078,4078,0,0,0,0,1,0,0,0,0,0,1,0,0,N,N,N,N,N,N,N,N,N,N,N,N,N,N,N,N,N,N,N,0,0,0,0,4078,0,0,0,0,0,0,0,0,0,0,0,0,0,0,0,0,0,0,0,0,0,0,0,0,0,0,0,0,0,0,0,0,0,0,0,0,0,0,0,0,0,0,0,0,0,0,0,0,0,0,0,0,0,0,0,0,0,0,0,0,0,0,10016.0,HAPPY ORGANIZATION,DAN PEYTON,240 E 35TH ST APT 11A,NEW YORK,NY,10016-4220,0.0,3.0,1.0,199510.0,1.0,4.0,5.0,13.0,0.0,1.0,12,,995.0,92.0,0.0,0,0,,A70,A,PF,O,AR,A,A,IN,,1,AR,AR,AR,0.404296,C,36061.0,5602.0,5600.0,NY,10016.0,NEW YORK,core2003pf_ver1,PF,S,AR,A,IN,,A70,A
9544,133823577,200312,2003,200441.0,29491262089124,A6AZ,N,Y,0.0,1.0,2003,3.0,3.0,3.0,3,994,64330,0,0,0,0,0,0,50000,64330,52056,12274,52056,0,0,46186,0,0,0,0,0,46186,0,1886,N,N,N,N,N,N,N,N,N,N,N,N,N,N,N,N,N,N,N,0,0,0,0,2056,0,2056,0,0,46186,0,0,46186,0,46186,0,0,0,0,0,0,0,0,0,0,38300,1886,0,0,0,0,0,0,0,0,0,0,0,0,0,0,0,0,0,0,0,0,0,0,0,0,0,0,0,0,0,0,0,0,0,0,0,0,0,0,0,0,10177.0,US FRIENDS OF ENGLISH NATIONAL OPERA INC,ROBERT DWYER DORSEY WHITNEY,250 PARK AVE,NEW YORK,NY,10177-0001,0.0,3.0,1.0,199508.0,1.0,4.0,1.0,13.0,0.0,1.0,12,,994.0,602.0,0.0,0,0,,A6A,A,PF,O,AR,A,A,IN,,1,AR,AR,AR,0.27586,C,36061.0,5602.0,5600.0,NY,10177.0,NEW YORK,core2003pf_ver1,PF,S,AR,A,IN,,A1160,A
9557,133832587,200306,2003,200411.0,29491052063224,A56I,N,Y,0.0,1.0,2002,2.0,4.0,5.0,3,60,636360,766,69,0,0,50210,10000,0,687405,548621,138784,501863,13700,36736,417859,0,0,0,0,0,417859,0,13603,N,N,N,N,Y,N,N,N,N,N,N,N,N,N,N,N,N,N,N,0,0,13700,51045,548621,0,501863,0,14309,15816,0,0,417859,0,417859,274,0,0,11,0,325,0,0,62,274,276194,0,13603,0,4750,4204,22557,501863,387611,326358,333083,1548915,1,0,0,0,1,0,0,0,0,0,9069,7229,3167,2803,22268,0,0,0,0,0,0,0,0,0,0,0,0,0,0,0,10020.0,INSTITUTE FOR AEGEAN PREHISTORY STUDY CENTER FOR EAST CRETE,MILLBURN CORPORATION,1270 6TH AVE,NEW YORK,NY,10020-1700,0.0,3.0,1.0,199508.0,1.0,3.0,1.0,13.0,0.0,1.0,6,,60.0,199.0,119.0,-62,0,,A11,A,PF,S,ZA,A,A,IN,,1,AR,AR,AR,0.161297,C,36061.0,5602.0,5600.0,NY,10020.0,NEW YORK,core2003pf_ver1,PF,S,ZA,A,IN,,A70,A
9560,133834448,200308,2003,200431.0,29491199054244,A60Z,N,Y,0.0,1.0,2002,3.0,1.0,0.0,3,995,0,0,0,0,0,0,0,0,0,0,0,0,0,0,32,0,0,0,0,0,32,1,1,N,N,N,N,N,N,N,N,N,N,N,N,N,N,N,N,N,N,N,0,0,0,0,0,0,0,0,0,0,0,0,0,0,32,0,0,0,0,0,0,0,0,0,0,32,1,0,0,0,0,0,0,0,0,0,0,0,0,0,0,0,0,0,0,0,0,0,0,0,0,0,0,0,0,0,0,0,0,0,0,0,0,0,0,0,0,10023.0,CHOREOTECTONICS INC,RUKA KITO,155 W 70TH ST PH 2G,NEW YORK,NY,10023-4429,0.0,3.0,2.0,199605.0,1.0,4.0,1.0,13.0,0.0,1.0,8,,995.0,90.0,0.0,0,0,,A60,A,PF,O,AR,A,A,IN,,1,AR,AR,AR,0.216401,C,36061.0,5602.0,5600.0,NY,10023.0,NEW YORK,core2003pf_ver1,PF,S,AR,A,IN,,A60,A
9614,133863402,200312,2003,200452.0,29491346010014,A99Z,N,Y,0.0,1.0,2003,3.0,1.0,3.0,3,602,34100,0,76,0,0,140,0,32061,34316,32311,2005,32086,0,0,1882,0,0,0,0,545,1882,0,46,N,N,N,N,N,N,N,N,N,N,N,N,N,N,N,N,N,N,N,0,0,76,0,250,125,25,125,0,0,0,0,1882,0,1337,0,0,0,0,0,0,0,0,0,0,941,46,0,0,0,0,0,0,0,0,0,0,0,0,0,0,0,0,0,0,0,0,0,0,0,0,0,0,0,0,0,0,0,0,0,0,0,0,0,0,0,0,10471.0,KAHN FAMILY FOUNDATION INC,NATHAN KAHN,4663 WALDO AVE,RIVERDALE,NY,10471-3061,0.0,3.0,1.0,199512.0,1.0,4.0,1.0,13.0,0.0,1.0,12,,602.0,0.0,0.0,0,0,,A99,A,PF,O,AR,A,A,IN,,1,AR,AR,AR,0.725963,C,36005.0,5602.0,5600.0,NY,10471.0,RIVERDALE,core2003pf_ver1,PF,S,AR,A,IN,,A99,A
9659,133885307,200309,2003,200410.0,29491052013214,A51Z,N,Y,0.0,1.0,2002,2.0,8.0,4.0,3,91,40000,5155,62433,-21460,0,1065,116240,75000,87193,442109,-354916,404685,57934,57934,11990924,847353,522597,0,1369950,3639,11932858,0,139763,N,N,N,N,Y,N,N,N,Y,N,N,N,N,N,N,N,Y,N,N,0,0,67588,68653,367109,9654,329685,9654,10719,509,0,0,11932858,0,11987285,1159,0,0,1600,0,0,0,0,441,1159,2837828,0,57934,61746,100287,84599,304566,404685,368869,348681,324397,1446632,11932858,12174976,12404797,12874867,49387498,9103496,9115921,9241071,9270071,36730559,93175,105585,109888,105731,414379,0,0,0,0,0,0,0,0,0,0,0,0,0,0,0,10012.0,NANCY GRAVES FOUNDATION INC,HECHT & COMPANY,4A,NEW YORK,NY,10012-0000,0.0,3.0,1.0,199704.0,1.0,3.0,1.0,13.0,0.0,1.0,9,,91.0,0.0,0.0,-441,0,,A51,A,PF,O,AR,A,A,IN,,1,AR,AR,AR,0.726966,C,36061.0,5602.0,5600.0,NY,10012.0,NEW YORK,core2003pf_ver1,PF,O,AR,A,IN,,A51,A
9664,133887504,200212,2002,200434.0,29491213040024,A65,N,Y,0.0,1.0,2002,3.0,1.0,1.0,3,994,0,0,0,0,0,0,0,0,1,0,1,0,0,0,1,0,0,0,0,0,1,0,0,N,N,N,N,N,N,N,N,N,N,N,N,N,N,N,N,N,N,N,0,0,0,0,0,0,0,0,0,0,0,0,0,0,0,0,0,0,0,0,0,0,0,0,0,0,0,0,0,0,0,0,0,0,0,0,0,0,0,0,0,0,0,0,0,0,0,0,0,0,0,0,0,0,0,0,0,0,0,0,0,0,0,0,0,0,0,10002.0,HOPE HOUSE THEATER INC,GREG DROZDEK,53 STANTON ST,NEW YORK,NY,10002-1361,0.0,3.0,1.0,199605.0,1.0,16.0,1.0,13.0,0.0,20.0,12,,994.0,88.0,90.0,0,0,,A65,A,PC,O,AR,A,A,IN,,1,AR,AR,AR,0.560873,C,36061.0,5602.0,5600.0,NY,10002.0,NEW YORK,core2003pf_ver1,PC,O,AR,A,IN,,A65,A
9667,133888511,200303,2003,200408.0,29491031004064,A20Z,N,Y,0.0,1.0,2002,3.0,5.0,4.0,3,119,177993,24,0,0,0,0,0,100000,178017,266687,-88670,100000,24,0,601535,0,0,0,0,6000,582683,0,3777,N,N,N,N,N,N,N,N,N,N,N,N,N,N,N,N,N,N,N,0,0,24,0,166687,0,0,0,0,6623,0,0,601535,0,595535,0,0,0,0,0,0,0,0,0,0,76687,3777,0,0,0,0,0,0,0,0,0,0,0,0,0,0,0,0,0,0,0,0,0,0,0,0,0,0,0,0,0,0,0,0,0,0,0,0,0,0,0,0,10022.0,INTERNATIONAL FOUNDATION FOR ARTS & CULTURE INC,TOSHU FUKAMI,150 E 57TH ST APT 9D,NEW YORK,NY,10022-2785,0.0,3.0,2.0,199610.0,1.0,4.0,1.0,13.0,0.0,1.0,3,,119.0,0.0,0.0,0,0,,A20,A,PF,O,AR,A,A,IN,,1,AR,AR,AR,0.0725587,C,36061.0,5602.0,5600.0,NY,10022.0,NEW YORK,core2003pf_ver1,PF,S,AR,A,IN,,A1220,A
9673,133893379,200403,2004,200431.0,29491199003004,A20Z,N,Y,0.0,1.0,2003,2.0,2.0,1.0,3,91,0,0,0,0,0,6059,0,0,6059,2086,3973,274,0,6059,17334,0,0,0,0,0,17334,0,686,N,N,N,N,Y,N,N,N,N,N,N,N,N,N,N,N,N,N,N,0,0,0,6059,2086,0,274,0,0,16064,0,0,17334,0,17334,0,0,0,0,0,0,0,0,0,0,13935,0,686,521,554,839,2600,274,3515,48515,52481,104785,1,0,0,0,1,0,0,0,0,0,457,347,369,559,1732,0,0,0,0,0,0,0,0,0,0,0,0,0,0,0,10022.0,AMERICAN FOUNDATION FOR TEXTILE ART INC,,499 PARK AVE,NEW YORK,NY,10022-1240,0.0,3.0,1.0,199703.0,1.0,3.0,1.0,13.0,0.0,1.0,3,,91.0,119.0,120.0,0,0,,A20,A,PF,O,AR,A,A,IN,,1,AR,AR,AR,0.9317979999999999,C,36061.0,5602.0,5600.0,NY,10022.0,NEW YORK,core2003pf_ver1,PF,O,AR,A,IN,,A40,A
9675,133893616,200312,2003,200416.0,29491094001094,A99Z,N,Y,0.0,1.0,2003,3.0,1.0,1.0,3,994,0,18,0,0,0,0,0,0,18,3092,-3074,0,18,0,4730,0,0,0,0,13001,4730,0,0,N,N,N,N,N,N,N,N,N,N,N,N,N,N,N,N,N,N,N,0,0,18,0,3092,0,0,0,0,0,0,0,4730,0,-8271,1,0,0,0,0,0,0,0,0,1,4743,0,0,0,0,0,0,0,0,0,0,0,0,0,0,0,0,0,0,0,0,0,0,0,0,0,0,0,0,0,0,0,0,0,0,0,0,0,0,0,0,0,10019.0,TRIBUTE 21 FOUNDATION INC,,720 FIFTH AVE 4TH FLR,NEW YORK,NY,10019-4107,0.0,3.0,1.0,199702.0,1.0,4.0,1.0,13.0,0.0,1.0,12,,994.0,119.0,90.0,1,0,,A99,A,PF,O,AR,A,A,IN,,1,AR,AR,AR,0.0841815,C,36061.0,5602.0,5600.0,NY,10019.0,NEW YORK,core2003pf_ver1,PF,S,AR,A,IN,,A99,A
9689,133902358,200312,2003,200437.0,29491241031164,A60J,N,Y,0.0,1.0,2003,3.0,6.0,6.0,3,602,32975,698,8665,0,0,8175,107250,31600,50513,314885,-264372,280000,0,0,1086595,399070,0,0,399070,0,1087175,0,60078,N,N,N,N,N,N,N,N,N,N,N,N,N,N,N,N,Y,N,N,0,0,9363,0,283285,29455,248400,29445,0,0,0,0,1087175,0,1086595,0,0,0,0,0,0,0,0,0,0,1219866,60078,0,0,0,0,0,0,0,0,0,0,0,0,0,0,0,0,0,0,0,0,0,0,0,0,0,0,0,0,0,0,0,0,0,0,0,0,0,0,0,0,10012.0,JONATHAN LARSON PERFORMING ARTS FOUNDATION INC,JAY S HARRIS,PO BOX 672,NEW YORK,NY,10012-0013,0.0,3.0,1.0,199702.0,1.0,4.0,1.0,13.0,0.0,1.0,12,,602.0,119.0,0.0,0,0,,A12,A,PF,S,ZB,A,A,IN,,1,AR,AR,AR,0.032987,C,36061.0,5602.0,5600.0,NY,10012.0,NEW YORK,core2003pf_ver1,PF,S,ZB,A,IN,,A1260,A
9701,133910335,200312,2003,200439.0,29491255036164,A80,N,Y,0.0,1.0,2003,2.0,3.0,1.0,3,0,0,0,0,0,0,0,0,0,1,0,1,0,0,0,36000,0,0,0,0,2000,36000,0,0,N,N,N,N,Y,N,N,N,N,N,N,N,N,N,N,N,N,N,N,0,0,0,0,0,0,0,0,0,0,0,0,36000,0,34000,0,0,0,0,0,0,0,0,0,0,0,0,1,0,0,0,1,0,0,0,0,0,36000,36000,36000,36000,144000,36000,36000,36000,36000,144000,0,0,0,0,0,0,0,0,0,0,0,0,0,0,0,0,0,0,0,0,10003.0,FISH FAMILY FOUNDATION INC,HAMILTON FISH,33 IRVING PL FL 8,NEW YORK,NY,10003-2332,0.0,3.0,2.0,199902.0,1.0,3.0,1.0,13.0,0.0,1.0,12,,0.0,0.0,0.0,0,0,,A80,A,PF,O,AR,A,A,IN,,1,AR,AR,AR,0.31245900000000004,C,36061.0,5602.0,5600.0,NY,10003.0,NEW YORK,core2003pf_ver1,PF,O,AR,A,IN,,N12,N
9778,133921831,200312,2003,200438.0,29491241054024,A99Z,N,Y,0.0,1.0,2003,3.0,7.0,3.0,3,602,300000,43528,38334,0,0,-314196,0,601170,67666,605559,-537893,602010,81862,0,9871824,0,3004483,0,3004483,0,12698970,0,584735,N,N,N,N,N,N,N,N,N,N,N,N,N,N,N,N,N,N,N,0,0,81862,-232334,4389,0,840,0,0,0,0,2497695,12698970,0,9871824,1637,0,0,4292,0,0,0,0,2655,1637,11872793,583098,0,0,0,0,0,0,0,0,0,0,0,0,0,0,0,0,0,0,0,0,0,0,0,0,0,0,0,0,0,0,0,0,0,0,0,0,0,0,0,0,10017.0,BARBARA M ZALAZNICK FOUNDATION,ERIC KAPLAN,335 MADISON AVE STE 1500,NEW YORK,NY,10017-4605,0.0,3.0,1.0,199704.0,1.0,4.0,2.0,13.0,0.0,1.0,12,,602.0,0.0,0.0,-2655,0,,A99,A,PF,O,AR,A,A,IN,,1,AR,AR,AR,0.26971999999999996,C,36061.0,5602.0,5600.0,NY,10017.0,NEW YORK,core2003pf_ver1,PF,S,AR,A,IN,,A99,A
9822,133926887,200312,2003,200450.0,29491325022104,A60Z,N,Y,0.0,1.0,2003,3.0,5.0,5.0,3,119,0,0,23155,-999,0,166,0,166276,22322,198108,-175786,184165,15212,0,732647,498645,0,0,498645,0,736067,0,43858,N,Y,N,N,N,N,N,N,N,N,N,N,N,N,N,N,N,N,N,0,0,23155,0,31832,7943,17889,7943,0,234002,0,0,736067,0,732647,152,0,0,705,0,0,0,0,553,152,890515,43706,0,0,0,0,0,0,0,0,0,0,0,0,0,0,0,0,0,0,0,0,0,0,0,0,0,0,0,0,0,0,0,0,0,0,0,0,0,0,0,0,10019.0,LAURA PELS INTERNATIONAL FOUNDATION INC,LAURA PELS,200 W 57TH ST STE 803,NEW YORK,NY,10019-3211,0.0,3.0,1.0,199703.0,1.0,4.0,1.0,13.0,0.0,1.0,12,,119.0,90.0,0.0,-553,0,,A60,A,PF,O,AR,A,A,IN,,1,AR,AR,AR,0.216072,C,36061.0,5602.0,5600.0,NY,10019.0,NEW YORK,core2003pf_ver1,PF,S,AR,A,IN,,A60,A
9829,133929462,200312,2003,200426.0,29491164158194,A40Z,N,Y,0.0,1.0,2003,2.0,5.0,4.0,3,91,0,0,6295,52914,0,0,0,48500,59209,49187,10022,48500,59209,0,589743,0,272659,0,272659,0,646775,0,32112,N,N,N,N,Y,N,N,N,N,N,N,N,N,N,N,N,N,N,N,0,0,59209,0,687,0,0,0,0,0,0,142084,646775,0,589743,1184,0,0,0,0,0,0,19,0,1184,652014,0,1,0,0,0,1,0,0,0,0,0,1,0,0,0,1,0,0,0,0,0,0,0,0,0,0,0,0,0,0,0,0,0,0,0,0,0,0,0,0,0,10010.0,ALVIN E FRIEDMAN-KIEN FOUNDATION INC,ROBERT H HOROWITZ,ONE LEXINGTON AVE STE 2A,NEW YORK,NY,10010-5515,0.0,3.0,1.0,199612.0,1.0,3.0,1.0,13.0,0.0,1.0,12,,91.0,0.0,0.0,1203,0,,A40,A,PF,O,AR,A,A,IN,,1,AR,AR,AR,0.815276,C,36061.0,5602.0,5600.0,NY,10010.0,NEW YORK,core2003pf_ver1,PF,O,AR,A,IN,,A40,A
9831,133930172,200312,2003,200440.0,29491255042194,A99Z,N,Y,0.0,1.0,2003,3.0,8.0,5.0,3,602,637983,4924,130577,238905,0,85325,0,1921563,1099640,2022381,-922741,1930628,291869,0,20638894,0,20379876,0,20379876,0,20638894,0,874927,N,Y,N,N,N,N,N,N,N,N,N,N,N,N,N,N,N,N,N,1926,0,376332,0,100818,84463,9065,84463,0,77773,0,181245,20638898,0,20638894,2919,0,0,2457,0,0,0,500,0,2919,17765021,877846,0,0,0,0,0,0,0,0,0,0,0,0,0,0,0,0,0,0,0,0,0,0,0,0,0,0,0,0,0,0,0,0,0,0,0,0,0,0,0,0,10022.0,TOMORROW FOUNDATION,LAURA BAUDO SILLERMAN,650 MADISON AVE,NEW YORK,NY,10022-1029,0.0,3.0,1.0,199704.0,1.0,4.0,1.0,13.0,0.0,1.0,12,,602.0,0.0,0.0,962,0,M,A99,A,PF,O,AR,A,A,IN,,1,AR,AR,AR,0.998395,C,36061.0,5602.0,5600.0,NY,10022.0,NEW YORK,core2003pf_ver1,PF,S,AR,A,IN,,A99,A
9868,133935646,200312,2003,200423.0,29491136117044,A99Z,N,Y,0.0,1.0,2003,3.0,7.0,3.0,3,602,0,10,53602,977709,0,0,0,218500,1031321,221044,810277,218500,1031321,0,5158142,0,3277829,0,3277829,0,5158142,0,219078,N,N,N,N,N,N,N,N,N,N,N,N,N,N,N,N,N,N,N,0,0,1031321,0,2544,0,0,0,0,53222,0,0,5158142,0,5158142,20626,0,0,4120,0,0,0,0,0,20626,4448286,198452,0,0,0,0,0,0,0,0,0,0,0,0,0,0,0,0,0,0,0,0,0,0,0,0,0,0,0,0,0,0,0,0,0,0,0,0,0,0,0,0,10022.0,SCHLOSS FAMILY FOUNDATION INC,WALTER J SCHLOSS,350 PARK AVE 9TH FLR,NEW YORK,NY,10022-6022,0.0,3.0,1.0,199704.0,1.0,4.0,1.0,13.0,0.0,1.0,12,,602.0,0.0,0.0,16506,0,,A99,A,PF,O,AR,A,A,IN,,1,AR,AR,AR,0.383824,C,36061.0,5602.0,5600.0,NY,10022.0,NEW YORK,core2003pf_ver1,PF,S,AR,A,IN,,A99,A
9872,133935995,200312,2003,200451.0,29491339049074,A40J,N,Y,0.0,1.0,2003,3.0,8.0,8.0,3,602,1093249,0,997105,327222,0,9551,0,2161700,2427127,2579543,-152416,2384541,935934,0,49635883,8645269,27133849,327468,36106586,21285,55204859,2035559,2508431,N,Y,N,N,N,N,N,N,N,N,N,N,N,N,N,N,N,N,N,0,0,1127936,0,417843,192002,222841,192002,0,0,0,9721050,55204859,0,49614598,9359,0,0,10696,0,12000,0,0,8000,9359,50932614,2499072,0,0,0,0,0,0,0,0,0,0,0,0,0,0,0,0,0,0,0,0,0,0,0,0,0,0,0,0,0,0,0,0,0,0,0,0,0,0,0,0,10111.0,LILY AUCHINCLOSS FOUNDATION INC,BESSEMER TRUST,630 5TH AVE,NEW YORK,NY,10111-0100,0.0,3.0,1.0,199706.0,1.0,4.0,1.0,13.0,0.0,1.0,12,,602.0,0.0,0.0,-13337,5337,,A12,A,PF,S,ZB,A,A,IN,,1,AR,AR,AR,0.183926,C,36061.0,5602.0,5600.0,NY,10111.0,NEW YORK,core2003pf_ver1,PF,S,ZB,A,IN,,A40,A
9888,133938484,200406,2004,200452.0,29491339231224,A99I,N,Y,0.0,1.0,2003,3.0,4.0,2.0,3,119,0,16033,0,0,0,0,0,0,16033,0,16033,0,16033,0,336175,0,0,0,0,0,336175,16489,16809,N,N,N,N,N,N,N,N,N,N,N,N,N,N,N,N,N,N,N,0,0,16033,0,0,0,0,0,0,23506,0,312669,336174,0,336175,321,0,0,0,0,0,0,0,0,321,336175,16489,0,0,0,0,0,0,0,0,0,0,0,0,0,0,0,0,0,0,0,0,0,0,0,0,0,0,0,0,0,0,0,0,0,0,0,0,0,0,0,0,10007.0,BETTY RETTER FOUNDATION,BETTY RETTER,225 BROADWAY STE 500,NEW YORK,NY,10007-3901,0.0,3.0,1.0,199707.0,1.0,4.0,2.0,13.0,0.0,1.0,6,,119.0,0.0,0.0,321,0,,A11,A,PF,S,ZA,A,A,IN,,1,AR,AR,AR,0.97472,C,36061.0,5602.0,5600.0,NY,10007.0,NEW YORK,core2003pf_ver1,PF,S,ZA,A,IN,,A99,A
9995,133952016,200312,2003,200423.0,29491143041204,A20Z,N,Y,0.0,1.0,2003,3.0,6.0,6.0,3,91,0,6932,1264,407120,0,0,0,477000,415316,577070,-161754,477000,327388,0,1622151,0,360260,0,360260,0,1784266,0,83583,N,Y,N,N,N,N,N,N,N,N,N,N,N,N,N,N,N,N,N,0,0,415316,0,100070,87928,0,87928,0,1054539,0,0,1784266,0,1622151,3274,0,0,6548,0,0,0,0,3274,3274,1697109,80309,0,0,0,0,0,0,0,0,0,0,0,0,0,0,0,0,0,0,0,0,0,0,0,0,0,0,0,0,0,0,0,0,0,0,0,0,0,0,0,0,10017.0,PAINTER HILL FOUNDATION,REMINICK ARRONS & CO LLP,529 FIFTH AVE STE 901,NEW YORK,NY,10017-4608,0.0,3.0,1.0,199708.0,1.0,4.0,1.0,13.0,0.0,1.0,12,,91.0,602.0,0.0,-3274,0,,A20,A,PF,O,AR,A,A,IN,,1,AR,AR,AR,0.892863,C,36061.0,5602.0,5600.0,NY,10017.0,NEW YORK,core2003pf_ver1,PF,S,AR,A,IN,,A20,A
10027,133963325,200406,2004,200444.0,29491290038234,A33E,N,Y,0.0,1.0,2003,3.0,1.0,2.0,3,994,10500,0,0,0,0,380,1700,0,10880,15444,-4564,0,0,380,4607,0,0,0,0,0,1,0,0,N,N,N,N,N,N,N,N,N,N,N,N,N,N,N,N,N,N,N,0,0,0,380,15444,0,0,0,0,4607,0,0,0,0,4607,0,0,0,0,0,0,0,0,0,0,0,0,0,0,0,0,0,0,0,0,0,0,0,0,0,0,0,0,0,0,0,0,0,0,0,0,0,0,0,0,0,0,0,0,0,0,0,0,0,0,0,0,11375.0,INSTITUTE FOR THE STUDY OF LONG-TERM ECONOMIC TRENDS,HUDSON,119 49 UNION TURNPIKE 3B,FOREST HILLS,NY,11375-0000,0.0,3.0,2.0,199712.0,1.0,4.0,1.0,11.0,0.0,1.0,6,,994.0,120.0,123.0,0,0,,A05,A,PF,O,AR,A,A,IN,,1,AR,AR,AR,0.22633000000000003,C,36081.0,5602.0,5600.0,NY,11375.0,FOREST HILLS,core2003pf_ver1,PF,S,AR,A,IN,,A33,A
10047,133967980,200312,2003,200439.0,29491248030114,A70Z,N,Y,0.0,1.0,2003,3.0,1.0,4.0,3,994,108975,0,0,0,0,0,34175,0,108975,113635,-4660,113635,0,0,2271,0,0,0,0,0,2271,0,159,N,N,N,N,N,N,N,N,N,N,N,N,N,N,N,N,N,N,N,0,0,0,0,113635,0,113635,0,0,2271,0,0,2271,0,2271,0,0,0,0,0,0,0,0,0,0,3223,159,0,0,0,0,0,0,0,0,0,0,0,0,0,0,0,0,0,0,0,0,0,0,0,0,0,0,0,0,0,0,0,0,0,0,0,0,0,0,0,0,10021.0,LANDMARKS FOUNDATION PROTECTING SAC RED SITES GLOBALLY INC,,155 E 75TH ST,NEW YORK,NY,10021-3251,0.0,3.0,1.0,199712.0,1.0,4.0,1.0,13.0,0.0,1.0,12,,994.0,119.0,0.0,0,0,,A70,A,PF,O,AR,A,A,IN,,1,AR,AR,AR,0.500323,C,36061.0,5602.0,5600.0,NY,10021.0,NEW YORK,core2003pf_ver1,PF,S,AR,A,IN,,A70,A
10059,133972275,200312,2003,200428.0,29491178083034,P20,N,Y,0.0,1.0,2003,3.0,2.0,2.0,3,994,413,60,0,0,0,24400,0,0,24873,34938,-10065,24263,60,9506,11274,0,0,0,0,7941,11274,0,784,N,N,N,N,N,N,N,N,N,N,N,N,N,N,N,N,N,N,N,0,0,60,24400,34938,0,24263,0,14894,0,0,0,11274,0,3333,1,0,0,0,0,0,0,0,0,1,15909,783,0,0,0,0,0,0,0,0,0,0,0,0,0,0,0,0,0,0,0,0,0,0,0,0,0,0,0,0,0,0,0,0,0,0,0,0,0,0,0,0,10001.0,ART2FACTS,RAYMOND M PEPI,158 W 27TH ST STE 4TH FLR,NEW YORK,NY,10001-6216,0.0,3.0,2.0,199812.0,1.0,4.0,1.0,13.0,0.0,1.0,12,,994.0,119.0,0.0,1,0,,A40,A,PF,O,AR,A,A,IN,,1,AR,AR,AR,0.96144,C,36061.0,5602.0,5600.0,NY,10001.0,NEW YORK,core2003pf_ver1,PF,S,AR,A,IN,,A40,A
10065,133973817,200309,2003,200438.0,29491241087234,A82Z,N,Y,0.0,1.0,2002,3.0,5.0,3.0,3,994,20000,3213,2707,0,0,0,0,520000,25920,536392,-510472,531634,5920,0,956360,0,758466,0,758466,13258,956360,0,53047,N,Y,N,N,N,N,N,N,N,N,N,N,N,N,N,N,N,N,N,0,0,5920,0,16392,0,11634,0,0,197894,0,0,956360,0,943102,59,0,0,0,0,0,0,0,0,59,1077099,52988,0,0,0,0,0,0,0,0,0,0,0,0,0,0,0,0,0,0,0,0,0,0,0,0,0,0,0,0,0,0,0,0,0,0,0,0,0,0,0,0,10024.0,FRIENDS OF CHINA HERITAGE FUND LIMITED,DIANE T WOO,440 W END AVE,NEW YORK,NY,10024-5358,0.0,3.0,1.0,199807.0,1.0,4.0,1.0,13.0,0.0,1.0,9,,994.0,119.0,0.0,59,0,,A11,A,PF,S,ZA,A,A,IN,,1,AR,AR,AR,0.846301,C,36061.0,5602.0,5600.0,NY,10024.0,NEW YORK,core2003pf_ver1,PF,S,ZA,A,IN,,A1180,A
10081,133976351,200306,2003,200409.0,29491340001013,A60Z,N,Y,0.0,1.0,2002,3.0,1.0,1.0,3,994,0,0,0,0,0,0,0,0,1,0,1,0,0,0,1,0,0,0,0,0,1,0,0,N,N,N,N,N,N,N,N,N,N,N,N,N,N,N,N,N,N,N,0,0,0,0,0,0,0,0,0,0,0,0,0,0,0,0,0,0,0,0,0,0,0,0,0,0,0,0,0,0,0,0,0,0,0,0,0,0,0,0,0,0,0,0,0,0,0,0,0,0,0,0,0,0,0,0,0,0,0,0,0,0,0,0,0,0,0,10022.0,DAVID MERRICK AND NATALIE LLOYD FOUNDATION INC,SCOTT GILDEA & COMPANY,117 E 57TH ST,NEW YORK,NY,10022-2002,0.0,3.0,1.0,199803.0,1.0,4.0,1.0,13.0,200206.0,1.0,6,,994.0,927.0,602.0,0,0,,A60,A,PF,O,AR,A,A,IN,,1,AR,AR,AR,0.761987,C,36061.0,5602.0,5600.0,NY,10022.0,NEW YORK,core2003pf_ver1,PF,S,AR,A,IN,,G20,G
10140,133981562,200311,2003,200414.0,29491073039134,A51Z,N,Y,0.0,1.0,2002,2.0,3.0,3.0,3,60,8800,726,199,12416,0,0,0,7225,22141,24554,-2413,24554,925,925,62613,28418,0,0,28418,0,57076,0,3428,N,N,N,N,Y,N,N,N,N,N,N,N,N,N,N,N,N,N,N,0,0,925,925,17329,0,17329,0,0,34195,0,0,57076,0,62613,19,0,0,0,0,0,0,0,0,19,69608,3409,1,0,0,0,1,0,0,0,0,0,1,0,0,0,1,0,0,0,0,0,0,0,0,0,0,0,0,0,0,0,0,0,0,0,0,0,0,0,0,0,10022.0,MICA FOUNDATION,HOWARD MORSE MORSE ZELNICK ROSE &,405 PARK AVE SUITE 1401,NEW YORK,NY,10022-9427,0.0,3.0,1.0,199811.0,1.0,3.0,1.0,13.0,0.0,1.0,11,,60.0,0.0,0.0,19,0,,A51,A,PF,O,AR,A,A,IN,,1,AR,AR,AR,0.767746,C,36061.0,5602.0,5600.0,NY,10022.0,NEW YORK,core2003pf_ver1,PF,O,AR,A,IN,,A51,A
10154,133984936,200312,2003,200423.0,29491143075024,A31Z,N,Y,0.0,1.0,2003,3.0,6.0,7.0,3,602,8497108,1644,7741,0,0,0,838553,2136495,8506493,8652801,-146308,7761940,9385,0,3735139,0,0,0,0,2114861,3735139,0,36575,N,Y,N,N,N,N,N,N,N,N,N,N,N,N,N,N,N,N,N,0,0,9385,9385,6516306,0,5625445,0,470037,0,0,0,3735139,0,1620278,94,0,0,419,0,0,0,0,325,94,742648,0,0,0,0,0,0,0,0,0,0,0,0,0,0,0,0,0,0,0,0,0,0,0,0,0,0,0,0,0,0,0,0,0,0,0,0,0,0,0,0,0,10152.0,ANDREA AND CHARLES BRONFMAN PHILANTROPIES INC,JEFFREY SOLOMAN,375 PARK AVE 6TH FLOOR,NEW YORK,NY,10152-0002,0.0,3.0,2.0,199807.0,1.0,4.0,1.0,13.0,0.0,1.0,12,,602.0,0.0,0.0,-325,0,,A31,A,PF,O,AR,A,A,IN,,1,AR,AR,AR,0.3363,C,36061.0,5602.0,5600.0,NY,10152.0,NEW YORK,core2003pf_ver1,PF,S,AR,A,IN,,T23,T
10201,133995881,200306,2003,200424.0,29491143267094,A20,N,Y,0.0,1.0,2002,3.0,6.0,5.0,3,0,386100,107,0,0,0,0,67154,0,682020,614893,67127,319080,107,107,2922838,0,0,0,0,22580,2922838,0,1463,N,N,N,N,N,N,N,N,Y,N,N,N,N,N,N,N,N,N,N,295813,0,107,295920,614893,0,100627,0,295813,500,0,0,2922838,0,2900258,2,0,0,0,0,0,0,0,0,2,29705,1461,0,0,0,0,0,0,0,0,0,0,0,0,0,0,0,0,0,0,0,0,0,0,0,0,0,0,0,0,0,0,0,0,0,0,0,0,0,0,0,0,10018.0,LUCILLE LORTEL THEATRE FOUNDATION INC,HECHT AND COMPANY PC,111 W 40TH ST,NEW YORK,NY,10018-2506,0.0,3.0,1.0,199907.0,1.0,4.0,1.0,13.0,0.0,1.0,6,,0.0,0.0,0.0,2,0,,A20,A,PF,O,AR,A,A,IN,,1,AR,AR,AR,0.43621099999999996,C,36061.0,5602.0,5600.0,NY,10018.0,NEW YORK,core2003pf_ver1,PF,S,AR,A,IN,,A65,A
10232,134006236,200212,2002,200438.0,29491241052194,A33Z,N,Y,0.0,1.0,2002,3.0,1.0,0.0,3,995,0,0,0,0,0,0,0,0,0,6014,-6014,0,0,0,1910,0,0,0,0,0,1910,0,0,N,N,N,N,N,N,N,N,N,N,N,N,N,N,N,N,N,N,N,0,0,0,0,6014,0,0,0,0,1910,0,0,1910,0,1910,0,0,0,0,0,0,0,0,0,0,1000,0,0,0,0,0,0,0,0,0,0,0,0,0,0,0,0,0,0,0,0,0,0,0,0,0,0,0,0,0,0,0,0,0,0,0,0,0,0,0,0,0,10014.0,TEREZIN PUBLISHING PROJECT LTD,AMY LOWENHAR,422 HUDSON ST,NEW YORK,NY,10014-3932,0.0,3.0,1.0,199808.0,1.0,4.0,1.0,13.0,0.0,1.0,12,,995.0,120.0,0.0,0,0,,A33,A,PF,O,AR,A,A,IN,,1,AR,AR,AR,0.211186,C,36061.0,5602.0,5600.0,NY,10014.0,NEW YORK,core2003pf_ver1,PF,S,AR,A,IN,,A33,A
10361,134032127,200312,2003,200410.0,29491052060014,A40,N,Y,0.0,1.0,2003,2.0,3.0,3.0,3,0,31443,0,0,0,0,0,0,0,31443,600,30843,0,131,0,31574,0,0,0,0,0,31574,0,0,N,N,N,N,Y,N,N,N,N,N,N,N,N,N,N,N,N,N,N,0,0,131,0,600,0,0,0,0,0,0,0,31574,0,31574,0,0,0,0,0,0,0,0,0,0,0,0,31574,31629,31312,30056,124571,0,0,0,0,0,31574,31629,31312,30056,124571,0,0,0,0,0,0,0,0,0,0,0,0,0,0,0,0,0,0,0,0,0,0,0,0,0,10016.0,BERT STERN FOUNDATION FOR THE VISUAL ARTS INC,BERT STERN,330 E 39TH ST APT 32G,NEW YORK,NY,10016-2135,0.0,3.0,2.0,200012.0,1.0,3.0,1.0,13.0,0.0,1.0,12,,0.0,0.0,0.0,0,0,,A12,A,PF,S,ZB,A,A,IN,,1,AR,AR,AR,0.888115,C,36061.0,5602.0,5600.0,NY,10016.0,NEW YORK,core2003pf_ver1,PF,S,ZB,A,IN,,A40,A
10444,134047433,200212,2002,200403.0,29491354005093,A51,N,Y,0.0,1.0,2002,2.0,9.0,8.0,3,0,23017600,0,251683,-3442539,469737,1848548,200000,0,22145029,7190550,14954479,4183547,11395990,11362547,53717928,0,14645551,0,14645551,31938941,53717928,0,1204207,N,N,N,N,Y,Y,Y,N,N,N,N,N,N,N,N,N,N,N,N,0,617262,11549144,13867429,7190550,153154,4183547,153154,2504882,761795,0,0,53717928,0,21778987,227920,0,0,90271,0,0,0,0,0,227920,24450910,0,1204207,39524,0,0,1243731,6430384,18747822,15292580,420798,40891584,1,0,0,0,1,0,0,0,0,0,802805,280514,12726,2071,1098116,0,0,0,0,0,0,0,0,0,0,0,0,0,0,0,10153.0,NEUE GALERIE NEW YORK,JACOB Z SCHUSTER,SUITE 4200,NEW YORK,NY,10153-0000,0.0,3.0,1.0,199912.0,1.0,3.0,1.0,13.0,0.0,1.0,12,,0.0,0.0,0.0,137649,0,,A99,A,PF,O,AR,A,A,IN,,1,AR,AR,AR,0.683316,C,36061.0,5602.0,5600.0,NY,10153.0,NEW YORK,core2003pf_ver1,PF,O,AR,A,IN,,A51,A
10473,134055562,200311,2003,200420.0,29491122012174,A20,N,Y,0.0,1.0,2002,3.0,1.0,1.0,3,0,10,0,0,0,0,0,0,0,10,2093,-2083,2093,0,0,2277,0,0,0,0,0,2277,0,147,N,N,N,N,N,N,N,N,N,N,N,N,N,N,N,N,N,N,N,0,0,0,0,2093,0,2093,0,0,2277,0,0,2277,0,2277,0,0,0,0,0,0,0,0,0,0,2976,147,0,0,0,0,0,0,0,0,0,0,0,0,0,0,0,0,0,0,0,0,0,0,0,0,0,0,0,0,0,0,0,0,0,0,0,0,0,0,0,0,10020.0,FASSBINDER FOUNDATION INC,SEYFARTH SHAW,1270 AVE OF THE AMERICAS,NEW YORK,NY,10020-0000,0.0,3.0,1.0,200006.0,1.0,4.0,1.0,13.0,0.0,1.0,11,,0.0,0.0,0.0,0,0,,A99,A,PF,O,AR,A,A,IN,,1,AR,AR,AR,0.970398,C,36061.0,5602.0,5600.0,NY,10020.0,NEW YORK,core2003pf_ver1,PF,S,AR,A,IN,,A20,A
10522,134069969,200306,2003,200425.0,29491150111174,A20,N,Y,0.0,1.0,2002,2.0,9.0,9.0,3,0,2500000,2141205,206090,591840,0,19283,0,192678150,5458418,193050550,-187592132,192748664,2712768,2333288,81756193,17867533,0,2050092,19917625,3170500,83322113,0,3727841,N,N,N,Y,Y,N,N,N,N,N,N,N,Y,N,N,N,N,N,N,0,0,2932371,2465531,372400,219603,70514,219603,132243,462056,0,27595333,83322113,0,78585693,54255,0,0,30283,0,35000,0,0,11028,54255,75692211,0,2333288,2454505,792724,16633,5597150,78574394,8600443,71444041,42419023,201037901,83322113,232465325,156312659,95284300,567384397,7765000,155197250,147159750,76510000,386632000,2485227,2596989,528483,11089,5621788,0,0,0,0,0,0,0,0,0,0,0,0,0,0,0,10153.0,AMERICAN ART FOUNDATION INC,MEREDITH EDWARDS,767 FIFTH AVE 40TH FL,NEW YORK,NY,10153-0023,0.0,3.0,2.0,199911.0,1.0,3.0,1.0,13.0,0.0,1.0,6,,0.0,0.0,0.0,-11028,0,M,A20,A,PF,O,AR,A,A,IN,,1,AR,AR,AR,0.0392059,C,36061.0,5602.0,5600.0,NY,10153.0,NEW YORK,core2003pf_ver1,PF,O,AR,A,IN,,A12,A
10535,134073167,200312,2003,200416.0,29491087052014,A11,N,Y,0.0,1.0,2003,3.0,3.0,4.0,3,0,50904,6,969,-569,0,0,0,94000,51310,94025,-42715,94000,80815,0,36571,0,0,0,0,0,36571,0,2490,N,Y,N,N,N,N,N,N,N,N,N,N,N,N,N,N,N,N,N,0,0,80815,0,25,0,0,0,0,0,0,0,36571,0,36571,808,0,0,353,0,0,0,2,0,808,50554,1682,0,0,0,0,0,0,0,0,0,0,0,0,0,0,0,0,0,0,0,0,0,0,0,0,0,0,0,0,0,0,0,0,0,0,0,0,0,0,0,0,10128.0,YOUNG FOUNDATION,JOHN YOUNG,1088 PARK AVE,NEW YORK,NY,10128-1132,0.0,3.0,1.0,200002.0,1.0,4.0,2.0,13.0,0.0,1.0,12,YOUNG JOHN TTEE,0.0,0.0,0.0,457,0,,A11,A,PF,S,ZA,A,A,IN,,1,AR,AR,AR,0.058745500000000006,C,36061.0,5602.0,5600.0,NY,10128.0,NEW YORK,core2003pf_ver1,PF,S,ZA,A,IN,,A11,A
10555,134077058,200312,2003,200434.0,29491220043154,A80,N,Y,0.0,1.0,2003,3.0,4.0,2.0,3,0,12245,3438,0,0,0,3740,2200,2400,19423,20160,-737,15970,2988,0,188041,0,0,0,0,0,188041,0,9280,N,N,N,N,N,N,N,N,Y,N,N,N,N,N,N,N,N,N,N,0,0,3438,3740,17760,450,13570,450,3740,188041,0,0,188041,0,188041,60,0,0,0,0,0,0,0,0,60,188425,9220,0,0,0,0,0,0,0,0,0,0,0,0,0,0,0,0,0,0,0,0,0,0,0,0,0,0,0,0,0,0,0,0,0,0,0,0,0,0,0,0,10003.0,POLISH ARMY VETERANS ASSOCIATION OF AMERICA FOUNDATION INC,KAZIMIERZ S RASIEJ,119 E 15TH ST,NEW YORK,NY,10003-2392,0.0,3.0,2.0,200003.0,1.0,4.0,1.0,13.0,0.0,1.0,12,,0.0,0.0,0.0,60,0,,A80,A,PF,O,AR,A,A,IN,,1,AR,AR,AR,0.142179,C,36061.0,5602.0,5600.0,NY,10003.0,NEW YORK,core2003pf_ver1,PF,S,AR,A,IN,,W30,W
10569,134080444,200312,2003,200445.0,29491164338214,A11,N,Y,0.0,1.0,2003,2.0,4.0,4.0,3,0,122000,0,0,0,0,0,0,0,122000,11225,110775,10169,0,0,360939,0,0,0,0,30000,360939,0,2853,N,Y,N,N,Y,N,N,N,N,N,N,N,N,N,N,N,N,N,N,0,0,0,0,11225,0,10169,0,0,33637,0,0,360939,0,330939,0,0,0,0,0,0,0,0,0,0,57926,0,2853,0,0,0,2853,16375,87255,20540,86150,210320,0,0,0,0,0,0,0,0,0,0,0,0,0,0,0,0,0,0,0,0,0,0,0,0,0,0,0,0,0,0,10022.0,PARNASSUSWORKS FOUNDATION,RICHARD A RIFKIND,425 E 58TH ST,NEW YORK,NY,10022-2300,0.0,3.0,2.0,200001.0,1.0,3.0,2.0,13.0,0.0,1.0,12,,0.0,0.0,0.0,0,0,,A11,A,PF,S,ZA,A,A,IN,,1,AR,AR,AR,0.645691,C,36061.0,5602.0,5600.0,NY,10022.0,NEW YORK,core2003pf_ver1,PF,S,ZA,A,IN,,A11,A
10740,134101047,200212,2002,200403.0,29491361016243,A31,N,Y,0.0,1.0,2002,2.0,1.0,1.0,3,0,8451,0,0,0,0,0,0,0,8451,49898,-41447,0,0,0,1920,0,0,0,0,10939,1920,0,848,N,N,N,N,Y,N,N,N,N,N,N,N,N,N,N,N,N,N,N,0,0,0,0,49898,0,0,0,0,1725,0,0,1920,0,-9019,0,0,0,0,0,0,0,0,0,0,17213,0,-41447,-95593,128099,0,-8941,0,0,0,0,0,1920,32428,128099,0,162447,0,0,0,0,0,565,2635,0,0,3200,0,0,188532,0,188532,0,0,0,0,0,0,146,7895,0,8041,10017.0,EXEMPLARY FILMS INC,BERDON LLP,360 MADISON AVE,NEW YORK,NY,10017-7111,0.0,3.0,1.0,200208.0,1.0,3.0,1.0,13.0,0.0,1.0,12,,0.0,0.0,0.0,0,0,,A31,A,PF,O,AR,A,A,IN,,1,AR,AR,AR,0.489962,C,36061.0,5602.0,5600.0,NY,10017.0,NEW YORK,core2003pf_ver1,PF,O,AR,A,IN,,A31,A
10752,134105372,200212,2002,200403.0,29491361049053,A65,N,Y,0.0,1.0,2002,2.0,1.0,1.0,3,0,1631,0,0,0,0,0,0,0,1631,4840,-3209,4840,0,0,746,0,0,0,0,0,746,0,240,N,N,N,N,Y,N,N,N,N,N,N,N,N,N,N,N,N,N,N,0,0,0,0,4840,0,4840,0,0,746,0,0,746,0,746,0,0,0,0,0,0,0,0,0,0,4868,0,0,286,53,0,339,4840,9790,16901,0,31531,0,0,0,0,0,0,0,0,0,0,160,191,35,0,386,0,0,0,0,0,0,0,0,0,0,0,0,0,0,0,10036.0,AMERICAN STUDIO THEATER INC,US TRUST COMPANY OF NEW YORK,114 W 47TH ST TAXRGR,NEW YORK,NY,10036-1510,0.0,3.0,2.0,200205.0,1.0,3.0,1.0,13.0,0.0,1.0,12,,0.0,0.0,0.0,0,0,,A65,A,PF,O,AR,A,A,IN,,1,AR,AR,AR,0.35275100000000004,C,36061.0,5602.0,5600.0,NY,10036.0,NEW YORK,core2003pf_ver1,PF,O,AR,A,IN,,A6E,A
10756,134106981,200312,2003,200424.0,29491143105204,A80,N,Y,0.0,1.0,2003,3.0,4.0,1.0,3,0,0,0,1339,0,0,0,0,0,1339,5967,-4628,5391,1051,1051,153308,0,0,0,0,0,153308,0,7443,N,N,N,N,N,N,N,N,N,N,N,N,N,N,N,N,N,N,N,0,0,1339,1339,5967,288,5391,288,288,153308,0,0,153308,0,153308,11,0,0,176,0,0,0,0,165,11,151122,0,0,0,0,0,0,0,0,0,0,0,0,0,0,0,0,0,0,0,0,0,0,0,0,0,0,0,0,0,0,0,0,0,0,0,0,0,0,0,0,0,10022.0,BASEBALL ORAL HISTORY PROJECT FOUNDATION,YOHALEM GILLMAN & CO LLP,477 MADISON AVE,NEW YORK,NY,10022-5802,0.0,3.0,2.0,200201.0,1.0,4.0,1.0,13.0,0.0,1.0,12,,0.0,0.0,0.0,-165,0,,A80,A,PF,O,AR,A,A,IN,,1,AR,AR,AR,0.31338499999999997,C,36061.0,5602.0,5600.0,NY,10022.0,NEW YORK,core2003pf_ver1,PF,S,AR,A,IN,,N63,N
10775,134115047,200303,2003,200411.0,29491059013064,A25,N,Y,0.0,1.0,2002,2.0,7.0,5.0,3,0,129211,507,24876,127212,0,47040,63846,28000,328846,233748,95098,179015,19120,19120,8571308,0,1331906,0,1331906,0,8276450,0,0,N,Y,N,N,Y,N,N,N,Y,N,N,N,N,N,N,N,N,N,N,0,0,25383,72423,205748,6263,151015,6263,53303,0,0,0,8276450,0,8571308,191,0,0,1000,0,0,0,0,809,191,0,0,19120,26976,36762,0,82858,179015,142416,69926,0,391357,8276450,8286475,8432101,0,24995026,7172457,7226879,7242096,0,21641432,33817,37171,24508,0,95496,0,0,0,0,0,0,0,0,0,0,0,0,0,0,0,10022.0,SAUL STEINBERG FOUNDATION,JOHN SILBERMAN ASSOCIATES,145 E 57TH ST,NEW YORK,NY,10022-2141,0.0,3.0,2.0,200006.0,1.0,3.0,1.0,13.0,0.0,1.0,3,,0.0,0.0,0.0,-809,0,,A99,A,PF,O,AR,A,A,IN,,1,AR,AR,AR,0.0734589,C,36061.0,5602.0,5600.0,NY,10022.0,NEW YORK,core2003pf_ver1,PF,O,AR,A,IN,,A25,A
10846,134138655,200312,2003,200428.0,29491178029104,A20,N,Y,0.0,1.0,2003,2.0,3.0,5.0,3,0,825000,0,0,0,0,0,0,0,825000,804698,20302,815873,0,0,55239,0,0,0,0,384410,55239,0,2032,N,N,N,N,N,N,N,N,N,N,N,N,N,N,N,N,N,N,N,0,0,0,0,804698,0,815873,0,0,55239,0,0,55239,0,-329171,0,0,0,0,0,0,0,0,0,0,41267,2032,0,0,0,0,0,0,0,0,0,0,0,0,0,0,0,0,0,0,0,0,0,0,0,0,0,0,0,0,0,0,0,0,0,0,0,0,0,0,0,0,10153.0,COMMISSION FOR ART RECOVERY INC,ANDREW L JAGODA,767 FIFTH AVE 46TH FLR,NEW YORK,NY,10153-0023,0.0,3.0,1.0,200102.0,1.0,3.0,1.0,13.0,0.0,1.0,12,,0.0,0.0,0.0,0,0,M,A99,A,PF,O,AR,A,A,IN,,1,AR,AR,AR,0.929164,C,36061.0,5602.0,5600.0,NY,10153.0,NEW YORK,core2003pf_ver1,PF,O,AR,A,IN,,A20,A
10926,134150082,200312,2003,200452.0,29491346060144,A50,N,Y,0.0,1.0,2003,3.0,8.0,8.0,3,0,9001111,77728,0,24830,0,93755,0,4700000,9197424,5732385,3465039,5475951,2401637,76041,30882565,0,0,0,0,0,30882565,0,329152,N,Y,N,N,N,N,N,N,N,N,N,N,N,N,N,N,N,N,N,0,0,2430756,105160,1032385,29119,775951,29119,29119,0,0,0,30882565,0,30882565,24016,0,0,0,0,0,0,35,0,24016,6683293,0,0,0,0,0,0,0,0,0,0,0,0,0,0,0,0,0,0,0,0,0,0,0,0,0,0,0,0,0,0,0,0,0,0,0,0,0,0,0,0,0,10112.0,STONE BARNS RESTORATION CORP,RICHARD N CATALDO,30 ROCKEFELLER PLZ STE 56,NEW YORK,NY,10112-0002,0.0,3.0,1.0,200107.0,2.0,4.0,1.0,13.0,0.0,1.0,12,,0.0,0.0,0.0,24051,0,,A99,A,PF,O,AR,A,A,IN,,1,AR,AR,AR,0.35935,C,36061.0,5602.0,5600.0,NY,10112.0,NEW YORK,core2003pf_ver1,PF,S,AR,A,IN,,A50,A
10952,134156715,200312,2003,200431.0,29491192063054,A12,N,Y,0.0,1.0,2003,3.0,1.0,1.0,3,0,0,47,0,0,0,0,0,0,47,0,47,0,47,0,8015,0,0,0,0,0,8015,291,292,N,N,N,N,N,N,N,N,N,N,N,N,N,N,N,N,N,N,N,0,0,47,0,0,0,0,0,0,8015,0,0,8015,0,8015,1,0,0,0,0,0,0,0,0,1,5927,291,0,0,0,0,0,0,0,0,0,0,0,0,0,0,0,0,0,0,0,0,0,0,0,0,0,0,0,0,0,0,0,0,0,0,0,0,0,0,0,0,10165.0,INDIAN DIAMOND & JEWELRY CHARITABLE FUND OF NY INC,NORMAN J TANNENBAUM,60 E 42ND ST STE 2536,NEW YORK,NY,10165-2599,0.0,3.0,1.0,200107.0,1.0,4.0,1.0,13.0,0.0,1.0,12,,0.0,0.0,0.0,1,0,,A99,A,PF,O,AR,A,A,IN,,1,AR,AR,AR,0.148786,C,36061.0,5602.0,5600.0,NY,10165.0,NEW YORK,core2003pf_ver1,PF,S,AR,A,IN,,A23,A
10971,134165975,200308,2003,200411.0,29491017020054,A23,N,Y,0.0,1.0,2002,2.0,1.0,4.0,3,0,113761,0,0,0,0,0,39848,1240,113761,120461,-6700,120129,0,0,7490,0,0,0,0,6050,7490,0,533,N,N,N,N,Y,N,N,N,N,N,N,N,N,N,N,N,N,N,N,0,0,0,0,119221,0,118889,0,332,5521,0,0,7490,0,1440,0,0,0,0,0,0,0,0,0,0,10815,0,533,0,0,0,533,120129,108183,60024,0,288336,7490,14140,15837,0,37467,7490,14140,15837,0,37467,0,0,0,0,0,113761,112025,75931,0,301717,113761,112025,75931,0,301717,0,0,0,0,0,10036.0,FRIENDS OF RINRI KENKYUSHO OF NEW YORK INC,EMIKO AKUTAGAWA LINDSAY,25 W 43RD ST 1016,NEW YORK,NY,10036-7410,0.0,3.0,1.0,200112.0,1.0,3.0,1.0,13.0,0.0,1.0,8,RINRI TOMO-NO-KAI,0.0,0.0,0.0,0,0,,A99,A,PF,O,AR,A,A,IN,,1,AR,AR,AR,0.6508520000000001,C,36061.0,5602.0,5600.0,NY,10036.0,NEW YORK,core2003pf_ver1,PF,O,AR,A,IN,,A1170,A
11001,134179518,200403,2004,200439.0,29491248026234,A25,N,Y,0.0,1.0,2003,2.0,1.0,1.0,3,0,0,16,0,0,0,5728,0,0,5744,5491,253,1309,7,1571,4770,0,0,0,0,0,4770,0,232,N,N,N,N,Y,N,N,N,N,N,N,N,N,N,N,N,N,N,N,0,0,16,5744,5491,9,1309,9,4173,4770,0,0,4770,0,4770,0,0,0,0,0,0,0,0,0,0,4715,0,232,0,0,0,232,1309,0,0,0,1309,1,0,0,0,1,0,0,0,0,0,0,0,0,0,0,0,0,0,0,0,0,0,0,0,0,0,0,0,0,0,10022.0,INSTITUTE OF MASTERS OF WINE NORTH AMERICA LTD,TANNENBAUM HELPERN SYRACUSE,900 THIRD AVE,NEW YORK,NY,10022-4728,0.0,3.0,2.0,200309.0,1.0,3.0,1.0,13.0,0.0,1.0,3,,0.0,0.0,0.0,0,0,,A25,A,PF,O,AR,A,A,IN,,1,AR,AR,AR,0.469186,C,36061.0,5602.0,5600.0,NY,10022.0,NEW YORK,core2003pf_ver1,PF,O,AR,A,IN,,A25,A
11005,134181214,200312,2003,200426.0,29491164099064,A25,N,Y,0.0,1.0,2003,3.0,5.0,2.0,3,0,0,21840,0,0,0,0,0,48300,21840,84525,-62685,79463,16778,0,854703,0,0,0,0,0,854703,0,44702,N,Y,N,N,N,N,N,N,N,N,N,N,N,N,N,N,Y,Y,N,0,0,21840,0,36225,5062,31163,5062,0,1990,0,0,854703,0,854703,168,0,0,0,0,0,0,0,0,168,907655,44534,0,0,0,0,0,0,0,0,0,0,0,0,0,0,0,0,0,0,0,0,0,0,0,0,0,0,0,0,0,0,0,0,0,0,0,0,0,0,0,0,10016.0,MALEVICH SOCIETY,LAWRENCE KAYE TRUSTEE,2 PARK AVE,NEW YORK,NY,10016-5675,0.0,3.0,2.0,200201.0,1.0,4.0,1.0,13.0,0.0,1.0,12,,0.0,0.0,0.0,168,0,,A25,A,PF,O,AR,A,A,IN,,1,AR,AR,AR,0.24490399999999998,C,36061.0,5602.0,5600.0,NY,10016.0,NEW YORK,core2003pf_ver1,PF,S,AR,A,IN,,A25,A
11009,134182614,200312,2003,200452.0,29491346018024,A20,N,Y,0.0,1.0,2003,3.0,4.0,5.0,3,0,386135,1880,7582,-35646,0,1091,0,382871,361042,411112,-50070,387472,0,0,411155,0,117110,0,117110,18000,439472,0,10,N,N,N,N,N,N,N,N,N,N,N,N,N,N,N,N,N,Y,N,0,0,10553,0,28241,23640,4601,23640,0,0,0,167213,439472,0,393155,0,0,0,0,0,0,0,0,0,0,200,10,0,0,0,0,0,0,0,0,0,0,0,0,0,0,0,0,0,0,0,0,0,0,0,0,0,0,0,0,0,0,0,0,0,0,0,0,0,0,0,0,10017.0,HARRIET AND ESTEBAN VICENTE FOUNDATION,ROBERT S WARSHAW,501 FIFTH AVE STE 1803,NEW YORK,NY,10017-6189,0.0,3.0,1.0,200111.0,1.0,4.0,1.0,13.0,0.0,1.0,12,,0.0,0.0,0.0,0,0,,A99,A,PF,O,AR,A,A,IN,,1,AR,AR,AR,0.997923,C,36061.0,5602.0,5600.0,NY,10017.0,NEW YORK,core2003pf_ver1,PF,S,AR,A,IN,,A20,A
11031,134193640,200403,2004,200445.0,29491199023244,A20,N,Y,0.0,1.0,2003,2.0,1.0,1.0,3,0,5000,83,0,18,0,0,0,1000,5101,2164,2937,1000,83,83,3177,0,0,0,0,0,3207,0,205,N,N,N,N,Y,N,N,N,N,N,N,N,N,N,N,N,N,N,N,0,0,83,83,1164,0,0,0,0,275,0,0,3207,0,3177,2,0,0,0,0,0,0,0,0,2,4156,0,83,0,0,0,83,1000,0,0,0,1000,3207,240,0,0,3447,3207,240,0,0,3447,137,15,0,0,152,5000,5100,0,0,10100,0,100,0,0,100,0,0,0,0,0,10003.0,JONATHAN AND BARBARA SILVER FOUNDATION INC,SILVER BARBARA,30 E 4TH ST,NEW YORK,NY,10003-7025,0.0,3.0,2.0,200207.0,1.0,3.0,1.0,13.0,0.0,1.0,3,,0.0,0.0,0.0,2,0,,A20,A,PF,O,AR,A,A,IN,,1,AR,AR,AR,0.803335,C,36061.0,5602.0,5600.0,NY,10003.0,NEW YORK,core2003pf_ver1,PF,O,AR,A,IN,,A20,A
12136,136149781,200308,2003,200406.0,29491017035054,A60Z,N,Y,0.0,1.0,2002,2.0,6.0,4.0,3,90,100000,12423,287994,1280,0,6280,0,28722,420125,227523,192602,213297,302742,309815,4379974,0,3686320,311773,3998093,0,4601837,0,217611,N,N,N,N,Y,N,N,N,N,N,N,N,N,N,N,N,N,N,N,12148,0,313845,312565,198801,11103,184575,11103,2750,36402,81851,2734,4533383,0,4379974,6055,0,0,9161,0,0,0,0,3106,6055,4418502,0,217611,209188,202318,194381,823498,213297,175680,231529,268150,888656,1,0,0,0,1,0,0,0,0,0,145074,139459,134879,129587,548999,0,0,0,0,0,0,0,0,0,0,0,0,0,0,0,10016.0,PERFORMING ARTS FOUNDATION INC,SPITZ & EDELSTEIN CPAS,21 E 40TH ST STE 1006,NEW YORK,NY,10016-0501,0.0,3.0,1.0,196411.0,1.0,3.0,1.0,13.0,0.0,1.0,8,,90.0,0.0,0.0,-3106,0,,A60,A,PF,O,AR,A,A,IN,,1,AR,AR,AR,0.42216800000000004,C,36061.0,5602.0,5600.0,NY,10016.0,NEW YORK,core2003pf_ver1,PF,O,AR,A,IN,,A1260,A
13166,137061011,200306,2003,200425.0,29491115012204,A50I,N,Y,0.0,1.0,2002,2.0,4.0,2.0,3,60,21000,0,0,0,0,0,0,17700,21000,23617,-2617,21877,0,0,290150,0,0,0,0,0,306343,0,15012,N,N,N,N,Y,N,N,Y,N,N,N,N,N,N,N,N,N,N,N,0,0,0,0,5917,267,4177,267,1910,214,0,0,306343,0,290150,0,0,0,0,0,0,0,0,0,0,304802,0,15012,0,0,0,15012,17870,34675,60474,68401,181420,306343,297280,264571,197794,1065988,306343,297280,264571,199794,1067988,10008,9402,6830,5556,31796,21000,34500,69000,70400,194900,21000,34500,69000,70400,194900,0,0,0,0,0,10016.0,WEISS MEMORIAL FOUNDATION TR,EUGENE STOLER CPA KONIGSBERG WOLF,440 PARK AVE,NEW YORK,NY,10016-8012,0.0,3.0,1.0,199701.0,1.0,3.0,2.0,13.0,0.0,1.0,6,WEISS HERBERT TTEE,60.0,0.0,0.0,0,0,,A11,A,PF,S,ZA,A,A,IN,,1,AR,AR,AR,0.0650753,C,36061.0,5602.0,5600.0,NY,10016.0,NEW YORK,core2003pf_ver1,PF,S,ZA,A,IN,,A50,A
13224,137091348,200312,2003,200429.0,29491178053164,A76Z,N,Y,0.0,1.0,2003,3.0,2.0,1.0,3,92,0,0,0,0,0,0,0,0,271,19447,-19176,19045,271,0,23069,0,0,0,0,0,23069,0,1632,N,N,N,N,N,N,N,N,N,N,N,N,N,N,N,N,N,N,N,271,0,271,0,19447,0,19045,0,0,0,0,0,23069,0,23069,5,0,0,0,0,0,0,0,0,5,33140,1627,0,0,0,0,0,0,0,0,0,0,0,0,0,0,0,0,0,0,0,0,0,0,0,0,0,0,0,0,0,0,0,0,0,0,0,0,0,0,0,0,10021.0,LEO BRONSTEIN TRUST UW ELEANOR L WOLFF,KATHRYN K SOMAN,860 LEXINGTON AVE STE 1,NEW YORK,NY,10021-6605,0.0,3.0,3.0,199701.0,1.0,4.0,2.0,13.0,0.0,1.0,12,,92.0,119.0,602.0,5,0,,A70,A,PF,O,AR,A,A,IN,,1,AR,AR,AR,0.0949861,C,36061.0,5602.0,5600.0,NY,10021.0,NEW YORK,core2003pf_ver1,PF,S,AR,A,IN,,T22,T
13250,137100859,200405,2004,200442.0,29491276011054,A99Z,N,Y,0.0,1.0,2003,3.0,5.0,6.0,3,602,0,653,192432,1715101,0,0,0,1975514,1908186,1999027,-90841,1977354,1907186,0,639581,0,620238,0,620238,0,18745419,0,926117,N,N,N,N,N,N,N,N,N,N,N,N,N,N,N,N,N,N,N,0,0,1908186,0,23513,1000,1840,1000,0,19343,0,0,0,0,639581,38144,0,0,20612,0,0,0,496,0,38144,18804410,887973,0,0,0,0,0,0,0,0,0,0,0,0,0,0,0,0,0,0,0,0,0,0,0,0,0,0,0,0,0,0,0,0,0,0,0,0,0,0,0,0,10179.0,THE JAMES E AND PATRICIA D CAYNE CHARITABLE TRUST,JAMES E CAYNE BEAR STEARNS & CO,383 MADISON AVE,NEW YORK,NY,10179-0001,0.0,3.0,1.0,199704.0,1.0,4.0,2.0,13.0,0.0,1.0,5,,602.0,0.0,0.0,18028,0,M,A99,A,PF,O,AR,A,A,IN,,1,AR,AR,AR,0.11336600000000001,C,36061.0,5602.0,5600.0,NY,10179.0,NEW YORK,core2003pf_ver1,PF,S,AR,A,IN,,T22,T
13251,137101223,200312,2003,200436.0,29491234086004,A45Z,N,Y,0.0,1.0,2003,2.0,6.0,6.0,3,91,1619536,32,0,0,0,52840,0,0,1672408,88834,1583574,87801,0,51839,4535455,0,0,0,0,16961,8858946,0,3438,N,N,N,N,Y,N,N,N,N,N,N,N,N,N,N,N,N,N,N,0,0,0,52872,88834,0,87801,0,1033,77450,0,0,8858946,0,4518494,0,0,0,20,0,0,0,0,20,0,69797,0,3438,4011,0,0,7449,87801,59898,12003,0,159702,1,0,0,0,1,0,0,0,0,0,0,0,0,0,0,0,0,0,0,0,0,0,0,0,0,0,0,0,0,0,10012.0,KIKI KOGELNIK FOUNDATION,STEPHEN KILDUNNE,330 LAFAYETTE ST 7,NEW YORK,NY,10012-2739,0.0,3.0,2.0,199705.0,1.0,3.0,2.0,13.0,0.0,1.0,12,,91.0,0.0,0.0,-20,0,,A40,A,PF,O,AR,A,A,IN,,1,AR,AR,AR,0.636035,C,36061.0,5602.0,5600.0,NY,10012.0,NEW YORK,core2003pf_ver1,PF,O,AR,A,IN,,A40,A
13256,137102174,200309,2003,200413.0,29491066011034,A51Z,N,Y,0.0,1.0,2002,3.0,6.0,5.0,3,326,0,0,108661,236183,0,0,43833,152000,344844,197486,147358,174006,323761,0,3223477,0,1529913,0,1529913,0,3270316,113474,153803,N,Y,N,N,N,N,N,N,Y,N,N,N,N,N,N,N,N,N,N,0,0,345678,0,45486,21917,22006,21917,0,0,0,604099,3270316,0,3223477,3238,0,0,2185,0,0,0,2,0,3238,3122901,150565,0,0,0,0,0,0,0,0,0,0,0,0,0,0,0,0,0,0,0,0,0,0,0,0,0,0,0,0,0,0,0,0,0,0,0,0,0,0,0,0,10036.0,RENATE HOFMANN ARTICLE 3 CHARITABLE TRUST 1874860,JP MORGAN CHASE BANK,1211 AVE OF THE AMERICAS,NEW YORK,NY,10036-0000,0.0,3.0,1.0,199705.0,1.0,4.0,2.0,13.0,0.0,1.0,9,,326.0,91.0,0.0,1055,0,,A51,A,PF,O,AR,A,A,IN,,1,AR,AR,AR,0.322858,C,36061.0,5602.0,5600.0,NY,10036.0,NEW YORK,core2003pf_ver1,PF,S,AR,A,IN,,T22,T
13670,137325028,200212,2002,200411.0,29491361015123,A51,N,Y,0.0,1.0,2002,2.0,6.0,6.0,3,0,4198616,0,20,0,0,0,0,0,4198636,104685,4093951,88505,20,0,4116777,0,0,0,0,22826,4132957,0,0,N,N,N,N,Y,N,N,N,N,N,N,N,N,N,N,N,N,N,N,0,0,20,0,104685,0,88505,0,0,0,0,0,4132957,0,4093951,0,0,0,0,0,0,0,0,0,0,0,0,1,0,0,0,1,594775,0,0,0,594775,4132957,0,0,0,4132957,4083444,0,0,0,4083444,4198616,0,0,0,4198616,0,0,0,0,0,0,0,0,0,0,20,0,0,0,20,10171.0,FISHER LANDAU CENTER FOR ART,FISHER BROTHERS,299 PARK AVE,NEW YORK,NY,10171-0002,0.0,3.0,2.0,200210.0,1.0,3.0,2.0,13.0,0.0,1.0,12,LANDAU EMILY FISHER TTEE,0.0,0.0,0.0,0,0,,A51,A,PF,O,AR,A,A,IN,,1,AR,AR,AR,0.69331,C,36061.0,5602.0,5600.0,NY,10171.0,NEW YORK,core2003pf_ver1,PF,O,AR,A,IN,,A51,A
14609,161632202,200312,2003,200450.0,29491332011044,A12,N,Y,0.0,1.0,2003,3.0,1.0,1.0,3,0,0,0,0,0,0,0,0,0,1,0,1,0,0,0,1,0,0,0,0,0,1,0,0,N,N,N,N,N,N,N,N,N,N,N,N,N,N,N,N,N,N,N,0,0,0,0,0,0,0,0,0,0,0,0,0,0,0,0,0,0,0,0,0,0,0,0,0,0,0,0,0,0,0,0,0,0,0,0,0,0,0,0,0,0,0,0,0,0,0,0,0,0,0,0,0,0,0,0,0,0,0,0,0,0,0,0,0,0,0,10022.0,THE LAURA PELS INTERNATIONAL FOUNDATION FOR THEATER,SCHULTE ROTH & ZABEL LLP,919 THIRD AVENUE,NEW YORK,NY,10022-3902,0.0,3.0,1.0,200401.0,1.0,4.0,1.0,13.0,0.0,1.0,12,,0.0,0.0,0.0,0,0,,A12,A,PF,S,ZB,A,A,IN,,1,AR,AR,AR,0.40417,C,36061.0,5602.0,5600.0,NY,10022.0,NEW YORK,core2003pf_ver1,PF,S,ZB,A,IN,,A1265,A
16386,222809914,200312,2003,200449.0,29491318023184,A68Z,Y,N,0.0,1.0,2003,3.0,0.0,0.0,3,90,0,0,0,0,0,0,0,0,0,0,0,0,0,0,0,0,0,0,0,0,0,0,0,N,N,N,N,N,N,N,N,N,N,N,N,N,N,N,N,N,N,N,0,0,0,0,0,0,0,0,0,0,0,0,0,0,0,0,0,0,0,0,0,0,0,0,0,0,0,0,0,0,0,0,0,0,0,0,0,0,0,0,0,0,0,0,0,0,0,0,0,0,0,0,0,0,0,0,0,0,0,0,0,0,0,0,0,0,0,10023.0,MUSIC AND MORE INC,GANER,1995 BROADWAY 16TH FLR,NEW YORK,NY,10023-5882,0.0,3.0,1.0,198708.0,1.0,4.0,1.0,13.0,0.0,1.0,12,,90.0,0.0,0.0,0,0,,A68,A,PF,O,AR,A,A,IN,,1,AR,AR,AR,0.007698899999999999,A,36061.0,5602.0,5600.0,NY,10023.0,NEW YORK,core2003pf_ver1,PF,S,AR,A,IN,,A68,A
16675,223047700,200212,2002,200405.0,29491361022003,A20,N,Y,0.0,1.0,2002,3.0,6.0,5.0,3,59,423708,3858,20015,-40464,0,0,50000,17000,407117,330407,76710,314582,16627,0,1148322,161102,0,0,161102,20525,1148322,0,50647,N,Y,N,N,N,N,N,N,N,N,N,N,N,N,N,N,Y,N,N,0,0,23873,0,313407,7246,297582,7246,0,0,0,725215,1148322,0,1127797,166,0,0,0,0,0,0,0,0,166,1028360,50481,0,0,0,0,0,0,0,0,0,0,0,0,0,0,0,0,0,0,0,0,0,0,0,0,0,0,0,0,0,0,0,0,0,0,0,0,0,0,0,0,10012.0,NEW YORK FOUNDATION FOR ARCHITECTURE INC,,536 LAGUARDIA PL,NEW YORK,NY,10012-1401,0.0,3.0,1.0,196703.0,1.0,15.0,1.0,13.0,0.0,10.0,12,,59.0,0.0,0.0,166,0,,A40,A,PC,O,AR,A,A,IN,,1,AR,AR,AR,0.7936489999999999,B,36061.0,5602.0,5600.0,NY,10012.0,NEW YORK,core2003pf_ver1,PC,O,AR,A,IN,,A40,A
17686,223668584,200306,2003,200418.0,29491101028024,A54,N,Y,0.0,1.0,2002,2.0,6.0,4.0,3,0,200000,0,582,0,0,0,0,0,200582,274311,-73729,242055,0,0,1938853,0,0,0,0,0,2039083,0,103444,N,N,N,N,Y,N,N,N,N,N,N,N,N,N,N,N,N,N,N,0,0,582,0,274311,1112,242055,1112,0,681,0,0,2309083,0,1938853,0,0,0,0,0,0,0,0,0,0,2100390,0,103444,96014,82378,0,281836,242055,178883,212133,322730,955801,2039083,2082031,1721991,1665624,7508729,2039083,2082031,1721991,1665624,7508729,0,0,0,0,0,0,0,0,0,0,0,0,0,0,0,0,0,0,0,0,10001.0,CWJ CLASSIC AUTOMOBILE MUSEUM INC,ALFRED C ECKERT III,358 FIFTH AVE 9TH FL,NEW YORK,NY,10001-2209,0.0,3.0,1.0,200009.0,1.0,3.0,1.0,13.0,0.0,1.0,6,,0.0,0.0,0.0,0,0,,A99,A,PF,O,AR,A,A,IN,,1,AR,AR,AR,0.786478,C,36061.0,5602.0,5600.0,NY,10001.0,NEW YORK,core2003pf_ver1,PF,O,AR,A,IN,,A50,A
21825,237296158,200312,2003,200450.0,29491325046014,,N,Y,0.0,1.0,2003,3.0,7.0,7.0,3,602,2000000,2428,20433,-311723,0,0,0,5512245,1711138,6073821,-4362683,5512270,22861,0,7728364,0,0,0,0,0,7728364,0,191826,N,Y,N,N,N,N,N,N,N,N,N,N,N,N,N,N,N,N,N,0,0,22861,0,561576,0,25,0,0,10399,0,0,7728364,0,7728364,229,0,0,0,0,0,0,0,0,229,3894938,191597,0,0,0,0,0,0,0,0,0,0,0,0,0,0,0,0,0,0,0,0,0,0,0,0,0,0,0,0,0,0,0,0,0,0,0,0,0,0,0,0,10178.0,THE LUTECE FOUNDATION INC,KELLY DRYE WARREN CLARK CARR & EL,101 PARK AVENUE,NEW YORK,NY,10178-0002,0.0,3.0,1.0,197212.0,1.0,4.0,1.0,13.0,0.0,1.0,12,,602.0,0.0,0.0,229,0,,A11,A,PF,S,ZA,A,A,IN,,1,AR,AR,AR,0.18151,A,36061.0,5602.0,5600.0,NY,10178.0,NEW YORK,core2003pf_ver1,PF,S,ZA,A,IN,,A11,A
24203,300021188,200312,2003,200437.0,29491234051094,A12,N,Y,0.0,1.0,2003,3.0,4.0,1.0,3,0,0,0,1246,0,0,0,0,5575,1246,5590,-4344,0,1246,0,113631,0,39540,0,39540,0,112736,0,5446,N,N,N,N,N,N,N,N,N,N,N,N,N,N,N,N,N,N,N,0,0,1246,0,15,0,0,0,0,74091,0,0,112736,0,113631,25,0,0,0,0,0,0,0,0,25,110585,5421,0,0,0,0,0,0,0,0,0,0,0,0,0,0,0,0,0,0,0,0,0,0,0,0,0,0,0,0,0,0,0,0,0,0,0,0,0,0,0,0,10011.0,JOEL FAN FOUNDATION,JOEL FAN,200 W 15TH ST,NEW YORK,NY,10011-6539,0.0,3.0,1.0,200305.0,1.0,4.0,1.0,13.0,0.0,1.0,12,,0.0,0.0,0.0,25,0,,A12,A,PF,S,ZB,A,A,IN,,1,AR,AR,AR,0.361976,C,36061.0,5602.0,5600.0,NY,10011.0,NEW YORK,core2003pf_ver1,PF,S,ZB,A,IN,,A12,A
24402,300136129,200406,2004,200432.0,29491206006214,A65,N,Y,0.0,20.0,2003,2.0,1.0,3.0,3,0,39401,19,0,-3127,0,8053,2355,89,44626,37589,7037,17360,299,2248,1,0,0,0,0,0,1,0,1,N,Y,N,Y,Y,N,Y,N,Y,N,N,N,N,N,N,N,N,N,N,280,0,299,8053,37500,0,17271,0,5805,0,0,0,0,0,0,3,0,0,0,0,0,0,0,0,3,22,0,1,0,0,0,1,17360,39257,0,0,56617,1,0,0,0,1,0,0,0,0,0,0,0,0,0,0,0,0,0,0,0,0,0,0,0,0,0,0,0,0,0,10009.0,BOTTLE FACTORY THEATER COMPANY,AMANDA GRUSS,195 E 3RD ST,NEW YORK,NY,10009-7424,0.0,3.0,2.0,200301.0,1.0,3.0,1.0,13.0,0.0,1.0,6,,0.0,0.0,0.0,3,0,,A65,A,PF,O,AR,A,A,IN,,1,AR,AR,AR,0.268912,C,36061.0,5602.0,5600.0,NY,10009.0,NEW YORK,core2003pf_ver1,PF,O,AR,A,IN,,A65,A
25620,311584853,200312,2003,200440.0,29491262014234,A82Z,N,Y,0.0,1.0,2003,2.0,4.0,1.0,3,62,215,196,0,0,0,0,0,0,411,33836,-33425,0,0,0,401723,0,0,0,0,507325,401723,0,0,Y,N,N,N,Y,N,N,N,N,N,N,N,N,N,N,N,N,N,N,0,0,0,0,33836,33836,0,33836,33836,0,0,0,401723,400000,-105602,0,0,0,0,0,0,0,0,0,0,0,0,0,0,0,0,0,0,0,0,0,0,0,0,0,0,0,0,0,0,0,0,0,0,0,0,0,0,0,0,0,0,0,0,0,0,0,0,0,0,0,0,10021.0,PRESERVATION AMERICA,MARILYN MEYERS,907 FIFTH AVE STE 2A,NEW YORK,NY,10021-4156,0.0,3.0,2.0,199802.0,1.0,3.0,2.0,13.0,0.0,1.0,12,,62.0,0.0,0.0,0,0,M,A82,A,PF,O,AR,A,A,IN,,1,AR,AR,AR,0.904808,C,36061.0,5602.0,5600.0,NY,10021.0,NEW YORK,core2003pf_ver1,PF,O,AR,A,IN,,A82,A
25675,311595881,200312,2003,200445.0,29491290070234,A31Z,N,Y,0.0,1.0,2003,3.0,2.0,4.0,3,994,287846,0,0,0,0,38675,35922,3500,326521,316739,9782,3500,0,38675,19782,0,0,0,0,0,19782,0,80,N,N,N,N,N,N,N,N,N,N,N,N,N,N,N,N,N,N,N,0,0,0,38675,313239,0,0,0,0,1020,0,0,19782,0,19782,0,0,0,0,0,0,0,0,0,0,1620,80,0,0,0,0,0,0,0,0,0,0,0,0,0,0,0,0,0,0,0,0,0,0,0,0,0,0,0,0,0,0,0,0,0,0,0,0,0,0,0,0,10170.0,URBANWORLD FOUNDATION INC,FEINSTEIN MGT,420 LEXINGTON AVE STE 215,NEW YORK,NY,10170-0014,0.0,3.0,1.0,199807.0,1.0,4.0,1.0,13.0,0.0,1.0,12,,994.0,62.0,0.0,0,0,,A31,A,PF,O,AR,A,A,IN,,1,AR,AR,AR,0.50656,C,36061.0,5602.0,5600.0,NY,10170.0,NEW YORK,core2003pf_ver1,PF,S,AR,A,IN,,A31,A
25697,311599286,200310,2003,200428.0,29491178091234,A51,N,Y,0.0,1.0,2002,2.0,5.0,3.0,3,998,65183,0,0,0,0,0,0,63738,65183,65701,-518,65701,0,0,825219,0,0,0,0,25,825219,0,0,N,N,N,N,Y,N,N,N,N,N,N,N,N,N,N,N,N,N,N,0,0,0,0,1963,0,1963,0,0,219,0,0,825219,0,825194,0,0,0,0,0,0,0,0,0,0,915,0,1,0,8,0,9,65701,104786,8690,0,179177,1,0,0,0,1,0,0,0,0,0,0,0,0,0,0,0,0,0,0,0,0,0,0,0,0,0,0,0,0,0,10013.0,SASSON SOFFER FOUNDATION INC,SASSON SOFFER,78 GRAND ST,NEW YORK,NY,10013-2255,0.0,3.0,1.0,199903.0,1.0,3.0,1.0,13.0,0.0,1.0,10,,998.0,0.0,0.0,0,0,,A51,A,PF,O,AR,A,A,IN,,1,AR,AR,AR,0.176011,C,36061.0,5602.0,5600.0,NY,10013.0,NEW YORK,core2003pf_ver1,PF,O,AR,A,IN,,A51,A
25900,311631167,200312,2003,200437.0,29491241071164,A25,N,Y,0.0,1.0,2003,3.0,5.0,2.0,3,0,0,385,0,15119,0,0,0,17500,15504,24393,-8889,17500,15504,0,627384,0,0,0,0,0,627384,0,2326,N,N,N,N,N,N,N,N,N,N,N,N,N,N,N,N,N,N,N,0,0,15504,0,6893,0,0,0,0,16827,0,0,627384,0,627384,310,0,0,0,0,358,0,0,0,310,47232,2016,0,0,0,0,0,0,0,0,0,0,0,0,0,0,0,0,0,0,0,0,0,0,0,0,0,0,0,0,0,0,0,0,0,0,0,0,0,0,0,0,10012.0,REUBEN KADISH ART FOUNDATION,,PO BOX 618 PRINCE ST STAT,NEW YORK,NY,10012-0012,0.0,3.0,2.0,199902.0,1.0,4.0,1.0,13.0,0.0,1.0,12,,0.0,0.0,0.0,-48,48,,A25,A,PF,O,AR,A,A,IN,,1,AR,AR,AR,0.6594899999999999,C,36061.0,5602.0,5600.0,NY,10012.0,NEW YORK,core2003pf_ver1,PF,S,AR,A,IN,,A12,A
26010,311666637,200312,2003,200426.0,29491164214154,A51,N,Y,0.0,1.0,2003,3.0,1.0,1.0,3,0,0,0,0,0,0,0,0,0,1,0,1,0,0,0,1,0,0,0,0,0,1,0,0,N,N,N,N,N,N,N,N,N,N,N,N,N,N,N,N,N,N,N,0,0,0,0,0,0,0,0,0,0,0,0,0,0,0,0,0,0,0,0,0,0,0,0,0,0,0,0,0,0,0,0,0,0,0,0,0,0,0,0,0,0,0,0,0,0,0,0,0,0,0,0,0,0,0,0,0,0,0,0,0,0,0,0,0,0,0,10017.0,JADE ART FOUNDATION,MORRIS N& MCVEIGH LLP,767 THRID AVE,NEW YORK,NY,10017-0000,0.0,3.0,1.0,199911.0,1.0,4.0,1.0,13.0,0.0,1.0,12,,0.0,0.0,0.0,0,0,,A51,A,PF,O,AR,A,A,IN,,1,AR,AR,AR,0.0665034,C,36061.0,5602.0,5600.0,NY,10017.0,NEW YORK,core2003pf_ver1,PF,S,AR,A,IN,,A12,A
26134,311693404,200308,2003,200415.0,29491073069184,A20,N,Y,0.0,1.0,2002,2.0,1.0,1.0,3,0,0,0,0,0,0,0,0,0,1,0,1,0,0,0,1,0,0,0,0,0,1,0,0,N,N,N,N,Y,N,N,N,N,N,N,N,N,N,N,N,N,N,N,0,0,0,0,0,0,0,0,0,0,0,0,0,0,0,0,0,0,0,0,0,0,0,0,0,0,0,1,0,0,0,1,0,0,0,0,0,1,0,0,0,1,0,0,0,0,0,0,0,0,0,0,0,0,0,0,0,0,0,0,0,0,0,0,0,0,0,10018.0,PIECE BY PIECE PRODUCTIONS INC,REMINICK AARONS & CO LLP,1430 BROADWAY 17TH FLR,NEW YORK,NY,10018-3355,0.0,3.0,1.0,200006.0,1.0,3.0,1.0,13.0,0.0,1.0,8,,0.0,0.0,0.0,0,0,,A99,A,PF,O,AR,A,A,IN,,1,AR,AR,AR,0.9237219999999999,C,36061.0,5602.0,5600.0,NY,10018.0,NEW YORK,core2003pf_ver1,PF,O,AR,A,IN,,A20,A
26281,311735171,200306,2003,200423.0,29491052055204,A60,N,Y,0.0,1.0,2002,3.0,4.0,3.0,3,0,35000,938,0,0,0,0,0,7000,35938,7505,28433,7505,938,0,160480,0,0,0,0,0,160480,0,7211,N,Y,N,N,N,N,N,N,N,N,N,N,N,N,N,N,N,N,N,0,0,938,0,505,0,505,0,0,0,0,0,160480,0,160480,9,0,0,0,0,0,0,0,0,9,146418,7202,0,0,0,0,0,0,0,0,0,0,0,0,0,0,0,0,0,0,0,0,0,0,0,0,0,0,0,0,0,0,0,0,0,0,0,0,0,0,0,0,10001.0,INSTITUTE FOR ACOUSTICS FOR THE PERFORMING ARTS,HERMAN KRAWITZ,114 W 26TH ST,NEW YORK,NY,10001-6812,0.0,3.0,2.0,200102.0,1.0,15.0,1.0,13.0,200506.0,10.0,6,,0.0,0.0,0.0,9,0,,A99,A,PC,O,AR,A,A,IN,,1,AR,AR,AR,0.250906,C,36061.0,5602.0,5600.0,NY,10001.0,NEW YORK,core2003pf_ver1,PC,O,AR,A,IN,,A60,A
44086,510243710,200312,2003,200434.0,29491220038074,A31,N,Y,0.0,1.0,2003,3.0,1.0,2.0,3,88,11500,0,0,0,0,0,0,0,11500,26749,-15249,26749,0,0,751,0,0,0,0,16000,751,0,14,N,N,N,N,N,N,N,N,N,N,N,N,N,N,N,N,N,N,N,0,0,0,0,26749,0,26749,0,0,751,0,0,751,5000,-15249,0,0,0,0,0,0,0,0,0,0,275,14,0,0,0,0,0,0,0,0,0,0,0,0,0,0,0,0,0,0,0,0,0,0,0,0,0,0,0,0,0,0,0,0,0,0,0,0,0,0,0,0,10014.0,REALIZATIONS PRODUCTIONS INC,PORTZ,338 W 11TH ST APT 5D,NEW YORK,NY,10014-2377,0.0,3.0,2.0,197504.0,1.0,4.0,1.0,13.0,0.0,1.0,12,,88.0,90.0,0.0,0,0,,A31,A,PF,O,AR,A,A,IN,,1,AR,AR,AR,0.5800810000000001,C,36061.0,5602.0,5600.0,NY,10014.0,NEW YORK,core2003pf_ver1,PF,S,AR,A,IN,,A31,A
53391,611446755,200312,2003,200436.0,29491234058174,A31,N,Y,0.0,1.0,2003,2.0,3.0,4.0,3,0,158223,0,0,0,0,0,0,0,158223,136712,21511,28181,0,0,41792,0,0,0,0,20281,41792,0,868,N,N,N,N,Y,N,N,N,N,N,N,N,N,N,N,N,N,N,N,0,0,0,0,136712,0,28181,0,107500,37774,0,0,41792,0,21511,0,0,0,0,0,0,0,0,0,0,20896,0,1,0,0,0,1,28181,0,0,0,28181,1,0,0,0,1,0,0,0,0,0,579,0,0,0,579,0,0,0,0,0,0,0,0,0,0,0,0,0,0,0,10119.0,FONDAZIONE PRADA NEW YORK INC,GEORGE R FUNARO & CO PC,1 PENN PLZ,NEW YORK,NY,10119-0002,0.0,3.0,1.0,200307.0,1.0,3.0,1.0,13.0,0.0,1.0,12,,0.0,0.0,0.0,0,0,,A31,A,PF,O,AR,A,A,IN,,1,AR,AR,AR,0.0768594,C,36061.0,5602.0,5600.0,NY,10119.0,NEW YORK,core2003pf_ver1,PF,O,AR,A,IN,,A31,A
58962,742798673,200306,2003,200427.0,29491171068164,A20Z,N,Y,0.0,1.0,2002,2.0,9.0,5.0,3,60,411670,1153,0,500000,0,63448,0,0,976271,577907,398364,371570,153,0,61800221,0,0,0,0,158702,61800221,0,16744,N,Y,N,N,Y,N,N,N,Y,N,N,N,N,N,N,N,N,N,N,0,0,1153,64601,577907,1000,371570,1000,89508,319164,0,0,61800221,0,61641519,2,0,0,0,0,0,0,0,0,2,339983,0,1,0,0,0,1,391995,129710,27071,0,548776,61775387,61696350,61513756,895879,185881372,61402527,61449634,61496742,890787,185239690,0,0,0,0,0,0,0,0,0,0,0,0,0,0,0,0,0,0,0,0,10017.0,JUDD FOUNDATION,LUTZ AND CARR CPAS LLP,300 E 42ND ST 8TH FLR,NEW YORK,NY,10017-5947,0.0,3.0,2.0,199702.0,1.0,3.0,1.0,13.0,0.0,1.0,6,,60.0,91.0,0.0,2,0,,A20,A,PF,O,AR,A,A,IN,,1,AR,AR,AR,0.514605,C,36061.0,5602.0,5600.0,NY,10017.0,NEW YORK,core2003pf_ver1,PF,O,AR,A,IN,,A20,A
62708,770415802,200312,2003,200437.0,29491241068014,A99Z,N,Y,0.0,1.0,2003,2.0,6.0,6.0,3,124,1744259,41137,0,2500,0,27781,68582,1700000,1815677,2423890,-608213,2268466,43637,68918,3556509,0,0,0,0,1125036,3556509,0,91097,N,Y,N,N,Y,N,N,N,N,N,N,N,N,N,N,N,Y,N,N,0,0,43637,68918,723890,0,723890,0,0,463928,0,80792,3556509,0,2431473,436,0,0,760,0,0,0,0,324,436,1849677,0,68918,81826,97193,96934,344871,2268466,2267295,2376165,1897410,8809336,1,0,0,0,1,0,0,0,0,0,60731,63980,64795,64623,254129,0,0,0,0,0,0,0,0,0,0,0,0,0,0,0,10003.0,NATIONAL ACADEMY OF EDUCATION,NEW YORK UNIVERSITY SCHOOL OF ED,726 BROADWAY 5TH FLOOR,NEW YORK,NY,10003-9502,0.0,3.0,1.0,199606.0,1.0,3.0,1.0,13.0,0.0,1.0,12,,124.0,0.0,0.0,-324,0,,A99,A,PF,O,AR,A,A,IN,,1,AR,AR,AR,0.344075,C,36061.0,5602.0,5600.0,NY,10003.0,NEW YORK,core2003pf_ver1,PF,O,AR,A,IN,,A99,A
72367,954750014,200312,2003,200414.0,29491073083154,A40,N,Y,0.0,1.0,2003,3.0,2.0,1.0,3,0,0,0,0,0,0,0,0,0,1,0,1,0,0,0,15118,0,0,0,0,0,15118,745,745,N,N,N,N,N,N,N,N,N,N,N,N,N,N,N,N,N,N,N,0,0,0,0,0,0,0,0,0,0,0,0,15118,0,15118,0,0,0,0,0,0,0,0,0,0,15118,745,0,0,0,0,0,0,0,0,0,0,0,0,0,0,0,0,0,0,0,0,0,0,0,0,0,0,0,0,0,0,0,0,0,0,0,0,0,0,0,0,10150.0,UNIVERSAL STUDIOS ARCHIVES FOUNDATION,ROSENFELD MEYER & SUSMAN LLP,PO BOX 5023,NEW YORK,NY,10150-5023,0.0,3.0,2.0,199908.0,1.0,4.0,1.0,13.0,0.0,1.0,12,,0.0,0.0,0.0,0,0,,A99,A,PF,O,AR,A,A,IN,,1,AR,AR,AR,0.917467,C,36061.0,5602.0,5600.0,NY,10150.0,NEW YORK,core2003pf_ver1,PF,S,AR,A,IN,,B1170,B
73268,986000319,200308,2003,200434.0,29491213019004,T20,N,Y,0.0,1.0,2002,3.0,8.0,7.0,3,349,0,59,403213,386981,0,989,0,557972,791242,774282,16960,702141,718952,0,17174319,853616,12142348,1902323,14898287,80387,17174319,51226,767746,N,N,N,N,N,N,N,N,N,N,N,N,N,N,N,N,Y,Y,N,0,0,790253,0,216310,71301,144501,71301,0,40083,0,1680110,17174319,0,17093932,14379,0,0,0,0,0,0,0,0,14379,15588756,753367,0,0,0,0,0,0,0,0,0,0,0,0,0,0,0,0,0,0,0,0,0,0,0,0,0,0,0,0,0,0,0,0,0,0,0,0,0,0,0,0,10012.0,AMERICAN CENTER FOUNDATION,FREDERICK B HENRY,120 WOOSTER ST,NEW YORK,NY,10012-5200,0.0,3.0,1.0,196402.0,1.0,4.0,1.0,13.0,0.0,1.0,8,,349.0,59.0,119.0,14379,0,,A25,A,PF,O,AR,A,A,OUT,I,1,AR,AR,AR,0.115869,B,36061.0,5602.0,5600.0,NY,10012.0,NEW YORK,core2003pf_ver1,PF,S,AR,A,OUT,I,A25,A
76262,113371174,200212,2002,,2,A65Z,-,,,,2002,,,,3,995,23687,0,0,0,0,9661,0,0,33348,33348,0,33348,0,0,1,0,0,0,0,1,1,0,0,N,N,N,N,N,N,N,N,N,N,N,N,N,N,N,N,N,N,N,0,0,0,0,33348,0,33348,0,0,0,0,0,0,0,0,0,0,0,0,0,0,0,0,0,0,0,0,0,0,0,0,0,0,0,0,0,0,0,0,0,0,0,0,0,0,0,0,0,0,0,0,0,0,0,0,0,0,0,0,0,0,0,0,0,0,0,0,11377.0,FOURTH UNITY INC,D SMITH,40 11 67TH ST STE 1A,WOODSIDE,NY,11377-8513,0.0,3.0,1.0,199705.0,1.0,4.0,1.0,11.0,0.0,1.0,12,,995.0,88.0,0.0,0,0,,A65,A,PF,O,AR,A,A,IN,,,AR,AR,AR,0.233341,N,36081.0,5602.0,5600.0,,,,core2004pf,PF,S,AR,A,IN,,A65,A
76306,133442712,200212,2002,,2,,-,,,,2002,,,,3,122,169909,68,0,0,0,6946,0,0,176923,193583,-16660,191217,0,0,16965,0,0,0,0,2716,16965,0,1478,N,N,N,N,N,N,N,N,N,N,N,N,N,N,N,N,N,N,N,0,0,68,0,193583,68,191217,68,0,16952,0,0,0,0,14249,0,0,0,0,0,0,0,0,0,0,30000,1478,0,0,0,0,0,0,0,0,0,0,0,0,0,0,0,0,0,0,0,0,0,0,0,0,0,0,0,0,0,0,0,0,0,0,0,0,0,0,0,0,10019.0,OUTSIDE IN JULY INC,J L ROSENHOUSE CPA INC,250 W 57TH ST STE 2203,NEW YORK,NY,10019-3741,0.0,3.0,1.0,198810.0,1.0,4.0,1.0,13.0,0.0,1.0,12,GARRISON,122.0,0.0,0.0,0,0,,A31,A,PF,O,AR,A,A,IN,,,AR,AR,AR,0.705558,N,36061.0,5602.0,5600.0,,,,core2004pf,PF,S,AR,A,IN,,A31,A
76313,133553683,200212,2002,,2,A99Z,-,,,,2002,,,,3,90,0,0,0,0,0,0,0,0,1,0,1,0,0,0,1,0,0,0,0,1,1,0,0,N,N,N,Y,N,N,N,N,N,N,N,N,N,N,N,N,N,N,N,0,0,0,0,0,0,0,0,0,0,0,0,0,0,0,0,0,0,0,0,0,0,0,0,0,0,0,0,0,0,0,0,0,0,0,0,0,0,0,0,0,0,0,0,0,0,0,0,0,0,0,0,0,0,0,0,0,0,0,0,0,0,0,0,0,0,0,10019.0,OPERA DE PARIS FOUNDATION INC,% WILLKIE FARR & GALLAGHER,787 SEVENTH AVE,NEW YORK,NY,10019-6018,0.0,3.0,1.0,199004.0,1.0,4.0,1.0,13.0,0.0,1.0,12,,90.0,0.0,0.0,0,0,,A99,A,PF,O,AR,A,A,IN,,,AR,AR,AR,0.767387,N,36061.0,5602.0,5600.0,,,,core2004pf,PF,S,AR,A,IN,,A6A,A
76318,133646023,200212,2002,,2,O50,-,,,,2002,,,,3,200,738409,1196,0,0,0,0,0,571667,739605,631881,107724,631881,0,0,117259,0,0,0,0,0,117259,0,8897,N,N,N,N,N,N,N,N,N,N,N,N,N,N,N,N,N,N,N,0,0,1196,1196,60214,1196,60214,1196,1196,117259,0,0,0,0,117259,0,0,0,0,0,0,0,0,0,0,180656,8897,0,0,0,0,0,0,0,0,0,0,0,0,0,0,0,0,0,0,0,0,0,0,0,0,0,0,0,0,0,0,0,0,0,0,0,0,0,0,0,0,10001.0,FRIENDS OF OHEL MOSHE INSTITUTE INC,ELI MENDLOWITZ,120 W 31ST ST,NEW YORK,NY,10001-3407,0.0,3.0,1.0,199411.0,1.0,15.0,1.0,13.0,0.0,10.0,12,,200.0,0.0,0.0,0,0,,A19,A,PC,O,AR,A,A,IN,,,AR,AR,AR,0.254215,N,36061.0,5602.0,5600.0,,,,core2004pf,PF,O,AR,A,IN,,A19,A
76329,133927380,200212,2002,,2,A83I,-,,,,2002,,,,3,994,0,0,0,0,0,0,0,0,1,0,1,0,0,0,1,0,0,0,0,1,1,0,0,N,N,N,N,N,N,N,N,N,N,N,N,N,N,N,N,N,N,N,0,0,0,0,0,0,0,0,0,0,0,0,0,0,0,0,0,0,0,0,0,0,0,0,0,0,0,0,0,0,0,0,0,0,0,0,0,0,0,0,0,0,0,0,0,0,0,0,0,0,0,0,0,0,0,0,0,0,0,0,0,0,0,0,0,0,0,10471.0,JEWISH REGISTRY INC,% MARVIN WEITZ,621 WEST 254TH STREET,RIVERDALE,NY,10471-1225,0.0,3.0,1.0,199705.0,1.0,15.0,1.0,13.0,200012.0,10.0,12,,994.0,94.0,0.0,0,0,,A11,A,PC,S,ZA,A,A,IN,,,AR,AR,AR,0.529734,N,36005.0,5602.0,5600.0,,,,core2004pf,PF,S,ZA,A,IN,,X30,X
76334,134010816,200212,2002,,2,A90,-,,,,2002,,,,3,0,0,0,0,0,0,0,0,0,1,0,1,0,0,0,1,0,0,0,0,1,1,0,0,N,N,N,N,N,N,N,N,N,N,N,N,N,N,N,N,N,N,N,0,0,0,0,0,0,0,0,0,0,0,0,0,0,0,0,0,0,0,0,0,0,0,0,0,0,0,0,0,0,0,0,0,0,0,0,0,0,0,0,0,0,0,0,0,0,0,0,0,0,0,0,0,0,0,0,0,0,0,0,0,0,0,0,0,0,0,10003.0,FRANZ SCHUBERT SOCIETY INC,WILLIAM LIVINGSTONE,9 E 9TH ST APT 5,NEW YORK,NY,10003-5947,0.0,3.0,1.0,199907.0,1.0,4.0,1.0,13.0,0.0,1.0,12,,0.0,0.0,0.0,0,0,,A90,A,PF,O,AR,A,A,IN,,,AR,AR,AR,0.651126,N,36061.0,5602.0,5600.0,,,,core2004pf,PF,S,AR,A,IN,,A90,A
77736,16186903,200212,2002,,2,T23,-,,,,2002,,,,3,0,20000,0,0,0,0,0,0,0,20000,0,20000,0,0,0,20000,0,0,0,0,0,20000,0,0,N,N,N,N,Y,N,N,N,N,N,N,N,N,N,N,N,N,N,N,0,0,0,0,0,0,0,0,0,20000,0,0,20000,0,20000,0,0,0,0,0,0,0,0,0,0,0,0,0,0,0,0,0,0,0,0,0,0,20000,0,0,0,20000,0,0,0,0,0,0,0,0,0,0,0,0,0,0,0,0,0,0,0,0,0,0,0,0,0,10014.0,MERCE CUNNINGHAM TRUST,CUNNINGHAM MERCE TTEE,55 BETHUNE ST,NEW YORK,NY,10014-2010,0.0,3.0,1.0,200212.0,1.0,3.0,2.0,13.0,0.0,1.0,12,CUNNINGHAM MERCE TTEE,0.0,0.0,0.0,0,0,M,A6E,A,PF,O,AR,A,A,IN,,1,AR,AR,AR,0.7566609999999999,C,36061.0,5602.0,5600.0,NY,10014.0,NEW YORK,core2002pf,PF,O,AR,A,IN,,T23,T
78146,133797072,200212,2002,,2,A70Z,-,,,,2002,,,,3,124,903,0,0,0,0,0,0,0,903,1161,-258,0,0,0,21145,0,20954,0,20954,0,201,0,16,N,N,N,N,N,N,N,N,N,N,N,N,N,N,N,N,N,N,N,0,0,0,0,1161,0,0,0,1161,0,0,0,201,0,21145,0,0,0,0,0,0,0,0,0,0,329,16,0,0,0,0,0,0,0,0,0,0,0,0,0,0,0,0,0,0,0,0,0,0,0,0,0,0,0,0,0,0,0,0,0,0,0,0,0,0,0,0,10003.0,KAUFMANN-MARX FOUNDATION FOR TRANSATLANTIC CHRISTIAN-JEWISH DIA,GEORGE KAUFMANN,77 E 12TH ST 20E,NEW YORK,NY,10003-5009,0.0,3.0,1.0,199503.0,1.0,4.0,1.0,13.0,0.0,1.0,12,,124.0,123.0,0.0,0,0,,A70,A,PF,O,AR,A,A,IN,,1,AR,AR,AR,0.479415,N,36061,5602.0,5600.0,NY,10003.0,NEW YORK,core2002pf,PF,S,AR,A,IN,,X20,X
78147,133798585,200212,2002,,2,A99Z,-,,,,2002,,,,3,602,0,0,15118,21291,0,0,0,34000,36409,34524,1885,34000,33851,14594,617909,11250,569211,20755,601216,153,617909,0,35227,N,N,N,N,N,N,N,N,N,N,N,N,N,N,N,N,N,N,N,0,0,34375,15118,524,524,0,524,524,15142,0,0,617909,0,617756,339,0,0,840,0,0,0,0,501,339,715265,34888,0,0,0,0,0,0,0,0,0,0,0,0,0,0,0,0,0,0,0,0,0,0,0,0,0,0,0,0,0,0,0,0,0,0,0,0,0,0,0,0,10128.0,POMEGRANATE FOUNDATION TR,KATHLEEN PERATIS,1155 PARK AVE STE 11N W,NEW YORK,NY,10128-1209,0.0,3.0,1.0,199505.0,1.0,4.0,2.0,13.0,0.0,1.0,12,,602.0,0.0,0.0,-501,0,,A99,A,PF,O,AR,A,A,IN,,1,AR,AR,AR,0.645243,N,36061,5602.0,5600.0,NY,10128.0,NEW YORK,core2002pf,PF,S,AR,A,IN,,T22,T
78173,133968595,200212,2002,,2,A31,-,,,,2002,,,,3,0,93750,0,0,0,0,0,0,0,93750,508,93242,0,0,0,637403,0,0,0,0,0,637403,0,1762,N,N,N,N,Y,N,N,N,N,N,N,N,N,N,N,N,N,N,N,0,0,0,0,508,0,0,0,0,52029,0,0,637403,0,637403,0,0,0,0,0,0,0,0,0,0,35779,0,1,1,736,1616,2354,58091,84400,90515,126430,359436,1,0,0,0,1,0,0,0,0,0,1175,418,1217,2949,5759,0,0,0,0,0,0,0,0,0,0,0,0,0,0,0,10022.0,FOUNDATION FOR FILM PRESERVATION INC,STARR & COMPANY LLC,350 PARK AVE,NEW YORK,NY,10022-6022,0.0,3.0,2.0,199906.0,1.0,3.0,1.0,13.0,0.0,1.0,12,SCORSESE MARTIN TTEE,0.0,0.0,0.0,0,0,,A31,A,PF,O,AR,A,A,IN,,1,AR,AR,AR,0.681928,N,36061,5602.0,5600.0,NY,10022.0,NEW YORK,core2002pf,PF,O,AR,A,IN,,A31,A
78176,133977614,200209,2002,,2,A20,-,,,,2001,,,,3,0,2100,122,0,0,0,0,0,30581,2222,32932,-30710,30581,122,0,0,0,0,0,0,0,0,0,1512,N,N,N,Y,N,N,N,N,N,N,N,N,N,N,N,N,N,N,N,0,0,122,0,2351,0,0,0,0,0,0,0,0,0,0,2,0,0,0,0,0,0,0,0,2,30699,0,1,0,0,0,1,0,0,0,0,0,1,0,0,0,1,0,0,0,0,0,0,0,0,0,0,0,0,0,0,0,0,0,0,0,0,0,0,0,0,0,10013.0,JOHNNIE L COCHRAN JR ART FUND INC,% JOHNNIE L COCHRAN JR,99 HUDSON ST 8TH FL,NEW YORK,NY,10013-2815,0.0,3.0,1.0,199906.0,1.0,3.0,1.0,11.0,0.0,1.0,9,,0.0,0.0,0.0,2,0,M,A20,A,PF,O,AR,A,A,IN,,1,AR,AR,AR,0.6593319999999999,N,36061,5602.0,5600.0,NY,10013.0,NEW YORK,core2002pf,PF,O,AR,A,IN,,A12,A
78184,134008719,200207,2002,,2,A51Z,-,,,,2001,,,,3,91,1681000,0,0,0,0,0,0,250000,1681000,1438089,242911,1357623,0,0,1,0,0,0,0,1,1,0,4100,N,N,N,Y,Y,N,N,N,N,N,N,N,N,N,N,N,N,N,N,0,0,0,0,1188089,0,1107623,0,0,0,0,0,0,0,0,0,0,0,0,0,0,0,0,0,0,152706,0,1,9650,0,0,9651,0,9650,0,1425846,1435496,1,0,0,0,1,0,0,0,0,0,2733,7249,2814,2457,15253,0,0,0,0,0,0,0,0,0,0,0,0,0,0,0,10019.0,DORIS DUKE FOUNDATION FOR ISLAMIC ART,% ALAN ALTSCHULER,650 FIFTH AVE 19TH FLOOR,NEW YORK,NY,10019-6108,0.0,3.0,1.0,199809.0,1.0,3.0,1.0,11.0,0.0,1.0,7,,91.0,0.0,0.0,0,0,,A51,A,PF,O,AR,A,A,IN,,1,AR,AR,AR,0.967377,N,36061,5602.0,5600.0,NY,10019.0,NEW YORK,core2002pf,PF,O,AR,A,IN,,X40,X
78192,134070709,200112,2001,,2,A40,-,,,,2001,,,,3,0,20000,0,0,0,0,0,0,0,20000,23904,-3904,0,0,0,7990,0,0,0,0,0,7990,0,33,N,N,N,N,Y,N,N,N,N,N,N,N,N,N,N,N,N,N,N,0,0,0,0,23904,0,0,0,23904,7990,0,0,7990,0,7990,0,0,0,0,0,0,0,0,0,0,665,0,1,11894,0,0,11895,23904,89706,0,0,113610,7990,11894,0,0,19884,7990,11894,0,0,19884,0,0,0,0,0,0,0,0,0,0,0,0,0,0,0,0,0,0,0,0,10007.0,ART IN NATURE NEW YORK 2000 INC,KATE CARMEL,83 MURRAY ST,NEW YORK,NY,10007-2173,0.0,3.0,1.0,200011.0,1.0,3.0,1.0,13.0,0.0,1.0,12,,0.0,0.0,0.0,0,0,,A99,A,PF,O,AR,A,A,IN,,1,AR,AR,AR,0.29485900000000004,N,36061,5602.0,5600.0,NY,10007.0,NEW YORK,core2002pf,PF,O,AR,A,IN,,A40,A
78195,134074036,200212,2002,,2,A6C,-,,,,2002,,,,3,0,97288,20,0,0,0,0,0,0,97308,100643,-3335,100643,20,20,12793,0,0,0,0,0,12793,0,832,N,Y,N,N,Y,N,N,N,N,N,N,N,N,N,N,N,N,N,N,0,0,20,20,100643,0,100643,0,0,12793,0,0,12793,0,12793,0,0,0,0,0,0,0,0,0,0,16883,0,20,54,64,18,156,100643,77059,11771,10178,199651,12793,16128,13133,14840,56894,0,0,0,0,0,555,485,335,451,1826,0,0,0,0,0,0,0,0,0,0,0,0,0,0,0,10007.0,A CHILDS VOICE INC,ALBERT KALTER,225 BROADWAY STE 1806,NEW YORK,NY,10007-3001,0.0,3.0,2.0,199910.0,1.0,3.0,1.0,13.0,0.0,1.0,12,,0.0,0.0,0.0,0,0,,A6C,A,PF,O,AR,A,A,IN,,1,AR,AR,AR,0.5923729999999999,N,36061,5602.0,5600.0,NY,10007.0,NEW YORK,core2002pf,PF,O,AR,A,IN,,A6C,A
78214,134145549,200112,2001,,2,A12,-,,,,2001,,,,3,0,138770,74,0,0,0,0,0,77466,138844,79750,59094,77466,74,0,59094,0,48750,0,48750,0,59094,0,611,N,N,N,N,N,N,N,N,N,N,N,N,N,N,N,N,N,N,N,0,0,74,0,2284,0,0,0,0,10344,0,0,59094,0,59094,0,0,0,0,0,0,0,0,0,0,12411,611,0,0,0,0,0,0,0,0,0,0,0,0,0,0,0,0,0,0,0,0,0,0,0,0,0,0,0,0,0,0,0,0,0,0,0,0,0,0,0,0,10021.0,JOHN ROSSELLI FOUNDATION,KUPPERSMITH MOTTEL & CO LLP,523 E 73RD ST,NEW YORK,NY,10021-4003,0.0,3.0,1.0,200112.0,1.0,15.0,1.0,13.0,200412.0,10.0,12,,0.0,0.0,0.0,0,0,,A99,A,PC,O,AR,A,A,IN,,1,AR,AR,AR,0.858643,N,36061,5602.0,5600.0,NY,10021.0,NEW YORK,core2002pf,PF,O,AR,A,IN,,A12,A
79374,510393305,200112,2001,,2,A23,-,,,,2001,,,,3,0,61664,0,0,0,0,0,0,61664,61664,61664,0,61664,0,0,1,0,0,0,0,1,1,0,0,N,N,N,N,N,N,N,N,N,N,N,N,N,N,N,N,N,N,N,0,0,0,0,0,0,0,0,0,0,0,0,0,0,0,0,0,0,0,0,0,0,0,0,0,0,0,0,0,0,0,0,0,0,0,0,0,0,0,0,0,0,0,0,0,0,0,0,0,0,0,0,0,0,0,0,0,0,0,0,0,0,0,0,0,0,0,10118.0,INSTITUTE FOR THE ADVANCEMENT OF CONTEMPORARY CHINESE ARCH LTD,YI TUAN & BRUNSTEIN,350 FIFTH AVE STE 5411,NEW YORK,NY,10118-5411,0.0,3.0,1.0,200001.0,1.0,15.0,1.0,13.0,200312.0,20.0,12,,0.0,0.0,0.0,0,0,,A23,A,PC,O,AR,A,A,IN,,1,AR,AR,AR,0.283432,N,36061,5602.0,5600.0,NY,10118.0,NEW YORK,core2002pf,PF,O,AR,A,IN,,A40,A
80686,113276202,200112,2001,,29491229007082,A25,0,,,,2001,,,,3,994,36537,0,0,0,0,0,4628,250,36537,34881,1656,250,0,0,2034,0,0,0,0,0,2034,0,158,N,N,N,N,N,N,N,N,N,N,N,N,N,N,N,N,N,N,N,0,0,0,0,34631,0,0,0,0,2034,0,0,2034,0,2034,0,0,0,0,0,0,0,0,0,0,3217,158,0,0,0,0,0,0,0,0,0,0,0,0,0,0,0,0,0,0,0,0,0,0,0,0,0,0,0,0,0,0,0,0,0,0,0,0,0,0,0,0,10022.0,ART SPIRIT INC,% ROSENZWEIG & MAFFIA,845 3RD AVE,NEW YORK,NY,10022-6601,0.0,3.0,1.0,199602.0,1.0,15.0,1.0,13.0,199912.0,20.0,12,,994.0,91.0,0.0,0,0,,A99,A,PC,O,AR,A,A,IN,,1,AR,AR,AR,0.611668,N,36061,5602.0,5600.0,NY,10022.0,NEW YORK,core2002pf,PF,O,AR,A,IN,,A25,A
80723,133626986,200206,2002,,29491222014072,,0,,,,2001,,,,3,998,0,0,0,0,0,0,0,41675,0,43830,-43830,41675,0,0,1,0,0,0,0,0,1,0,0,N,N,N,N,N,N,N,N,N,N,N,N,N,N,N,N,N,N,N,0,0,0,0,2155,0,0,0,0,0,0,0,0,0,0,0,0,0,0,0,0,0,0,0,0,0,0,0,0,0,0,0,0,0,0,0,0,0,0,0,0,0,0,0,0,0,0,0,0,0,0,0,0,0,0,0,0,0,0,0,0,0,0,0,0,0,0,10020.0,FRIENDS OF LOUISIANA MUSEUM OF MODERN ART IN DENMARK INC,% ROSE & BOXER,620 FIFTH AVE STE 314,NEW YORK,NY,10020-2402,0.0,3.0,1.0,199201.0,1.0,4.0,1.0,13.0,0.0,1.0,6,,998.0,0.0,0.0,0,0,,A11,A,PF,S,ZA,A,A,IN,,1,AR,AR,AR,0.47768999999999995,N,36061,5602.0,5600.0,NY,10020.0,NEW YORK,core2002pf,PF,S,ZA,A,IN,,A1151,A
