,EIN,TAXPER,FisYr,CYCLE,DLN,NTEE,ARC,LRC,RESERVED,EOSTATUS,STYEAR,RECCODE,ASS_CODE,INC_CODE,SUBSECCD,ACTIV,P1TCONT,P1INTREV,P1DIVID,P1NGASTS,P1GINVPF,P1OTHINC,P1OFCOMP,P1CONTPD,P1TOTREV,P1TOTEXP,P1EXCREV,P1TEXMEX,P1NETINV,P1NADINC,P2TOTAST,P2GVTINV,P2CRPSTK,P2CRPBND,P2TINVSC,P2TLIABL,P2TASFMV,P13UNDST,P10MIR,P6EXMPF,P6DOMORG,P7POLIT,P7LIQUID,P7POFCLM,P7DISSAL,P7DISBOR,P7DISSER,P7DISPAY,P7DISTRA,P7PAYGVT,P7UNDINC,P7BUSINT,P7JEOINV,P7PROPAG,P7ELECT,P7INDGRT,P7ORGGRT,P7OTHPUR,P1GRENTS,P1GOODS,P1INVRV,P1NADJRV,P1ADMEXP,P1INVEXP,P1CHAEXP,P1TINVEX,P1TADJEX,P2CASHBV,P2MORTG,P2EYOTIN,P2MTGNTS,P3EYTFND,P6TEXCTX,P6TX511,P6TXSUBA,P6ESTTX,P6TXWTH,P6TXINV,P6TXWERR,P6TXPNLT,P6TXCRDT,P6TX4940,P10TASST,P11DISTR,P14NADJA,P14NADJB,P14NADJC,P14NADJD,P14TNADJ,P14QDISA,P14QDISB,P14QDISC,P14QDISD,P14TQDIS,P14ASVLA,P14ASVLB,P14ASVLC,P14ASVLD,P14TASVL,P14A4942,P14B4942,P14C4942,P14D4942,P14T4942,P14ENDWA,P14ENDWB,P14ENDWC,P14ENDWD,P14TENDW,P14TSUPA,P14TSUPB,P14TSUPC,P14TSUPD,P14TTSUP,P14PSUPA,P14PSUPB,P14PSUPC,P14PSUPD,P14TPSUP,P14GINVA,P14GINVB,P14GINVC,P14GINVD,P14TGINV,TFLD,P6TXRFD,ZIP5,NAME,CONTACT,ADDRESS,CITY,STATE,ZIP,GEN,AFCD,CLASSCD,RULEDATE,DEDUCTCD,FNDNCD,ACTIV1,ACTIV2,ACTIV3,ORGCD,DISTRICT,ARED,FRCD,ACCPER,SEC_NAME,verify,NTEECC,NTEE1,LEVEL1,LEVEL2,LEVEL3,LEVEL4,MAJGRPB,OUTNCCS,OUTREAS,NTEESRC,ntmaj10,ntmaj12,ntmaj5,RandNum,nteeConf,FIPS,MSA_NECH,PMSA,FipsOldA,stateOld1,zip5Old1,cityOld1,SOURCE,LEVEL1old20090616,LEVEL2old20090616,LEVEL3old20090616,LEVEL4old20090616,OUTNCCSold20090616,OUTREASold20090616,nteeFinal,nteeFinal1
75732,20659543,200412,2004,200624.0,29491042039076,T22,N,Y,0.0,1.0,2004,2.0,4.0,4.0,3,0,154500,189,0,0,0,275608,0,185140,430297,381655,48642,185140,189,275797,154181,0,0,0,0,34000,154181,0,3730,N,Y,N,N,Y,N,N,N,N,N,N,N,N,N,N,N,N,N,N,0,0,189,275797,196515,0,0,0,0,154181,0,0,0,120181,2,0,0,0,0,2,0,0,0,2,75740,0,3730,0,0,0,3730,370279,0,0,0,370279,1,1,0,0,2,0,0,0,0,0,0,0,0,0,0,0,0,0,0,0,0,0,0,0,0,0,0,0,0,0,0,0,10017.0,U S - MEXICO FOUNDATION FOR CULTURE INC,GRANT HERMANN SCHWARTZ & KLINGER,675 THIRD AVE STE 1200,NEW YORK,NY,10017-5704,0.0,3.0,1.0,200308.0,1.0,3.0,0.0,0.0,0.0,1.0,13.0,0.0,1.0,12,,,T23,A,PF,S,ZC,A,A,IN,,,AR,AR,AR,0.773667,B,36061.0,5602.0,5600.0,,,,,core2005pf,PC,S,ZB,A,IN,,T23,T
75746,30453739,200503,2005,200635.0,29491217084086,B05,N,Y,0.0,1.0,2004,2.0,1.0,1.0,3,0,115,0,0,0,0,0,0,0,115,115,0,0,0,0,1,0,0,0,0,0,1,0,0,N,N,N,N,Y,N,N,N,N,N,N,N,N,N,N,N,N,N,N,0,0,0,0,115,0,2,0,0,0,0,0,0,0,0,0,0,0,0,0,0,0,0,0,0,0,1,0,0,0,1,117,117,111,90,435,117,117,111,90,435,117,117,111,90,435,0,0,0,0,0,0,0,0,0,0,0,0,0,0,0,0,0,0,0,0,0,0,11352.0,GLOBE CONSULTATIVE REVIEW FOUNDATION M S ED DIRECTOR,FRANK HOPE,PO BOX 520694,FLUSHING,NY,11352-0694,0.0,3.0,1.0,200510.0,1.0,3.0,0.0,0.0,0.0,1.0,11.0,0.0,1.0,3,,,A33,A,PF,O,AR,A,A,IN,,,AR,AR,AR,0.702092,A,36081.0,5602.0,5600.0,,,,,core2005pf,PC,O,AR,A,IN,,A33,A
75933,133031485,200412,2004,200605.0,29491007087176,,N,Y,0.0,1.0,2004,3.0,7.0,7.0,3,119,1949132,37981,3115,-7598,0,2674419,300000,90050,4657049,2037297,2619752,1352008,41096,2713755,6673958,1650000,0,0,1650000,27714,6673958,0,142558,N,N,N,N,N,N,N,N,N,N,N,N,N,N,N,N,N,N,N,0,0,41096,2715515,1947247,0,1261958,0,1760,512430,0,0,0,6646244,822,0,0,0,0,0,0,5,0,822,2894570,0,0,0,0,0,0,0,0,0,0,0,0,0,0,0,0,0,0,0,0,0,0,0,0,0,0,0,0,0,0,0,0,0,0,0,0,0,0,0,0,0,827,0,10019.0,BARYSHNIKOV DANCE FOUNDATION INC,PNFW,156 W 56TH ST 4TH FL,NEW YORK,NY,10019-3877,0.0,3.0,1.0,197911.0,1.0,4.0,119.0,0.0,0.0,1.0,13.0,0.0,1.0,12,,,A62,A,PF,O,AR,A,A,IN,,,AR,AR,AR,0.807615,A,36061.0,5602.0,5600.0,,,,,core2005pf,PC,O,AR,A,IN,,A62,A
75941,133171936,200505,2005,200607.0,29491014032006,,N,Y,0.0,1.0,2004,2.0,5.0,4.0,3,90,200000,1161,49525,13328,0,282,0,68226,264296,94644,169652,94644,64014,58212,931417,0,446940,0,446940,90000,1434501,0,63875,N,N,N,N,Y,Y,N,N,N,N,N,N,N,N,N,N,N,N,N,0,0,64014,58212,26418,0,26418,0,0,1013,0,0,0,841417,1280,0,0,607,0,0,0,0,0,1280,1296963,0,58212,40703,36863,19818,155596,94644,242649,187646,232489,757428,1434501,1159424,907017,1083143,4584085,1434501,1159424,907017,1083143,4584085,42583,33924,32671,34229,143407,0,0,0,0,0,0,0,0,0,0,0,0,0,0,0,673,0,10021.0,HERRICK THEATRE FOUNDATION INC,,605 PARK AVE APT 7A,NEW YORK,NY,10021-7055,0.0,3.0,2.0,198310.0,1.0,3.0,90.0,994.0,0.0,1.0,13.0,198405.0,1.0,5,,,A65,A,PF,O,AR,A,A,IN,,,AR,AR,AR,0.98031,B,36061.0,5602.0,5600.0,,,,,core2005pf,PC,O,AR,A,IN,,A65,A
75944,133201819,200506,2005,200621.0,29491070051236,,N,Y,0.0,1.0,2004,3.0,6.0,5.0,3,119,23300,366,20354,-30690,0,16963,0,24200,30293,44914,-14621,44692,20720,0,1627029,585608,861442,861442,2308492,891,1627029,0,83371,N,N,N,N,N,N,N,N,N,N,N,N,N,N,N,N,N,N,N,0,0,20720,0,20714,0,20492,0,0,520688,0,244899,0,1626138,414,0,0,0,0,0,0,0,0,414,1670810,82957,0,0,0,0,0,0,0,0,0,0,0,0,0,0,0,0,0,0,0,0,0,0,0,0,0,0,0,0,0,0,0,0,0,0,0,0,0,0,0,0,414,0,10027.0,PERSIAN HERITAGE FOUNDATION,,450 RIVERSIDE DRIVE,NEW YORK,NY,10027-6821,0.0,3.0,1.0,198406.0,1.0,4.0,119.0,602.0,0.0,1.0,13.0,0.0,1.0,6,,M,A23,A,PF,O,AR,A,A,IN,,,AR,AR,AR,0.9345979999999999,A,36061.0,5602.0,5600.0,,,,,core2005pf,PC,O,AR,A,IN,,A23,A
75972,133573737,200412,2004,200609.0,29491035031116,A23Z,N,Y,0.0,1.0,2004,3.0,4.0,5.0,3,92,548613,1128,0,0,0,0,46800,0,549741,391337,158404,387381,389,0,198536,0,0,0,0,2663,198536,0,8308,N,N,N,N,N,N,N,N,N,N,N,N,N,N,N,N,N,N,N,0,0,1128,0,391337,739,387381,739,0,0,0,0,0,195873,8,0,0,0,0,0,0,0,0,8,168693,8300,0,0,0,0,0,0,0,0,0,0,0,0,0,0,0,0,0,0,0,0,0,0,0,0,0,0,0,0,0,0,0,0,0,0,0,0,0,0,0,0,8,0,10003.0,FINNISH CULTURAL INSTITUTE IN NEW YORK,CHRISTY & VIENER,799 BROADWAY - ROOM 527,NEW YORK,NY,10003-6815,0.0,3.0,1.0,199011.0,1.0,4.0,92.0,0.0,0.0,1.0,13.0,0.0,1.0,12,,,A23,A,PF,O,AR,A,A,IN,,,AR,AR,AR,0.113765,A,36061.0,5602.0,5600.0,,,,,core2005pf,PC,O,AR,A,IN,,A23,A
76023,134033257,200412,2004,200618.0,29491105007046,A68,N,Y,0.0,1.0,2004,3.0,0.0,0.0,3,0,0,0,0,0,0,0,0,0,0,0,0,0,0,0,0,0,0,0,0,0,0,0,0,N,N,N,N,N,N,N,N,N,N,N,N,N,N,N,N,N,N,N,0,0,0,0,0,0,0,0,0,0,0,0,0,0,0,0,0,0,0,0,0,0,0,0,0,0,0,0,0,0,0,0,0,0,0,0,0,0,0,0,0,0,0,0,0,0,0,0,0,0,0,0,0,0,0,0,0,0,0,0,0,0,0,0,0,0,0,0,10027.0,MOEBIUS CORPORATION,DEBORAH J BRADLEY,25 CLAREMONT AVE STE 4B,NEW YORK,NY,10027-6813,0.0,3.0,2.0,199901.0,1.0,4.0,0.0,0.0,0.0,1.0,13.0,0.0,1.0,12,,,A68,A,PF,O,AR,A,A,IN,,,AR,AR,AR,0.8892620000000001,B,36061.0,5602.0,5600.0,,,,,core2005pf,PC,O,AR,A,IN,,A68,A
76042,134103203,200506,2005,200611.0,29491056099226,A51,N,Y,0.0,1.0,2004,3.0,3.0,3.0,3,0,55000,853,0,0,0,0,0,211426,55853,214081,-158228,214081,853,853,97842,0,0,0,0,0,97842,0,5927,N,N,N,N,N,N,N,N,N,N,N,N,N,N,N,N,N,N,N,0,0,853,853,2655,0,2655,0,0,0,0,0,0,97842,17,0,0,0,0,17,0,0,0,17,120354,0,0,0,0,0,0,0,0,0,0,0,0,0,0,0,0,0,0,0,0,0,0,0,0,0,0,0,0,0,0,0,0,0,0,0,0,0,0,0,0,0,0,0,10017.0,AMERICAN FRIENDS OF THE PUSHKIN MUSEUM INC,IMOWITZ KOENIG & CO LLP,622 THIRD AVE 33RD FLR,NEW YORK,NY,10017-6707,0.0,3.0,1.0,200003.0,1.0,4.0,0.0,0.0,0.0,1.0,13.0,0.0,1.0,6,,,A11,A,PF,S,ZA,A,A,IN,,,AR,AR,AR,0.538654,A,36061.0,5602.0,5600.0,,,,,core2005pf,PC,S,ZA,A,IN,,A1150,A
76242,201547673,200412,2004,200617.0,29491344195075,T23,N,Y,0.0,1.0,2004,2.0,3.0,4.0,3,0,251000,47,0,0,0,0,0,100500,251047,183335,67712,183335,0,0,67712,0,0,0,0,0,67712,0,0,N,N,N,N,Y,N,N,N,N,N,N,N,N,N,N,N,N,N,N,0,0,47,47,82835,82835,82835,82835,82835,67712,0,0,0,67712,0,0,0,0,0,0,0,0,0,0,0,0,1,0,0,0,1,0,0,0,0,0,1,0,0,0,1,0,0,0,0,0,0,0,0,0,0,0,0,0,0,0,0,0,0,0,0,0,0,0,0,0,0,0,10017.0,GAETANO FILANGIERI PHILOSOPHICAL SOCIETY OF AMERICA INC,LAWRENCE AURIANA,140 E 45TH ST,NEW YORK,NY,10017-3144,0.0,3.0,2.0,200512.0,1.0,3.0,0.0,0.0,0.0,1.0,13.0,0.0,1.0,12,,,A70,A,PF,O,AR,A,A,IN,,,AR,AR,AR,0.176756,A,36061.0,5602.0,5600.0,,,,,core2005pf,PC,O,AR,A,IN,,A70,A
76266,201781329,200509,2005,200633.0,29491112036216,A23,N,Y,0.0,1.0,2004,3.0,1.0,3.0,3,0,31855,0,0,0,0,0,0,0,31855,26100,5755,0,0,0,5755,0,0,0,0,0,5755,0,0,N,N,N,N,N,N,N,N,N,N,N,N,N,N,N,N,N,N,N,0,0,0,0,26100,0,0,0,0,5755,0,0,0,5755,0,0,0,0,0,0,0,0,0,0,0,0,0,0,0,0,0,0,0,0,0,0,0,0,0,0,0,0,0,0,0,0,0,0,0,0,0,0,0,0,0,0,0,0,0,0,0,0,0,0,0,0,0,0,10002.0,US FUZHOU LANG QU HAI YU UNITED ASSOCIATION INC,LIN GUAN ZHOU,43 MARKET ST,NEW YORK,NY,10002-7203,0.0,3.0,1.0,200603.0,1.0,15.0,0.0,0.0,0.0,1.0,13.0,200812.0,10.0,9,,,A23,A,PC,O,AR,A,A,IN,,,AR,AR,AR,0.630375,B,36061.0,5602.0,5600.0,,,,,core2005pf,PC,O,AR,A,IN,,A23,A
76544,237044630,200505,2005,200621.0,29491077037006,,N,Y,0.0,1.0,2004,3.0,1.0,1.0,3,119,1071,0,0,0,0,0,0,0,1071,325,746,0,0,0,1476,0,0,0,0,0,1476,0,0,N,N,N,N,N,N,N,N,N,N,N,N,N,N,N,N,N,N,N,0,0,0,0,325,0,0,0,0,1476,0,0,0,1476,0,0,0,0,0,0,0,0,0,0,0,0,0,0,0,0,0,0,0,0,0,0,0,0,0,0,0,0,0,0,0,0,0,0,0,0,0,0,0,0,0,0,0,0,0,0,0,0,0,0,0,0,0,0,10025.0,RIVERSIDE THEATER WORKSHOP INC,,280 RIVERSIDE DR STE 10E,NEW YORK,NY,10025-9027,0.0,3.0,1.0,196912.0,1.0,4.0,119.0,59.0,0.0,1.0,13.0,0.0,1.0,5,,,A65,A,PF,O,AR,A,A,IN,,,AR,AR,AR,0.279125,B,36061.0,5602.0,5600.0,,,,,core2005pf,PC,O,AR,A,IN,,A65,A
76704,311811031,200504,2005,200608.0,29491323007125,A20,N,Y,0.0,1.0,2004,3.0,1.0,1.0,3,0,0,0,0,0,0,0,0,0,1,0,1,0,0,0,1,0,0,0,0,0,1,0,0,N,N,N,N,N,N,N,N,N,N,N,N,N,N,N,N,N,N,N,0,0,0,0,0,0,0,0,0,0,0,0,0,0,0,0,0,0,0,0,0,0,0,0,0,0,0,0,0,0,0,0,0,0,0,0,0,0,0,0,0,0,0,0,0,0,0,0,0,0,0,0,0,0,0,0,0,0,0,0,0,0,0,0,0,0,0,0,10016.0,THE GABARRON FOUNDATION INC,THE CARRIAGE HOUSE,149 E 38TH ST,NEW YORK,NY,10016-2604,0.0,3.0,2.0,200205.0,1.0,4.0,0.0,0.0,0.0,1.0,13.0,0.0,1.0,4,,,A20,A,PF,O,AR,A,A,IN,,,AR,AR,AR,0.378065,B,36061.0,5602.0,5600.0,,,,,core2005pf,PC,O,AR,A,IN,,A20,A
76705,311815304,200511,2005,200610.0,29491042039186,A65,N,Y,0.0,1.0,2004,3.0,1.0,1.0,3,0,1000,0,0,0,0,0,0,0,1000,0,1000,0,0,0,1000,0,0,0,0,0,1000,0,0,N,N,N,N,Y,N,N,N,N,N,N,N,N,N,N,N,N,N,N,0,0,0,0,0,0,0,0,0,1000,0,0,0,1000,0,0,0,0,0,0,0,0,0,0,0,0,0,0,0,0,0,0,0,0,0,0,0,0,0,0,0,0,0,0,0,0,0,0,0,0,0,0,0,0,0,0,0,0,0,0,0,0,0,0,0,0,0,0,10024.0,THE CONSTANT THEATER FOUNDATION INC,ROBERT CAMP,365 WEST END AVE SUITE 7 C,NEW YORK,NY,10024-6560,0.0,3.0,1.0,200207.0,1.0,4.0,0.0,0.0,0.0,1.0,13.0,0.0,1.0,11,,,A12,A,PF,S,ZB,A,A,IN,,,AR,AR,AR,0.937258,B,36061.0,5602.0,5600.0,,,,,core2005pf,PC,S,ZB,A,IN,,A1265,A
77109,522262698,200510,2005,200644.0,29491273071036,A20,N,Y,0.0,1.0,2004,2.0,1.0,1.0,3,0,3000,738,0,0,0,0,15000,0,3738,346423,-342685,346423,738,738,430,0,0,0,0,0,430,0,11945,N,N,N,N,Y,N,N,N,Y,N,N,N,N,N,N,N,N,N,N,0,0,738,738,346423,0,346423,0,0,0,0,0,0,430,15,0,0,0,0,0,0,0,0,15,242531,0,738,0,0,0,738,346423,0,0,0,346423,1,0,0,0,1,0,0,0,0,0,0,0,0,0,0,0,0,0,0,0,0,0,0,0,0,0,0,0,0,0,15,0,10014.0,INSTITUTE FOR CULTURAL ENTERPRISE INC,MECCAD,302 A W 12TH ST 120,NEW YORK,NY,10014-0000,0.0,3.0,1.0,200304.0,1.0,15.0,0.0,0.0,0.0,1.0,13.0,200410.0,10.0,10,,,A23,A,PC,O,AR,A,A,IN,,,AR,AR,AR,0.894453,B,36061.0,5602.0,5600.0,,,,,core2005pf,PC,O,AR,A,IN,,A23,A
78076,134012144,200412,2004,200734.0,29491216102177,A23,N,N,0.0,1.0,2004,3.0,3.0,2.0,3,0,10141,0,0,0,0,0,0,0,10141,34015,-23874,0,0,0,73439,0,0,0,0,0,73439,0,0,N,N,N,N,N,N,N,N,N,N,N,N,N,N,N,N,N,N,N,0,0,0,0,34015,0,0,0,0,32800,0,0,0,73439,0,0,0,0,0,0,0,0,0,0,0,0,0,0,0,0,0,0,0,0,0,0,0,0,0,0,0,0,0,0,0,0,0,0,0,0,0,0,0,0,0,0,0,0,0,0,0,0,0,0,0,0,0,0,11223.0,JEWISH ALLIANCE FOR PERFORMING ARTS INC,,PO BOX 230098,BROOKLYN,NY,11223-0098,0.0,3.0,1.0,200005.0,1.0,4.0,0.0,0.0,0.0,1.0,1.0,0.0,1.0,12,,,A01,A,PF,O,AR,A,A,IN,,,AR,AR,AR,0.191054,A,36047.0,5602.0,5600.0,,,,,core2005pf,PC,O,AR,A,IN,,A0160,A
78080,113309848,200412,2004,200732.0,29491104016237,A700,N,N,0.0,1.0,2004,3.0,3.0,3.0,3,994,54570,0,0,0,0,0,0,0,54570,57083,-2513,0,0,0,30855,0,0,0,0,233864,30855,62,62,N,N,N,N,N,N,Y,N,N,N,N,N,N,N,N,N,N,N,N,0,0,0,0,57083,0,0,0,0,8070,0,0,207774,-203009,0,0,0,0,0,0,0,0,0,0,1250,62,0,0,0,0,0,0,0,0,0,0,0,0,0,0,0,0,0,0,0,0,0,0,0,0,0,0,0,0,0,0,0,0,0,0,0,0,0,0,0,0,0,0,10036.0,PAUL ROBESON FOUNDATION INC,ELIZABETH J SALEN,1560 BROADWAY SUITE 1600,NEW YORK,NY,10036-1518,0.0,3.0,1.0,199610.0,1.0,4.0,994.0,64.0,0.0,1.0,1.0,0.0,1.0,12,,,A70,A,PF,O,AR,A,A,IN,,,AR,AR,AR,0.13892100000000002,A,36061.0,5602.0,5600.0,,,,,core2005pf,PC,O,AR,A,IN,,A70,A
78091,10547898,200312,2003,200451.0,29491311026054,A80,N,Y,0.0,1.0,2003,3.0,4.0,2.0,3,0,20000,0,0,0,0,0,0,0,20000,2244,17756,2244,0,0,135325,0,0,0,0,125000,135325,0,0,N,N,N,N,N,N,N,Y,N,N,N,N,N,N,N,N,N,N,N,0,0,0,0,2244,2244,2244,2244,0,10325,0,0,0,10325,0,0,0,0,0,0,0,0,0,0,0,0,0,0,0,0,0,0,0,0,0,0,0,0,0,0,0,0,0,0,0,0,0,0,0,0,0,0,0,0,0,0,0,0,0,0,0,0,0,0,0,0,0,0,10003.0,WTC PLATFORM FOUNDATION INC,MILGROM GALUSKIN BALMUTH & CO CPA,5 UNION SQ W,NEW YORK,NY,10003-3306,0.0,3.0,1.0,200205.0,1.0,4.0,0.0,0.0,0.0,1.0,13.0,0.0,1.0,12,,,A80,A,PF,O,AR,A,A,IN,,,AR,AR,AR,0.458108,C,36061.0,5602.0,5600.0,,,,,core2005pf,PF,S,AR,A,IN,,A80,A
78264,133573803,200312,2003,200424.0,29491143247154,,N,Y,0.0,1.0,2003,3.0,1.0,1.0,3,119,0,0,0,0,0,0,0,0,1,194,-193,194,0,0,1,0,0,0,0,0,1,0,0,N,N,N,N,N,N,N,N,N,N,N,N,N,N,N,N,N,N,N,0,0,0,0,194,0,194,0,0,0,0,0,0,0,0,0,0,0,0,0,0,0,0,0,0,0,0,0,0,0,0,0,0,0,0,0,0,0,0,0,0,0,0,0,0,0,0,0,0,0,0,0,0,0,0,0,0,0,0,0,0,0,0,0,0,0,0,0,10022.0,FILM FOUNDATION INC,STARR & COMPANY,445 PARK AVE 7TH FLR,NEW YORK,NY,10022-2606,0.0,3.0,1.0,199008.0,1.0,4.0,119.0,0.0,0.0,1.0,13.0,0.0,1.0,12,,,A31,A,PF,O,AR,A,A,IN,,,AR,AR,AR,0.42863199999999996,B,36061.0,5602.0,5600.0,,,,,core2005pf,PF,S,AR,A,IN,,A31,A
78623,300136129,200406,2004,200432.0,29491206006214,A65,N,Y,0.0,20.0,2003,2.0,1.0,3.0,3,0,39401,19,0,-3127,0,8053,2355,89,44626,37589,7037,17360,299,2248,1,0,0,0,0,0,1,0,1,N,Y,N,Y,Y,N,Y,N,Y,N,N,N,N,N,N,N,N,N,N,280,0,299,8053,37500,0,17271,0,5805,0,0,0,0,0,3,0,0,0,0,0,0,0,0,3,22,0,1,0,0,0,1,17360,39257,0,0,56617,1,0,0,0,1,0,0,0,0,0,0,0,0,0,0,0,0,0,0,0,0,0,0,0,0,0,0,0,0,0,3,0,10009.0,BOTTLE FACTORY THEATER COMPANY,AMANDA GRUSS,195 E 3RD ST,NEW YORK,NY,10009-7424,0.0,3.0,2.0,200301.0,1.0,3.0,0.0,0.0,0.0,1.0,13.0,0.0,1.0,6,,,A65,A,PF,O,AR,A,A,IN,,,AR,AR,AR,0.403409,C,36061.0,5602.0,5600.0,,,,,core2005pf,PF,O,AR,A,IN,,A65,A
78656,311595881,200312,2003,200445.0,29491290070234,A31Z,N,Y,0.0,1.0,2003,3.0,2.0,4.0,3,994,287846,0,0,0,0,38675,35922,3500,326521,316739,9782,3500,0,38675,19782,0,0,0,0,0,19782,0,80,N,N,N,N,N,N,N,N,N,N,N,N,N,N,N,N,N,N,N,0,0,0,38675,313239,0,0,0,0,1020,0,0,0,19782,0,0,0,0,0,0,0,0,0,0,1620,80,0,0,0,0,0,0,0,0,0,0,0,0,0,0,0,0,0,0,0,0,0,0,0,0,0,0,0,0,0,0,0,0,0,0,0,0,0,0,0,0,0,0,10170.0,URBANWORLD FOUNDATION INC,FEINSTEIN MGT,420 LEXINGTON AVE STE 215,NEW YORK,NY,10170-0014,0.0,3.0,1.0,199807.0,1.0,4.0,994.0,62.0,0.0,1.0,13.0,0.0,1.0,12,,,A31,A,PF,O,AR,A,A,IN,,,AR,AR,AR,0.8102050000000001,C,36061.0,5602.0,5600.0,,,,,core2005pf,PF,S,AR,A,IN,,A31,A
79271,611446755,200312,2003,200436.0,29491234058174,A31,N,Y,0.0,1.0,2003,2.0,3.0,4.0,3,0,158223,0,0,0,0,0,0,0,158223,136712,21511,28181,0,0,41792,0,0,0,0,20281,41792,0,868,N,N,N,N,Y,N,N,N,N,N,N,N,N,N,N,N,N,N,N,0,0,0,0,136712,0,28181,0,107500,37774,0,0,0,21511,0,0,0,0,0,0,0,0,0,0,20896,0,1,0,0,0,1,28181,0,0,0,28181,1,0,0,0,1,0,0,0,0,0,579,0,0,0,579,0,0,0,0,0,0,0,0,0,0,0,0,0,0,0,0,0,10119.0,FONDAZIONE PRADA NEW YORK INC,GEORGE R FUNARO & CO PC,1 PENN PLZ,NEW YORK,NY,10119-0002,0.0,3.0,1.0,200307.0,1.0,3.0,0.0,0.0,0.0,1.0,13.0,0.0,1.0,12,,,A31,A,PF,O,AR,A,A,IN,,,AR,AR,AR,0.230479,C,36061.0,5602.0,5600.0,,,,,core2005pf,PF,O,AR,A,IN,,A31,A
79796,10733159,200312,2003,200426.0,29491164220004,A70,N,Y,0.0,1.0,2003,2.0,4.0,1.0,3,0,0,0,0,0,0,1547,20625,0,1547,53313,-51766,51764,0,0,124223,0,0,0,0,0,124223,0,0,N,N,N,Y,Y,N,N,N,Y,N,N,N,N,N,N,N,N,N,N,0,0,0,1547,53313,0,51764,0,1549,28223,0,0,0,124223,0,0,0,0,0,0,0,0,0,0,0,0,1,0,0,0,1,51764,0,0,0,51764,124223,0,0,0,124223,0,0,0,0,0,1941,3562,0,0,5503,0,0,0,0,0,0,0,0,0,0,0,0,0,0,0,0,0,10011.0,FELIX GONZALEZ-TORRES FOUNDATION,ANDREA M ROSEN,525 W 24TH ST,NEW YORK,NY,10011-1104,0.0,3.0,1.0,200307.0,1.0,3.0,0.0,0.0,0.0,1.0,13.0,0.0,1.0,12,,,A70,A,PF,O,AR,A,A,IN,,,AR,AR,AR,0.72822,C,36061.0,5602.0,5600.0,,,,,core2003pf,PF,O,AR,A,IN,,A70,A
80017,113024142,200212,2002,200446.0,29491297019074,B99Z,N,Y,0.0,1.0,2002,3.0,1.0,0.0,3,352,0,0,0,0,0,0,0,0,0,0,0,0,0,0,1,0,0,0,0,0,1,0,0,N,N,N,N,N,N,N,N,N,N,N,N,N,N,N,N,N,N,N,0,0,0,0,0,0,0,0,0,0,0,0,0,0,0,0,0,0,0,0,0,0,0,0,0,0,0,0,0,0,0,0,0,0,0,0,0,0,0,0,0,0,0,0,0,0,0,0,0,0,0,0,0,0,0,0,0,0,0,0,0,0,0,0,0,0,0,0,11358.0,COMMITTEE TO SAVE THE RKO KEITHS THEATRE OF FLUSHING INC,GERARD S ROTONDI,33 47 165TH ST,FLUSHING,NY,11358-1443,0.0,3.0,1.0,199106.0,1.0,4.0,352.0,0.0,0.0,1.0,11.0,0.0,1.0,12,,,A65,A,PF,O,AR,A,A,IN,,,AR,AR,AR,0.5754199999999999,C,36081.0,5602.0,5600.0,,,,,core2003pf,PF,S,AR,A,IN,,A65,A
80039,113343213,200309,2003,200430.0,29491192020184,A25,N,Y,0.0,1.0,2002,2.0,4.0,1.0,3,0,9008,328,0,0,0,0,20000,8000,9336,30281,-20945,10233,328,328,172033,0,0,0,0,60000,172033,0,3163,N,N,N,N,Y,N,N,Y,Y,N,N,N,N,N,N,N,N,N,N,0,0,328,328,22281,0,2233,0,0,28784,0,0,0,112033,7,0,0,0,0,0,0,0,0,7,64214,0,328,293,1908,2370,4899,10233,13197,25407,20907,69744,1,0,0,0,1,0,0,0,0,0,0,0,0,0,0,0,0,0,0,0,0,0,0,0,0,0,0,0,0,0,7,0,11238.0,ROY AND SHERRY DECARAVA FOUNDATION,ROY & SHERRY & SUSAN W DECARAVA,201 EASTERN PKWY 5G,BROOKLYN,NY,11238-6137,0.0,3.0,1.0,199904.0,1.0,3.0,0.0,0.0,0.0,2.0,11.0,0.0,1.0,9,,,A25,A,PF,O,AR,A,A,IN,,,AR,AR,AR,0.722961,C,36047.0,5602.0,5600.0,,,,,core2003pf,PF,O,AR,A,IN,,A25,A
80066,113559712,200312,2003,200445.0,29491220040074,A51,N,Y,0.0,1.0,2003,2.0,6.0,2.0,3,0,0,0,0,-300,0,0,0,800,-300,17581,-17881,-17881,0,0,2620348,0,0,0,0,0,2621411,0,0,N,N,N,N,Y,N,N,N,N,N,N,N,N,N,N,N,N,N,N,0,0,0,0,16781,0,16135,0,16935,60448,0,0,0,2620348,0,0,0,0,0,0,0,0,0,0,0,0,1,0,0,0,1,16935,7549,6186,0,30670,1,0,0,0,1,0,0,0,0,0,0,0,0,0,0,0,0,0,0,0,0,0,0,0,0,0,0,0,0,0,0,0,11215.0,HAROLD WESTON FOUNDATION,REBECCA FOSTER,338 8TH ST 8,BROOKLYN,NY,11215-3339,0.0,3.0,1.0,200108.0,1.0,3.0,0.0,0.0,0.0,2.0,11.0,0.0,1.0,12,,,A99,A,PF,O,AR,A,A,IN,,,AR,AR,AR,0.513133,C,36047.0,5602.0,5600.0,,,,,core2003pf,PF,O,AR,A,IN,,A51,A
80108,132930528,200212,2002,200406.0,29491249056013,,N,Y,0.0,1.0,2002,3.0,2.0,1.0,3,124,0,204,0,0,0,0,0,0,204,1590,-1386,796,0,0,13364,0,0,0,0,1350,13364,0,688,N,N,N,N,N,N,N,N,N,N,N,N,N,N,N,N,N,N,N,0,0,204,0,1590,796,796,796,0,0,0,0,0,12014,0,0,0,0,0,0,0,0,0,0,13979,688,0,0,0,0,0,0,0,0,0,0,0,0,0,0,0,0,0,0,0,0,0,0,0,0,0,0,0,0,0,0,0,0,0,0,0,0,0,0,0,0,0,0,10019.0,EAST ASIAN HISTORY OF SCIENCE INC EAHS,PAUL WEISS,1285 AVE OF AMER,NEW YORK,NY,10019-0000,0.0,3.0,2.0,197803.0,1.0,15.0,124.0,0.0,0.0,1.0,13.0,0.0,20.0,12,,,A80,A,PC,O,AR,A,A,IN,,,AR,AR,AR,0.893451,C,36061.0,5602.0,5600.0,,,,,core2003pf,PC,O,AR,A,IN,,A80,A
80129,133150248,200312,2003,200438.0,29491255019134,,N,Y,0.0,1.0,2003,3.0,6.0,4.0,3,149,3122,867,109656,23724,0,0,0,103500,137369,156255,-18886,132727,110719,0,2680419,1455778,1128119,0,2583897,0,3070428,115130,144875,N,Y,N,N,N,N,N,N,N,N,N,N,N,N,N,N,N,N,N,0,0,134247,0,52755,23528,29227,23528,0,10506,0,0,0,2680419,1107,0,0,1731,0,0,0,0,624,1107,2941624,143768,0,0,0,0,0,0,0,0,0,0,0,0,0,0,0,0,0,0,0,0,0,0,0,0,0,0,0,0,0,0,0,0,0,0,0,0,0,0,0,0,-624,0,10150.0,SOCIETE DES PROFESSEORS FRANCAIS EN AMERIQUE,,PO BOX 6026,NEW YORK,NY,10150-6026,0.0,3.0,2.0,199410.0,1.0,4.0,149.0,0.0,0.0,1.0,13.0,0.0,1.0,12,,,A70,A,PF,O,AR,A,A,IN,,,AR,AR,AR,0.6732279999999999,A,36061.0,5602.0,5600.0,,,,,core2003pf,PF,S,AR,A,IN,,B82,B
80171,133464919,200212,2002,200405.0,29491361009143,,N,Y,0.0,1.0,2002,3.0,2.0,0.0,3,91,0,0,0,0,0,0,0,0,0,719,-719,0,17,17,18376,0,0,0,0,15960,18376,0,0,N,N,N,N,N,N,N,N,N,N,N,N,N,N,N,N,N,N,N,0,0,17,17,719,0,0,0,0,18376,0,0,0,2416,0,0,0,0,0,0,0,0,0,0,0,0,0,0,0,0,0,0,0,0,0,0,0,0,0,0,0,0,0,0,0,0,0,0,0,0,0,0,0,0,0,0,0,0,0,0,0,0,0,0,0,0,0,0,10111.0,WORLD PRESS PHOTO USA FOUNDATION INC,AMICORP SERVICES LTD,45 ROCKEFELLER PLZ STE 15,NEW YORK,NY,10111-1502,0.0,3.0,1.0,198909.0,1.0,4.0,91.0,0.0,0.0,1.0,13.0,0.0,1.0,12,,,A40,A,PF,O,AR,A,A,IN,,,AR,AR,AR,0.546624,B,36061.0,5602.0,5600.0,,,,,core2003pf,PF,S,AR,A,IN,,A40,A
80195,133674360,200312,2003,200449.0,29491318022224,A20,N,Y,0.0,1.0,2003,3.0,6.0,8.0,3,90,13000000,703,26411,618,0,0,0,0,13027732,48812,12978920,-853,4139,3521,3287686,0,0,0,0,0,3287686,0,163354,N,N,N,Y,Y,N,N,N,N,N,N,N,N,N,N,N,N,N,N,0,0,27732,27114,48812,23593,-853,23593,23593,7212,0,0,0,3287686,83,0,0,0,0,0,0,0,0,83,3316827,0,3521,134310,312862,321914,772607,-853,778455,939003,931139,2647744,0,0,0,19121708,19121708,0,0,0,19121708,19121708,108903,361726,514155,637390,1622174,0,0,0,0,0,0,0,0,0,0,0,0,0,0,0,83,0,10118.0,CIVITELLA RANIERI FOUNDATION,JD MILLER & CO LLP,350 5TH AVE STE 5019,NEW YORK,NY,10118-5019,0.0,3.0,1.0,199302.0,1.0,4.0,90.0,62.0,93.0,2.0,13.0,0.0,1.0,12,,M,A20,A,PF,O,AR,A,A,IN,,,AR,AR,AR,0.726441,C,36061.0,5602.0,5600.0,,,,,core2003pf,PF,S,AR,A,IN,,A20,A
80217,133794783,200306,2003,200432.0,29491206033204,A50Z,N,Y,0.0,1.0,2002,3.0,1.0,1.0,3,994,0,0,0,0,0,0,0,0,1,0,1,0,0,0,1,0,0,0,0,0,1,0,0,N,N,N,N,N,N,N,N,N,N,N,N,N,N,N,N,N,N,N,0,0,0,0,0,0,0,0,0,0,0,0,0,0,0,0,0,0,0,0,0,0,0,0,0,0,0,0,0,0,0,0,0,0,0,0,0,0,0,0,0,0,0,0,0,0,0,0,0,0,0,0,0,0,0,0,0,0,0,0,0,0,0,0,0,0,0,0,10011.0,CONTEMPORARY ART FOR AMERICA,DELEY GAZINELLI,330 15TH ST 5D,NEW YORK,NY,10011-5963,0.0,3.0,2.0,199507.0,1.0,4.0,994.0,60.0,0.0,1.0,13.0,0.0,1.0,6,,,A50,A,PF,O,AR,A,A,IN,,,AR,AR,AR,0.509004,C,36061.0,5602.0,5600.0,,,,,core2003pf,PF,S,AR,A,IN,,A50,A
80232,133887504,200212,2002,200434.0,29491213040024,A65,N,Y,0.0,1.0,2002,3.0,1.0,1.0,3,994,0,0,0,0,0,0,0,0,1,0,1,0,0,0,1,0,0,0,0,0,1,0,0,N,N,N,N,N,N,N,N,N,N,N,N,N,N,N,N,N,N,N,0,0,0,0,0,0,0,0,0,0,0,0,0,0,0,0,0,0,0,0,0,0,0,0,0,0,0,0,0,0,0,0,0,0,0,0,0,0,0,0,0,0,0,0,0,0,0,0,0,0,0,0,0,0,0,0,0,0,0,0,0,0,0,0,0,0,0,0,10002.0,HOPE HOUSE THEATER INC,GREG DROZDEK,53 STANTON ST,NEW YORK,NY,10002-1361,0.0,3.0,1.0,199605.0,1.0,16.0,994.0,88.0,90.0,1.0,13.0,0.0,20.0,12,,,A65,A,PC,O,AR,A,A,IN,,,AR,AR,AR,0.247004,C,36061.0,5602.0,5600.0,,,,,core2003pf,PC,O,AR,A,IN,,A65,A
80247,133938484,200406,2004,200452.0,29491339231224,A99I,N,Y,0.0,1.0,2003,3.0,4.0,2.0,3,119,0,16033,0,0,0,0,0,0,16033,0,16033,0,16033,0,336175,0,0,0,0,0,336175,16489,16809,N,N,N,N,N,N,N,N,N,N,N,N,N,N,N,N,N,N,N,0,0,16033,0,0,0,0,0,0,23506,0,312669,0,336175,321,0,0,0,0,0,0,0,0,321,336175,16489,0,0,0,0,0,0,0,0,0,0,0,0,0,0,0,0,0,0,0,0,0,0,0,0,0,0,0,0,0,0,0,0,0,0,0,0,0,0,0,0,321,0,10007.0,BETTY RETTER FOUNDATION,BETTY RETTER,225 BROADWAY STE 500,NEW YORK,NY,10007-3901,0.0,3.0,1.0,199707.0,1.0,4.0,119.0,0.0,0.0,2.0,13.0,0.0,1.0,6,,,A11,A,PF,S,ZA,A,A,IN,,,AR,AR,AR,0.187007,C,36061.0,5602.0,5600.0,,,,,core2003pf,PF,S,ZA,A,IN,,A99,A
80265,134006236,200212,2002,200438.0,29491241052194,A33Z,N,Y,0.0,1.0,2002,3.0,1.0,0.0,3,995,0,0,0,0,0,0,0,0,0,6014,-6014,0,0,0,1910,0,0,0,0,0,1910,0,0,N,N,N,N,N,N,N,N,N,N,N,N,N,N,N,N,N,N,N,0,0,0,0,6014,0,0,0,0,1910,0,0,0,1910,0,0,0,0,0,0,0,0,0,0,1000,0,0,0,0,0,0,0,0,0,0,0,0,0,0,0,0,0,0,0,0,0,0,0,0,0,0,0,0,0,0,0,0,0,0,0,0,0,0,0,0,0,0,0,10014.0,TEREZIN PUBLISHING PROJECT LTD,AMY LOWENHAR,422 HUDSON ST,NEW YORK,NY,10014-3932,0.0,3.0,1.0,199808.0,1.0,4.0,995.0,120.0,0.0,1.0,13.0,0.0,1.0,12,,,A33,A,PF,O,AR,A,A,IN,,,AR,AR,AR,0.774907,C,36061.0,5602.0,5600.0,,,,,core2003pf,PF,S,AR,A,IN,,A33,A
80384,137100859,200405,2004,200442.0,29491276011054,A99Z,N,Y,0.0,1.0,2003,3.0,5.0,6.0,3,602,0,653,192432,1715101,0,0,0,1975514,1908186,1999027,-90841,1977354,1907186,0,639581,0,620238,0,620238,0,18745419,0,926117,N,N,N,N,N,N,N,N,N,N,N,N,N,N,N,N,N,N,N,0,0,1908186,0,23513,1000,1840,1000,0,19343,0,0,0,639581,38144,0,0,20612,0,0,0,496,0,38144,18804410,887973,0,0,0,0,0,0,0,0,0,0,0,0,0,0,0,0,0,0,0,0,0,0,0,0,0,0,0,0,0,0,0,0,0,0,0,0,0,0,0,0,18028,0,10179.0,THE JAMES E AND PATRICIA D CAYNE CHARITABLE TRUST,JAMES E CAYNE BEAR STEARNS & CO,383 MADISON AVE,NEW YORK,NY,10179-0001,0.0,3.0,1.0,199704.0,1.0,4.0,602.0,0.0,0.0,2.0,13.0,0.0,1.0,5,,M,A99,A,PF,O,AR,A,A,IN,,,AR,AR,AR,0.39116799999999996,C,36061.0,5602.0,5600.0,,,,,core2003pf,PF,S,AR,A,IN,,T22,T
80533,223047700,200212,2002,200405.0,29491361022003,A20,N,Y,0.0,1.0,2002,3.0,6.0,5.0,3,59,423708,3858,20015,-40464,0,0,50000,17000,407117,330407,76710,314582,16627,0,1148322,161102,0,0,161102,20525,1148322,0,50647,N,Y,N,N,N,N,N,N,N,N,N,N,N,N,N,N,Y,N,N,0,0,23873,0,313407,7246,297582,7246,0,0,0,725215,0,1127797,166,0,0,0,0,0,0,0,0,166,1028360,50481,0,0,0,0,0,0,0,0,0,0,0,0,0,0,0,0,0,0,0,0,0,0,0,0,0,0,0,0,0,0,0,0,0,0,0,0,0,0,0,0,166,0,10012.0,NEW YORK FOUNDATION FOR ARCHITECTURE INC,,536 LAGUARDIA PL,NEW YORK,NY,10012-1401,0.0,3.0,1.0,196703.0,1.0,15.0,59.0,0.0,0.0,1.0,13.0,0.0,10.0,12,,,A40,A,PC,O,AR,A,A,IN,,,AR,AR,AR,0.03230209999999999,B,36061.0,5602.0,5600.0,,,,,core2003pf,PC,O,AR,A,IN,,A40,A
83100,113371174,200212,2002,,2,A65Z,-,,,,2002,,,,3,995,23687,0,0,0,0,9661,0,0,33348,33348,0,33348,0,0,1,0,0,0,0,1,1,0,0,N,N,N,N,N,N,N,N,N,N,N,N,N,N,N,N,N,N,N,0,0,0,0,33348,0,33348,0,0,0,0,0,0,0,0,0,0,0,0,0,0,0,0,0,0,0,0,0,0,0,0,0,0,0,0,0,0,0,0,0,0,0,0,0,0,0,0,0,0,0,0,0,0,0,0,0,0,0,0,0,0,0,0,0,0,0,0,0,11377.0,FOURTH UNITY INC,D SMITH,40 11 67TH ST STE 1A,WOODSIDE,NY,11377-8513,0.0,3.0,1.0,199705.0,1.0,4.0,995.0,88.0,0.0,1.0,11.0,0.0,1.0,12,,,A65,A,PF,O,AR,A,A,IN,,,AR,AR,AR,0.656189,N,36081.0,5602.0,5600.0,,,,,core2002pf,PF,S,AR,A,IN,,A65,A
83144,133442712,200212,2002,,2,,-,,,,2002,,,,3,122,169909,68,0,0,0,6946,0,0,176923,193583,-16660,191217,0,0,16965,0,0,0,0,2716,16965,0,1478,N,N,N,N,N,N,N,N,N,N,N,N,N,N,N,N,N,N,N,0,0,68,0,193583,68,191217,68,0,16952,0,0,0,14249,0,0,0,0,0,0,0,0,0,0,30000,1478,0,0,0,0,0,0,0,0,0,0,0,0,0,0,0,0,0,0,0,0,0,0,0,0,0,0,0,0,0,0,0,0,0,0,0,0,0,0,0,0,0,0,10019.0,OUTSIDE IN JULY INC,J L ROSENHOUSE CPA INC,250 W 57TH ST STE 2203,NEW YORK,NY,10019-3741,0.0,3.0,1.0,198810.0,1.0,4.0,122.0,0.0,0.0,1.0,13.0,0.0,1.0,12,GARRISON,,A31,A,PF,O,AR,A,A,IN,,,AR,AR,AR,0.347894,N,36061.0,5602.0,5600.0,,,,,core2002pf,PF,S,AR,A,IN,,A31,A
83151,133553683,200212,2002,,2,A99Z,-,,,,2002,,,,3,90,0,0,0,0,0,0,0,0,1,0,1,0,0,0,1,0,0,0,0,1,1,0,0,N,N,N,Y,N,N,N,N,N,N,N,N,N,N,N,N,N,N,N,0,0,0,0,0,0,0,0,0,0,0,0,0,0,0,0,0,0,0,0,0,0,0,0,0,0,0,0,0,0,0,0,0,0,0,0,0,0,0,0,0,0,0,0,0,0,0,0,0,0,0,0,0,0,0,0,0,0,0,0,0,0,0,0,0,0,0,0,10019.0,OPERA DE PARIS FOUNDATION INC,% WILLKIE FARR & GALLAGHER,787 SEVENTH AVE,NEW YORK,NY,10019-6018,0.0,3.0,1.0,199004.0,1.0,4.0,90.0,0.0,0.0,1.0,13.0,0.0,1.0,12,,,A99,A,PF,O,AR,A,A,IN,,,AR,AR,AR,0.852455,N,36061.0,5602.0,5600.0,,,,,core2002pf,PF,S,AR,A,IN,,A6A,A
83156,133646023,200212,2002,,2,O50,-,,,,2002,,,,3,200,738409,1196,0,0,0,0,0,571667,739605,631881,107724,631881,0,0,117259,0,0,0,0,0,117259,0,8897,N,N,N,N,N,N,N,N,N,N,N,N,N,N,N,N,N,N,N,0,0,1196,1196,60214,1196,60214,1196,1196,117259,0,0,0,117259,0,0,0,0,0,0,0,0,0,0,180656,8897,0,0,0,0,0,0,0,0,0,0,0,0,0,0,0,0,0,0,0,0,0,0,0,0,0,0,0,0,0,0,0,0,0,0,0,0,0,0,0,0,0,0,10001.0,FRIENDS OF OHEL MOSHE INSTITUTE INC,ELI MENDLOWITZ,120 W 31ST ST,NEW YORK,NY,10001-3407,0.0,3.0,1.0,199411.0,1.0,15.0,200.0,0.0,0.0,1.0,13.0,0.0,10.0,12,,,A19,A,PC,O,AR,A,A,IN,,,AR,AR,AR,0.628147,N,36061.0,5602.0,5600.0,,,,,core2002pf,PF,O,AR,A,IN,,A19,A
83167,133927380,200212,2002,,2,A83I,-,,,,2002,,,,3,994,0,0,0,0,0,0,0,0,1,0,1,0,0,0,1,0,0,0,0,1,1,0,0,N,N,N,N,N,N,N,N,N,N,N,N,N,N,N,N,N,N,N,0,0,0,0,0,0,0,0,0,0,0,0,0,0,0,0,0,0,0,0,0,0,0,0,0,0,0,0,0,0,0,0,0,0,0,0,0,0,0,0,0,0,0,0,0,0,0,0,0,0,0,0,0,0,0,0,0,0,0,0,0,0,0,0,0,0,0,0,10471.0,JEWISH REGISTRY INC,% MARVIN WEITZ,621 WEST 254TH STREET,RIVERDALE,NY,10471-1225,0.0,3.0,1.0,199705.0,1.0,15.0,994.0,94.0,0.0,1.0,13.0,200012.0,10.0,12,,,A11,A,PC,S,ZA,A,A,IN,,,AR,AR,AR,0.583432,N,36005.0,5602.0,5600.0,,,,,core2002pf,PF,S,ZA,A,IN,,X30,X
83172,134010816,200212,2002,,2,A90,-,,,,2002,,,,3,0,0,0,0,0,0,0,0,0,1,0,1,0,0,0,1,0,0,0,0,1,1,0,0,N,N,N,N,N,N,N,N,N,N,N,N,N,N,N,N,N,N,N,0,0,0,0,0,0,0,0,0,0,0,0,0,0,0,0,0,0,0,0,0,0,0,0,0,0,0,0,0,0,0,0,0,0,0,0,0,0,0,0,0,0,0,0,0,0,0,0,0,0,0,0,0,0,0,0,0,0,0,0,0,0,0,0,0,0,0,0,10003.0,FRANZ SCHUBERT SOCIETY INC,WILLIAM LIVINGSTONE,9 E 9TH ST APT 5,NEW YORK,NY,10003-5947,0.0,3.0,1.0,199907.0,1.0,4.0,0.0,0.0,0.0,1.0,13.0,0.0,1.0,12,,,A90,A,PF,O,AR,A,A,IN,,,AR,AR,AR,0.42460200000000003,N,36061.0,5602.0,5600.0,,,,,core2002pf,PF,S,AR,A,IN,,A90,A
