,EIN,FisYr,TAXPER,CYCLE,DLN,NTEE,ARC,LRC,RESERVED,EOSTATUS,STYEAR,RECCODE,ASS_CODE,INC_CODE,SUBSECCD,ACTIV,P1TCONT,P1INTREV,P1DIVID,P1NGASTS,P1GINVPF,P1OTHINC,P1OFCOMP,P1CONTPD,P1TOTREV,P1TOTEXP,P1EXCREV,P1TEXMEX,P1NETINV,P1NADINC,P2TOTAST,P2GVTINV,P2CRPSTK,P2CRPBND,P2TINVSC,P2TLIABL,P2TASFMV,P13UNDST,P10MIR,P6EXMPF,P6DOMORG,P7POLIT,P7LIQUID,P7POFCLM,P7DISSAL,P7DISBOR,P7DISSER,P7DISPAY,P7DISTRA,P7PAYGVT,P7UNDINC,P7BUSINT,P7JEOINV,P7PROPAG,P7ELECT,P7INDGRT,P7ORGGRT,P7OTHPUR,P1GRENTS,P1GOODS,P1INVRV,P1NADJRV,P1ADMEXP,P1INVEXP,P1CHAEXP,P1TINVEX,P1TADJEX,P2CASHBV,P2MORTG,P2EYOTIN,P2MTGNTS,P3EYTFND,P6TEXCTX,P6TX511,P6TXSUBA,P6ESTTX,P6TXWTH,P6TXINV,P6TXWERR,P6TXPNLT,P6TXCRDT,P6TX4940,P10TASST,P11DISTR,P14NADJA,P14NADJB,P14NADJC,P14NADJD,P14TNADJ,P14QDISA,P14QDISB,P14QDISC,P14QDISD,P14TQDIS,P14ASVLA,P14ASVLB,P14ASVLC,P14ASVLD,P14TASVL,P14A4942,P14B4942,P14C4942,P14D4942,P14T4942,P14ENDWA,P14ENDWB,P14ENDWC,P14ENDWD,P14TENDW,P14TSUPA,P14TSUPB,P14TSUPC,P14TSUPD,P14TTSUP,P14PSUPA,P14PSUPB,P14PSUPC,P14PSUPD,P14TPSUP,P14GINVA,P14GINVB,P14GINVC,P14GINVD,P14TGINV,TFLD,P6TXRFD,ZIP5,NAME,CONTACT,ADDRESS,CITY,STATE,ZIP,GEN,AFCD,CLASSCD,RULEDATE,DEDUCTCD,FNDNCD,ACTIV1,ACTIV2,ACTIV3,ORGCD,DISTRICT,ARED,FRCD,ACCPER,SEC_NAME,verify,NteeOldB,NTEECC,NteeCC4d,NTEEconf,NTEE1,MajGrpB,NtMaj10,NtMaj5,NtMaj12,OutNCCS,OutReas,Level1,Level2,Level3,Level4,RandNum,FIPS,MSA_NECH,PMSA,SOURCE,LEVEL1old20090616,LEVEL2old20090616,LEVEL3old20090616,LEVEL4old20090616,OUTNCCSold20090616,OUTREASold20090616,nteeFinal,nteeFinal1
177,10548602,2005,200509,200642.0,29491168076116.0,A51,N,Y,0.0,1.0,2004,2.0,6.0,0.0,3,0.0,0,0,2437,463187,0,-145870,0,78500,319754,96135,223619,5326,461322,169305,1471034,0,188246,0,188246,0,1685660,0,70667,N,N,N,N,Y,N,Y,N,N,N,N,N,N,N,N,N,N,N,N,0,0,465624,173607,17635,4302,5326,4302,4302,0,0,0,0,1471034,9226,0,0,0,0,1,0,19,0,9226,1434866,0,70667,61205,23868,12004,167744,5326,65500,50000,35000,155826,0,0,0,0,0,0,0,0,0,0,47111,40803,34772,23609,146295,0,0,0,0,0,0,0,0,0,0,0,0,0,0,0,9244,0,10118.0,PETER AND CYNTHIA WILSON ART FOUNDATION INC,L WOLLIN,350 FIFTH AVE STE 2822,NEW YORK,NY,10118-2896,0.0,3.0,2.0,200207.0,1.0,3.0,0.0,0.0,0.0,1.0,13.0,0.0,1.0,9,,,,A12,,B,A,A,AR,AR,AR,IN,,PF,S,ZB,A,0.172474,36061.0,5602.0,5600.0,core2005pf_ver1,PC,S,ZB,A,IN,,A51,A
189,10553351,2005,200512,200634.0,29491217040026.0,T22,N,Y,0.0,1.0,2005,3.0,8.0,6.0,3,0.0,1712375,0,12,0,0,0,0,640333,1712387,655617,1056770,647143,12,0,13090749,0,0,0,0,0,13090749,0,613072,N,N,N,N,N,N,N,N,N,N,N,N,N,N,N,N,N,N,N,0,0,12,0,15284,0,0,0,0,0,0,0,0,13090749,0,0,0,0,0,0,0,0,0,0,12448158,613072,0,0,0,0,0,0,0,0,0,0,0,0,0,0,0,0,0,0,0,0,0,0,0,0,0,0,0,0,0,0,0,0,0,0,0,0,0,0,0,0,0,0,10016.0,DANCING TIDES FOUNDATION INC,FRANKEL LOUGHRAN STARR & VALLONE,404 PARK AVE S,NEW YORK,NY,10016-8404,0.0,3.0,1.0,200209.0,1.0,4.0,0.0,0.0,0.0,1.0,13.0,0.0,1.0,12,ARNELL NATHAN E TTEE,,,A62,,A,A,A,AR,AR,AR,IN,,PF,O,AR,A,0.596877,36061.0,5602.0,5600.0,core2005pf_ver1,PC,O,AR,A,IN,,A62,A
353,10733159,2005,200512,200626.0,29491162312026.0,A70,N,Y,0.0,1.0,2005,2.0,4.0,2.0,3,0.0,10000,0,0,0,0,2392,0,0,12392,36901,-24509,34509,0,0,192115,0,0,0,0,0,192115,0,5691,N,N,N,N,Y,N,N,N,N,N,N,N,N,N,N,N,N,N,N,0,0,0,2392,0,0,0,0,2392,96115,0,0,0,192115,0,0,0,0,0,0,0,0,0,0,115546,0,1,0,0,0,1,34509,10099,51764,0,96372,192115,216624,124223,175990,708952,96000,96000,96000,96000,384000,3794,1112,1941,3562,10409,0,0,0,0,0,0,0,0,0,0,0,0,0,0,0,0,0,10011.0,FELIX GONZALEZ-TORRES FOUNDATION,ANDREA M ROSEN,525 W 24TH ST,NEW YORK,NY,10011-1104,0.0,3.0,1.0,200307.0,1.0,3.0,0.0,0.0,0.0,1.0,13.0,0.0,1.0,12,,,,A70,,B,A,A,AR,AR,AR,IN,,PF,O,AR,A,0.722093,36061.0,5602.0,5600.0,core2005pf_ver1,PC,O,AR,A,IN,,A70,A
823,20659543,2004,200412,200624.0,29491042039076.0,T22,N,Y,0.0,1.0,2004,2.0,4.0,4.0,3,0.0,154500,189,0,0,0,275608,0,185140,430297,381655,48642,185140,189,275797,154181,0,0,0,0,34000,154181,0,3730,N,Y,N,N,Y,N,N,N,N,N,N,N,N,N,N,N,N,N,N,0,0,189,275797,196515,0,0,0,0,154181,0,0,0,120181,2,0,0,0,0,2,0,0,0,2,75740,0,3730,0,0,0,3730,370279,0,0,0,370279,1,1,0,0,2,0,0,0,0,0,0,0,0,0,0,0,0,0,0,0,0,0,0,0,0,0,0,0,0,0,0,0,10017.0,U S - MEXICO FOUNDATION FOR CULTURE INC,GRANT HERMANN SCHWARTZ & KLINGER,675 THIRD AVE STE 1200,NEW YORK,NY,10017-5704,0.0,3.0,1.0,200308.0,1.0,3.0,0.0,0.0,0.0,1.0,13.0,0.0,1.0,12,,,,T23,,B,A,A,AR,AR,AR,IN,,PF,S,ZC,A,0.875138,36061.0,5602.0,5600.0,core2005pf_ver1,PC,S,ZB,A,IN,,T23,T
1214,30453739,2005,200503,200635.0,29491217084086.0,B05,N,Y,0.0,1.0,2004,2.0,1.0,1.0,3,0.0,115,0,0,0,0,0,0,0,115,115,0,0,0,0,1,0,0,0,0,0,1,0,0,N,N,N,N,Y,N,N,N,N,N,N,N,N,N,N,N,N,N,N,0,0,0,0,115,0,2,0,0,0,0,0,0,0,0,0,0,0,0,0,0,0,0,0,0,0,1,0,0,0,1,117,117,111,90,435,117,117,111,90,435,117,117,111,90,435,0,0,0,0,0,0,0,0,0,0,0,0,0,0,0,0,0,0,0,0,0,0,11352.0,GLOBE CONSULTATIVE REVIEW FOUNDATION M S ED DIRECTOR,FRANK HOPE,PO BOX 520694,FLUSHING,NY,11352-0694,0.0,3.0,1.0,200510.0,1.0,3.0,0.0,0.0,0.0,1.0,11.0,0.0,1.0,3,,,,A33,,A,A,A,AR,AR,AR,IN,,PF,O,AR,A,0.674222,36081.0,5602.0,5600.0,core2005pf_ver1,PC,O,AR,A,IN,,A33,A
2832,43649708,2005,200512,200648.0,29491315045036.0,A51,N,Y,0.0,1.0,2005,2.0,4.0,3.0,3,0.0,33750,472,0,0,0,0,0,0,34222,51353,-17131,50770,0,0,119983,0,0,0,0,0,119983,0,6331,N,N,N,N,Y,N,N,N,N,N,N,N,N,N,N,N,N,N,N,0,0,472,0,51353,583,50770,583,0,119983,0,0,0,119983,0,0,0,0,0,0,0,0,0,0,128549,6331,1,0,0,0,1,0,0,0,0,0,1,0,0,0,1,0,0,0,0,0,0,0,0,0,0,0,0,0,0,0,0,0,0,0,0,0,0,0,0,0,0,0,10025.0,PISANO CHASE CATALOGUE RAISONNE PROJECT INC,D FREDERICK BAKER,375 RIVERSIDE DR ATE 13B,NEW YORK,NY,10025-2149,0.0,3.0,2.0,200302.0,1.0,3.0,0.0,0.0,0.0,1.0,13.0,0.0,1.0,12,,,,A51,,B,A,A,AR,AR,AR,IN,,PF,O,AR,A,0.11413800000000002,36061.0,5602.0,5600.0,core2005pf_ver1,PC,O,AR,A,IN,,A51,A
4395,53842834,2005,200509,200638.0,29491238012146.0,A23Z,N,Y,0.0,1.0,2004,3.0,1.0,1.0,3,60.0,0,0,0,0,0,0,0,0,0,0,0,0,0,0,0,0,0,0,0,0,0,0,0,N,N,N,N,N,N,Y,N,N,N,N,N,N,N,N,N,N,N,N,0,0,0,0,0,0,0,0,0,0,0,0,0,0,0,0,0,0,0,0,0,0,0,0,0,0,0,0,0,0,0,0,0,0,0,0,0,0,0,0,0,0,0,0,0,0,0,0,0,0,0,0,0,0,0,0,0,0,0,0,0,0,0,0,0,0,0,0,10118.0,FREDERICK BROWN MUSEUM INC,L WOLLIN,350 FIFTH AVE STE 2822,NEW YORK,NY,10118-2899,0.0,3.0,1.0,199511.0,1.0,4.0,60.0,0.0,0.0,1.0,13.0,0.0,1.0,9,,M,,A50,,A,A,A,AR,AR,AR,IN,,PF,O,AR,A,0.674763,36061.0,5602.0,5600.0,core2005pf_ver1,PC,O,AR,A,IN,,A50,A
4534,60742976,2005,200506,200613.0,29491070095016.0,,N,Y,0.0,1.0,2004,2.0,3.0,1.0,3,59.0,0,5,0,0,0,0,0,0,5,36860,-36855,9677,5,5,28883,0,0,0,0,0,28883,0,146,N,N,N,Y,Y,N,N,N,N,N,N,N,N,N,N,N,N,N,N,0,0,5,5,36860,0,9677,0,0,0,0,0,0,28883,0,0,0,0,0,0,0,0,0,0,2968,0,5,9,75,162,251,9677,62655,374568,601020,1047920,28883,65738,86786,147618,329025,26065,53238,81656,125247,286206,97,95,753,657,1602,0,0,0,0,0,0,0,0,0,0,0,0,0,0,0,0,0,10001.0,WHITE BARN THEATRE FOUNDATION INC,HECHT AND COMPANY P C,322 8TH AVENUE,NEW YORK,NY,10001-8001,0.0,3.0,2.0,195207.0,1.0,3.0,59.0,0.0,0.0,1.0,13.0,0.0,1.0,6,,,,A65,,B,A,A,AR,AR,AR,IN,,PF,O,AR,A,0.920855,36061.0,5602.0,5600.0,core2005pf_ver1,PC,O,AR,A,IN,,A65,A
5064,61532031,2005,200512,200648.0,29491315048006.0,A12,N,Y,0.0,1.0,2005,3.0,6.0,1.0,3,0.0,0,125,0,0,0,0,0,60000,125,60250,-60125,60250,125,0,1400263,0,0,0,0,4000,1400263,0,71676,N,N,N,N,N,N,N,N,N,N,N,N,N,N,N,N,N,N,N,0,0,125,0,250,0,250,0,0,5263,0,0,0,1396263,3,0,0,0,0,0,0,0,0,3,1455351,71673,0,0,0,0,0,0,0,0,0,0,0,0,0,0,0,0,0,0,0,0,0,0,0,0,0,0,0,0,0,0,0,0,0,0,0,0,0,0,0,0,3,0,10021.0,ALEPH FOUNDATION FOR HUMANITIES,JOEL ORNSTEIN,667 MADISON AVE 11TH FLR,NEW YORK,NY,10021-8029,0.0,3.0,1.0,199904.0,1.0,4.0,0.0,0.0,0.0,1.0,13.0,0.0,1.0,12,,,,A70,,A,A,A,AR,AR,AR,IN,,PF,O,AR,A,0.365021,36061.0,5602.0,5600.0,core2005pf_ver1,PC,O,AR,A,IN,,A70,A
5109,61551999,2006,200606,200649.0,29491329025176.0,A68,N,Y,0.0,1.0,2005,2.0,3.0,3.0,3,0.0,30641,1467,0,0,0,2831,0,23650,34939,47216,-12277,44379,1467,1467,44692,0,0,0,0,0,44692,0,2788,N,Y,N,N,Y,N,N,N,N,N,N,N,N,N,N,N,Y,N,N,0,0,1467,4298,23566,0,20729,0,2831,3522,0,0,0,44692,15,0,0,0,0,0,0,0,0,15,56605,0,1467,0,0,0,1467,21879,19583,21841,21045,84348,0,0,0,0,0,0,0,0,0,0,1859,2239,3143,3731,10972,0,0,0,0,0,0,0,0,0,0,0,0,0,0,0,15,0,10463.0,JOYCE DUTKA ARTS FOUNDATION INC,JOYCE DUTKA,PO BOX 630053,BRONX,NY,10463-0800,0.0,3.0,1.0,200004.0,1.0,3.0,0.0,0.0,0.0,1.0,13.0,0.0,1.0,6,,,,A12,61.0,B,A,A,AR,AR,AR,IN,,PF,S,ZB,A,0.338854,36005.0,5602.0,5600.0,core2005pf_ver1,PC,S,ZB,A,IN,,A1261,A
5967,112538932,2005,200512,200625.0,29491161193106.0,,N,Y,0.0,1.0,2005,3.0,4.0,1.0,3,40.0,0,440,6360,0,0,0,0,26937,6800,27207,-20407,26937,6800,0,158179,150002,0,0,150002,0,153261,0,8293,N,N,N,N,N,N,N,N,N,N,N,N,N,N,N,N,N,N,N,0,0,6800,0,270,0,0,0,0,0,0,0,0,158179,136,0,0,0,0,0,0,0,0,136,168382,8157,0,0,0,0,0,0,0,0,0,0,0,0,0,0,0,0,0,0,0,0,0,0,0,0,0,0,0,0,0,0,0,0,0,0,0,0,0,0,0,0,136,0,10021.0,RICHARD H GOLDMAN MEMORIAL FOUNDA TION,,150 E 69TH ST APT 7G,NEW YORK,NY,10021-5704,0.0,3.0,1.0,198107.0,1.0,4.0,40.0,0.0,0.0,2.0,13.0,0.0,1.0,12,,,,A80,,C,A,A,AR,AR,AR,IN,,PF,O,AR,A,0.9288290000000001,36061.0,5602.0,5600.0,core2005pf_ver1,PC,O,AR,A,IN,,A80,A
6000,112620092,2005,200506,200604.0,29491007001066.0,,N,Y,0.0,20.0,2004,3.0,1.0,1.0,3,91.0,0,0,0,0,0,0,0,0,1,0,1,0,0,0,8000,0,0,0,0,67527,8000,0,394,N,N,N,N,N,N,N,N,N,N,N,N,N,N,N,N,N,N,N,0,0,0,0,0,0,0,0,0,0,0,0,0,-59527,0,0,0,0,0,0,0,0,0,0,8000,0,0,0,0,0,0,0,0,0,0,0,0,0,0,0,0,0,0,0,0,0,0,0,0,0,0,0,0,0,0,0,0,0,0,0,0,0,0,0,0,0,0,0,11355.0,INSTITUTE FOR ADVANCED STUDIES OF CHINESE ART INC,,5945 154TH PL,FLUSHING,NY,11355-5508,0.0,3.0,1.0,198311.0,1.0,4.0,91.0,93.0,123.0,1.0,11.0,198706.0,1.0,6,,,,A25,,A,A,A,AR,AR,AR,IN,,PF,O,AR,A,0.541295,36081.0,5602.0,5600.0,core2005pf_ver1,PC,O,AR,A,IN,,T20,T
6081,112801382,2005,200506,200610.0,29491042033116.0,,N,Y,0.0,1.0,2004,3.0,1.0,1.0,3,124.0,0,0,0,0,0,0,0,0,1,0,1,0,0,0,400,0,0,0,0,0,400,0,0,N,N,N,N,N,N,N,N,N,N,N,N,N,N,N,N,N,N,N,0,0,0,0,0,0,0,0,0,0,0,0,0,400,0,0,0,0,0,0,0,0,0,0,0,0,0,0,0,0,0,0,0,0,0,0,0,0,0,0,0,0,0,0,0,0,0,0,0,0,0,0,0,0,0,0,0,0,0,0,0,0,0,0,0,0,0,0,11206.0,THE MOVEMENT INTERFACE RESEARCH INSTITUTE INC,,54 BOERUM ST 11N,BKLYN NY,NY,11206-2418,0.0,3.0,1.0,198702.0,1.0,4.0,124.0,209.0,0.0,1.0,11.0,0.0,1.0,6,,,,A70,,C,A,A,AR,AR,AR,IN,,PF,O,AR,A,0.584862,36047.0,5602.0,5600.0,core2005pf_ver1,PC,O,AR,A,IN,,A70,A
6125,112864409,2006,200602,200628.0,29491168091136.0,,N,Y,0.0,1.0,2005,3.0,1.0,1.0,3,602.0,0,166,0,0,0,0,0,100,166,165,1,165,101,101,5724,0,0,0,0,0,5724,0,281,N,N,N,N,N,N,N,N,N,N,N,N,N,N,N,N,N,N,N,0,0,166,166,65,65,65,65,65,5724,0,0,0,5724,0,0,0,0,0,0,0,0,0,0,5724,0,0,0,0,0,0,0,0,0,0,0,0,0,0,0,0,0,0,0,0,0,0,0,0,0,0,0,0,0,0,0,0,0,0,0,0,0,0,0,0,0,0,0,10021.0,THE PHILIP KAPLAN CULTURAL FOUNDATION INC,,530 E 72ND ST APT 5D,NEW YORK,NY,10021-4844,0.0,3.0,1.0,198709.0,1.0,4.0,602.0,0.0,0.0,1.0,13.0,0.0,1.0,2,,,,A12,20.0,B,A,A,AR,AR,AR,IN,,PF,S,ZB,A,0.0767175,36061.0,5602.0,5600.0,core2005pf_ver1,PC,S,ZB,A,IN,,A1220,A
6156,112942428,2005,200512,200626.0,29491162235086.0,,N,Y,0.0,1.0,2005,3.0,2.0,1.0,3,90.0,5878,0,0,0,0,0,0,0,5878,11191,-5313,0,0,0,19754,0,0,0,0,0,16904,0,0,N,N,N,N,N,N,N,N,N,N,N,N,N,N,N,N,N,N,N,0,0,0,0,11191,0,0,0,0,1806,0,0,0,19754,0,0,0,0,0,0,0,0,0,0,0,0,0,0,0,0,0,0,0,0,0,0,0,0,0,0,0,0,0,0,0,0,0,0,0,0,0,0,0,0,0,0,0,0,0,0,0,0,0,0,0,0,0,0,10122.0,PODVAL ARTS AND POETRY GALLERIES LTD,V MOLOT ESQ,225 W 34TH ST STE 1504,NEW YORK,NY,10122-1599,0.0,3.0,1.0,198903.0,1.0,4.0,90.0,0.0,0.0,1.0,13.0,0.0,1.0,12,,,,A70,,A,A,A,AR,AR,AR,IN,,PF,O,AR,A,0.201544,36061.0,5602.0,5600.0,core2005pf_ver1,PC,O,AR,A,IN,,A70,A
6164,112948645,2006,200606,200647.0,29491301039186.0,,N,Y,0.0,1.0,2005,3.0,4.0,3.0,3,602.0,0,2882,0,0,0,0,0,0,66181,81181,-15000,2937,0,0,128826,0,0,0,0,0,128826,0,6714,N,N,N,N,N,N,N,N,N,N,N,N,N,N,N,N,N,N,N,63299,0,66181,66181,81181,78244,2937,78244,78244,8359,0,0,0,128826,0,0,0,423,0,0,0,0,423,0,136326,6714,0,0,0,0,0,0,0,0,0,0,0,0,0,0,0,0,0,0,0,0,0,0,0,0,0,0,0,0,0,0,0,0,0,0,0,0,0,0,0,0,-423,0,11354.0,WORLD JOURNAL CULTURE FOUNDATION INC,,141 07 20 AVE 6 FLR,FLUSING,NY,11354-0000,0.0,3.0,1.0,198909.0,1.0,4.0,602.0,0.0,0.0,1.0,11.0,0.0,1.0,6,,,,A33,,A,A,A,AR,AR,AR,IN,,PF,O,AR,A,0.0801875,36081.0,5602.0,5600.0,core2005pf_ver1,PC,O,AR,A,IN,,A33,A
6205,113027025,2005,200512,200642.0,29491273005206.0,A23Z,N,Y,0.0,1.0,2005,3.0,2.0,1.0,3,119.0,0,2,454,0,0,0,0,545,456,4595,-4139,3615,0,456,13094,0,0,0,0,0,8084,0,659,N,Y,N,N,N,N,N,N,N,N,N,N,N,N,N,N,N,N,N,0,0,456,456,4050,870,3070,870,0,275,0,9970,0,13094,0,0,0,0,0,0,0,0,0,0,13379,659,0,0,0,0,0,0,0,0,0,0,0,0,0,0,0,0,0,0,0,0,0,0,0,0,0,0,0,0,0,0,0,0,0,0,0,0,0,0,0,0,0,0,10021.0,SJMS HUMANITIES ARTS AND SCIENCES CHARITY INC,MELVIN ROSEN,340 E 74TH ST,NEW YORK,NY,10021-3737,0.0,3.0,1.0,199108.0,1.0,4.0,119.0,0.0,0.0,1.0,13.0,0.0,1.0,12,,,,A70,,A,A,A,AR,AR,AR,IN,,PF,O,AR,A,0.5757,36061.0,5602.0,5600.0,core2005pf_ver1,PC,O,AR,A,IN,,A70,A
6208,113028110,2005,200512,200625.0,29491147094136.0,,N,Y,0.0,1.0,2005,3.0,1.0,3.0,3,429.0,0,0,0,0,0,85974,0,5070,85974,94937,-8963,0,0,0,2420,0,0,0,0,0,2420,0,0,N,N,N,N,N,N,N,N,N,N,N,N,N,N,N,N,N,N,N,0,0,0,0,89867,0,0,0,0,1120,0,0,0,2420,0,0,0,0,0,0,0,0,0,0,0,0,0,0,0,0,0,0,0,0,0,0,0,0,0,0,0,0,0,0,0,0,0,0,0,0,0,0,0,0,0,0,0,0,0,0,0,0,0,0,0,0,0,0,11218.0,LAC HONG MAGAZINE,DIEN THOAI,81 OCEAN PKWY APT 1K,BROOKLYN,NY,11218-1713,0.0,3.0,2.0,199203.0,1.0,4.0,429.0,120.0,408.0,1.0,11.0,0.0,1.0,12,,,,A33,,A,A,A,AR,AR,AR,IN,,PF,O,AR,A,0.248979,36047.0,5602.0,5600.0,core2005pf_ver1,PC,O,AR,A,IN,,A33,A
6241,113080063,2006,200605,200650.0,29491329061206.0,,N,Y,0.0,1.0,2005,3.0,1.0,3.0,3,998.0,2500,0,0,0,54192,0,2450,0,56692,60532,-3840,0,0,54192,1061,0,0,0,0,0,1061,0,0,N,N,N,N,N,N,N,N,N,N,N,N,N,N,N,N,N,N,N,0,0,0,54192,60532,0,0,0,0,1061,0,0,0,1061,0,0,0,0,0,0,0,0,0,0,0,0,0,0,0,0,0,0,0,0,0,0,0,0,0,0,0,0,0,0,0,0,0,0,0,0,0,0,0,0,0,0,0,0,0,0,0,0,0,0,0,0,0,0,10464.0,ONE WORLD ARTS INCORPORATED,NANCY FRIEDMAN,PO BOX 7,BRONX,NY,10464-0007,0.0,3.0,1.0,199207.0,1.0,4.0,998.0,0.0,0.0,1.0,13.0,0.0,1.0,5,,,,A60,,A,A,A,AR,AR,AR,IN,,PF,O,AR,A,0.497039,36005.0,5602.0,5600.0,core2005pf_ver1,PC,O,AR,A,IN,,A60,A
6292,113162087,2005,200512,200651.0,29491336149206.0,,N,Y,0.0,1.0,2005,3.0,6.0,5.0,3,994.0,566085,0,0,0,0,270068,0,0,836153,714964,121189,676139,0,233284,1869557,0,565316,0,565316,484118,1869557,0,1539,N,N,N,N,N,N,N,N,N,N,N,N,N,N,N,N,N,N,N,0,0,0,270068,714964,0,676139,0,36784,48986,0,0,0,1385439,0,0,0,0,0,0,0,0,0,0,31255,0,0,0,0,0,0,0,0,0,0,0,0,0,0,0,0,0,0,0,0,0,0,0,0,0,0,0,0,0,0,0,0,0,0,0,0,0,0,0,0,0,0,0,10018.0,AMERICAN AIRPOWER MUSEUM,AVIREX LTD,15 W 39TH ST,NEW YORK,NY,10018-3806,0.0,3.0,1.0,199308.0,1.0,4.0,994.0,60.0,0.0,1.0,13.0,0.0,1.0,12,,,,A50,,B,A,A,AR,AR,AR,IN,,PF,O,AR,A,0.724603,36061.0,5602.0,5600.0,core2005pf_ver1,PC,O,AR,A,IN,,A50,A
6359,113227149,2006,200606,200646.0,29491238061036.0,A47P,N,Y,0.0,1.0,2005,3.0,2.0,3.0,3,91.0,0,0,0,0,0,49810,0,0,49810,40304,9506,0,0,0,12261,0,0,0,0,5047,12261,0,0,N,N,N,N,N,N,N,N,N,N,N,N,N,N,N,N,N,N,N,0,0,0,0,40304,0,0,0,0,11116,0,0,0,7214,0,0,0,0,0,0,0,0,0,0,3600,0,0,0,0,0,0,0,0,0,0,0,0,0,0,0,0,0,0,0,0,0,0,0,0,0,0,0,0,0,0,0,0,0,0,0,0,0,0,0,0,0,0,0,11231.0,CLAYWORKS ON COLUMBIA INC,,195 COLUMBIA STREET,BROOKLYN,NY,11231-0000,0.0,3.0,3.0,199612.0,1.0,4.0,91.0,149.0,59.0,1.0,11.0,0.0,1.0,6,,,,A40,,B,A,A,AR,AR,AR,IN,,PF,O,AR,A,0.590454,36047.0,5602.0,5600.0,core2005pf_ver1,PC,O,AR,A,IN,,A40,A
6398,113247858,2005,200512,200626.0,29491162157196.0,T30J,N,Y,0.0,1.0,2005,3.0,1.0,1.0,3,994.0,0,0,0,0,0,0,0,0,1,0,1,0,0,0,1,0,0,0,0,0,1,0,0,N,N,N,N,N,N,N,N,N,N,N,N,N,N,N,N,N,N,N,0,0,0,0,0,0,0,0,0,0,0,0,0,0,0,0,0,0,0,0,0,0,0,0,0,0,0,0,0,0,0,0,0,0,0,0,0,0,0,0,0,0,0,0,0,0,0,0,0,0,0,0,0,0,0,0,0,0,0,0,0,0,0,0,0,0,0,0,11210.0,KOTEL MUSEUM FUND INC,SAADIA SHAPIRO,1300 FLATBUSH AVE,BROOKLYN,NY,11210-1233,0.0,3.0,1.0,199504.0,1.0,4.0,994.0,602.0,0.0,1.0,11.0,0.0,1.0,12,,,,A50,,A,A,A,AR,AR,AR,IN,,PF,O,AR,A,0.403871,36047.0,5602.0,5600.0,core2005pf_ver1,PC,O,AR,A,IN,,A50,A
6406,113267073,2006,200606,200641.0,29491252161026.0,Z99Z,N,Y,0.0,25.0,2005,3.0,2.0,1.0,3,994.0,4452,0,0,0,0,0,0,0,4452,210,4242,210,0,4452,10038,0,0,0,0,0,10038,0,0,N,N,N,N,N,N,N,N,N,N,N,N,N,N,N,N,N,N,N,0,0,0,4452,210,0,210,0,0,0,0,0,0,10038,0,0,0,0,0,0,0,0,0,0,0,0,0,0,0,0,0,0,0,0,0,0,0,0,0,0,0,0,0,0,0,0,0,0,0,0,0,0,0,0,0,0,0,0,0,0,0,0,0,0,0,0,0,0,11426.0,ASSOC FOR THE HISTORIC RESTORATION AND THE PRESERVATION OF LIVES,,246 03 86 RD,JAMAICA,NY,11426-1625,0.0,3.0,1.0,199611.0,1.0,4.0,994.0,160.0,0.0,1.0,11.0,200912.0,1.0,6,A H R P L,,,A80,,B,A,A,AR,AR,AR,IN,,PF,O,AR,A,0.304616,36081.0,5602.0,5600.0,core2005pf_ver1,PC,O,AR,A,IN,,A80,A
6768,113498583,2005,200507,200629.0,29491112065196.0,T22,N,Y,0.0,1.0,2004,3.0,7.0,4.0,3,0.0,79112,0,178020,0,0,148771,62000,0,405903,313666,92237,0,0,0,5211802,374875,2262959,500000,3137834,10472,6311768,0,0,N,N,N,N,N,N,N,N,N,N,N,N,N,N,N,N,N,N,N,0,0,0,0,313666,0,0,0,0,0,0,69546,0,5201330,0,0,0,0,0,0,0,0,0,0,0,0,0,0,0,0,0,0,0,0,0,0,0,0,0,0,0,0,0,0,0,0,0,0,0,0,0,0,0,0,0,0,0,0,0,0,0,0,0,0,0,0,0,0,11354.0,VOELKER-ORTH MUSEUM,CATHERINE ABRAMS,149 19 38TH AVE,FLUSHING,NY,11354-4839,0.0,3.0,1.0,200006.0,1.0,4.0,0.0,0.0,0.0,5.0,11.0,0.0,1.0,7,,,,A50,,A,A,A,AR,AR,AR,IN,,PF,O,AR,A,0.9882110000000001,36081.0,5602.0,5600.0,core2005pf_ver1,PC,O,AR,A,IN,,A50,A
6769,113499131,2005,200512,200651.0,29491336025126.0,X30,N,Y,0.0,1.0,2005,3.0,1.0,1.0,3,0.0,0,56,0,0,0,0,0,9000,56,12700,-12644,12700,0,0,6689,0,0,0,0,2000,6689,0,329,N,N,N,N,N,N,N,N,N,N,N,N,N,N,N,N,N,N,N,0,0,0,0,3700,0,3700,0,0,6689,0,0,0,4689,0,0,0,0,0,0,0,0,0,0,6684,329,0,0,0,0,0,0,0,0,0,0,0,0,0,0,0,0,0,0,0,0,0,0,0,0,0,0,0,0,0,0,0,0,0,0,0,0,0,0,0,0,0,0,11204.0,INTERNATIONAL COMMITTEE FOR PRESERVATION OF GRAVESITES OF,A ROMI COHN,5312 17TH AVE,BROOKLYN,NY,11204-1423,0.0,3.0,1.0,199910.0,1.0,4.0,0.0,0.0,0.0,2.0,11.0,0.0,1.0,12,GEONAI PRESSBURG,,,A82,,B,A,A,AR,AR,AR,IN,,PF,O,AR,A,0.940375,36047.0,5602.0,5600.0,core2005pf_ver1,PC,O,AR,A,IN,,X30,X
6907,113559712,2005,200512,200651.0,29491336136026.0,A51,N,Y,0.0,1.0,2005,2.0,6.0,3.0,3,0.0,0,0,0,406,0,0,0,0,406,14219,-13813,12931,0,0,2597426,0,0,0,0,0,2627658,0,0,N,N,N,N,Y,N,N,N,N,N,N,N,N,N,N,N,N,N,N,0,0,0,0,14219,0,12931,0,0,58138,0,0,0,2597426,0,0,0,0,0,0,0,0,0,0,0,0,1,0,0,0,1,12931,13290,16935,7549,50705,2627658,2656914,2621411,2638793,10544776,2563738,2611240,2559891,2575305,10310174,0,0,0,0,0,0,0,0,0,0,0,0,0,0,0,0,0,0,0,0,0,0,11215.0,HAROLD WESTON FOUNDATION,REBECCA FOSTER,144 GARFIELD PL 4R,BROOKLYN,NY,11215-2177,0.0,3.0,1.0,200108.0,1.0,3.0,0.0,0.0,0.0,2.0,11.0,0.0,1.0,12,,,,A51,,B,A,A,AR,AR,AR,IN,,PF,O,AR,A,0.912602,36047.0,5602.0,5600.0,core2005pf_ver1,PC,O,AR,A,IN,,A51,A
6961,113586236,2005,200512,200650.0,29491322043246.0,A20,N,Y,0.0,20.0,2005,3.0,1.0,1.0,3,0.0,0,0,0,0,0,0,0,0,1,0,1,0,0,0,1,0,0,0,0,0,1,0,0,N,N,N,N,N,N,N,N,N,N,N,N,N,N,N,N,N,N,N,0,0,0,0,0,0,0,0,0,0,0,0,0,0,0,0,0,0,0,0,0,0,0,0,0,0,0,0,0,0,0,0,0,0,0,0,0,0,0,0,0,0,0,0,0,0,0,0,0,0,0,0,0,0,0,0,0,0,0,0,0,0,0,0,0,0,0,0,11432.0,FRIENDS OF SANTA CLARA DEL COBRE INC,ROY SKODNICK,175-20 WEXFORD TER STE 4M,JAMAICA,NY,11432-2835,0.0,3.0,1.0,200302.0,1.0,15.0,0.0,0.0,0.0,1.0,11.0,200412.0,10.0,12,,,,A20,,B,A,A,AR,AR,AR,IN,,PC,O,AR,A,0.255306,36081.0,5602.0,5600.0,core2005pf_ver1,PC,O,AR,A,IN,,A20,A
6996,113630680,2005,200506,200626.0,29491154011186.0,A51,N,Y,0.0,1.0,2004,2.0,5.0,4.0,3,0.0,191100,522,0,520,0,1389,0,23125,193531,353418,-159887,328504,784,0,842907,0,0,0,0,49330,842907,0,42980,N,Y,N,N,Y,N,N,N,N,Y,N,N,N,N,N,N,N,N,N,0,0,1042,1911,330293,258,305379,258,1911,2355,0,715135,0,793577,8,0,0,47,0,0,0,0,39,8,872700,0,1,0,0,0,1,328504,269644,379076,118457,1095681,1,0,0,0,1,0,0,0,0,0,0,0,0,0,0,0,0,0,0,0,0,0,0,0,0,0,0,0,0,0,-39,0,11101.0,DORSKY GALLERY CURATORIAL PROGRAMS,DAVID DORSKY,1103 45TH AVE,LONG IS CITY,NY,11101-5109,0.0,3.0,1.0,200204.0,1.0,3.0,0.0,0.0,0.0,1.0,11.0,0.0,1.0,6,,,,A51,,B,A,A,AR,AR,AR,IN,,PF,O,AR,A,0.326853,36081.0,5602.0,5600.0,core2005pf_ver1,PC,O,AR,A,IN,,A50,A
7187,116036776,2006,200603,200641.0,29491252141216.0,,N,Y,0.0,1.0,2005,2.0,5.0,3.0,3,60.0,42469,0,0,0,0,0,0,0,42469,28291,14178,18881,0,0,701202,0,0,0,0,6558,701202,0,0,N,N,N,N,Y,N,N,N,N,N,N,N,N,N,N,N,N,N,N,0,0,0,0,28291,0,18881,0,9410,27770,0,0,0,694644,0,0,0,0,0,0,0,0,0,0,0,0,1,0,0,0,1,18881,17081,31691,43170,110823,0,0,0,0,0,0,0,0,0,0,1183,859,892,821,3755,0,0,0,0,0,0,0,0,0,0,0,0,0,0,0,0,0,10012.0,ANONYMOUS ARTS RECOVERY SOCIETY INCORPORATED,,380 W BROADWAY,NEW YORK,NY,10012-5115,0.0,3.0,1.0,196311.0,1.0,3.0,60.0,91.0,0.0,1.0,13.0,0.0,1.0,3,,,,A03,,A,A,A,AR,AR,AR,IN,,PF,O,AR,A,0.8832540000000001,36061.0,5602.0,5600.0,core2005pf_ver1,PC,O,AR,A,IN,,A03,A
7413,116588142,2004,200412,200607.0,29491344290085.0,T20,N,Y,0.0,1.0,2004,3.0,5.0,3.0,3,0.0,60000,267,13293,0,0,0,0,21000,73560,82700,-9140,0,3564,3564,742991,310188,249088,289315,848591,206011,764999,29556,29592,N,N,N,N,N,N,N,N,N,N,N,N,N,N,N,N,N,N,N,0,0,13560,13560,61700,9996,0,9996,9996,168541,0,0,0,536980,36,0,0,0,0,0,0,0,0,36,600843,29556,0,0,0,0,0,0,0,0,0,0,0,0,0,0,0,0,0,0,0,0,0,0,0,0,0,0,0,0,0,0,0,0,0,0,0,0,0,0,0,0,36,0,10012.0,SPIRALIS MUSIC TR,DAY BERRY & HOWARD LLP,188 SULLIVAN ST,NEW YORK,NY,10012-2507,0.0,3.0,1.0,200401.0,1.0,4.0,0.0,0.0,0.0,2.0,13.0,0.0,1.0,12,CHOU WEN-CHUNG TTEE,,,A68,,A,A,A,AR,AR,AR,IN,,PF,O,AR,A,0.6301180000000001,36061.0,5602.0,5600.0,core2005pf_ver1,PC,O,AR,A,IN,,A68,A
7427,130429640,2005,200512,200651.0,29491336074036.0,,N,Y,0.0,1.0,2005,2.0,9.0,8.0,3,65.0,0,0,8607890,625753,0,599912,160000,1114245,9833555,2581984,7251571,2466653,9186578,9718224,64612470,9151168,41000178,0,50151346,0,64482804,0,2915965,N,N,N,N,Y,N,N,N,N,N,N,N,N,N,N,N,N,N,N,0,0,9233643,9833555,1467739,47065,1352408,47065,115331,405465,0,9066201,0,64612470,0,0,0,0,0,0,0,0,0,0,59207404,0,2915965,2934888,2781696,2541928,11174477,2419588,2346891,2108873,1844742,8720094,0,0,0,0,0,0,0,0,0,0,1943977,1956592,1854464,1694619,7449652,0,0,0,0,0,0,0,0,0,0,0,0,0,0,0,0,0,10032.0,AMERICAN ACADEMY OF ARTS AND LETTERS,,633 W 155TH ST,NEW YORK,NY,10032-7501,0.0,3.0,2.0,193503.0,1.0,2.0,65.0,207.0,60.0,1.0,13.0,0.0,1.0,12,,,,A25,,A,A,A,AR,AR,AR,IN,,PF,O,AR,A,0.378173,36061.0,5602.0,5600.0,core2005pf_ver1,PC,O,AR,A,IN,,A25,A
7455,131656673,2005,200512,200641.0,29491252138086.0,,N,Y,0.0,1.0,2005,2.0,8.0,7.0,3,119.0,5066633,887,64793,249918,467,422866,61154,17950,5805564,691354,5114210,224796,295924,66631,10143727,64847,1323996,74029,1462872,136963,10143727,0,124115,N,N,N,N,Y,N,N,N,N,N,N,N,N,N,N,N,N,N,N,0,2362,315598,489013,673404,19674,206846,19674,422382,4049,0,620556,0,10006764,5918,0,0,900,0,0,0,7,0,5918,2520103,0,66631,85596,92577,81296,326100,224796,213558,218914,265202,922470,0,0,0,0,0,0,0,0,0,0,82743,79255,69589,68835,300422,0,0,0,0,0,0,0,0,0,0,0,0,0,0,0,5025,0,10036.0,NATIONAL SCULPTURE SOCIETY,,15TH FLOOR,NEW YORK,NY,10036-0000,0.0,3.0,2.0,193901.0,1.0,3.0,119.0,59.0,40.0,1.0,13.0,0.0,1.0,12,,,,A40,,A,A,A,AR,AR,AR,IN,,PF,O,AR,A,0.229948,36061.0,5602.0,5600.0,core2005pf_ver1,PC,O,AR,A,IN,,A40,A
7492,131873289,2005,200512,200624.0,29491140114236.0,A50Z,N,Y,0.0,1.0,2005,3.0,6.0,3.0,3,119.0,31900,51,46551,168416,0,0,0,83743,246919,160121,86798,136436,191409,0,1808667,35126,1258147,496486,1789759,771,1808667,0,101343,N,Y,N,N,N,N,N,N,N,N,N,N,N,N,N,N,Y,N,N,0,0,215019,0,76378,23610,52693,23610,0,6903,0,0,0,1807895,1914,0,0,2500,0,0,0,0,586,1914,2057724,94429,0,0,0,0,0,0,0,0,0,0,0,0,0,0,0,0,0,0,0,0,0,0,0,0,0,0,0,0,0,0,0,0,0,0,0,0,0,0,0,0,-586,0,10017.0,BAGBY FOUNDATION FOR THE MUSICAL ARTS INC,,501 FIFTH AVE,NEW YORK,NY,10017-6103,0.0,3.0,1.0,194211.0,1.0,4.0,119.0,0.0,0.0,1.0,13.0,0.0,1.0,12,,,,A68,,A,A,A,AR,AR,AR,IN,,PF,O,AR,A,0.726698,36061.0,5602.0,5600.0,core2005pf_ver1,PC,O,AR,A,IN,,A68,A
7501,131926551,2005,200512,200624.0,29491140153046.0,,Y,N,0.0,1.0,2005,3.0,0.0,0.0,3,119.0,0,0,0,0,0,0,0,0,0,0,0,0,0,0,0,0,0,0,0,0,0,0,0,N,N,N,N,N,N,N,N,N,N,N,N,N,N,N,N,N,N,N,0,0,0,0,0,0,0,0,0,0,0,0,0,0,0,0,0,0,0,0,0,0,0,0,0,0,0,0,0,0,0,0,0,0,0,0,0,0,0,0,0,0,0,0,0,0,0,0,0,0,0,0,0,0,0,0,0,0,0,0,0,0,0,0,0,0,0,0,10017.0,HARKNESS FOUNDATION FOR DANCE INC,,145 E 48TH ST 26C,NEW YORK,NY,10017-1259,0.0,3.0,1.0,197903.0,1.0,4.0,119.0,0.0,0.0,1.0,13.0,0.0,1.0,12,,,,A62,,A,A,A,AR,AR,AR,IN,,PF,O,AR,A,0.912106,36061.0,5602.0,5600.0,core2005pf_ver1,PC,O,AR,A,IN,,A62,A
7517,131966496,2004,200412,200604.0,29491344289145.0,A110,N,Y,0.0,1.0,2004,3.0,7.0,6.0,3,119.0,281047,148912,16941,81598,0,857,0,171735,529355,332120,197235,308948,231170,156895,5968003,4230385,1436176,0,5666561,14776,5968003,0,288552,N,Y,N,N,N,N,N,N,N,N,N,N,N,N,N,N,N,N,N,0,0,248308,174033,160385,17138,137213,17138,17138,199,0,0,0,5953227,2312,0,0,0,0,0,0,56,0,2312,5858920,0,0,0,0,0,0,0,0,0,0,0,0,0,0,0,0,0,0,0,0,0,0,0,0,0,0,0,0,0,0,0,0,0,0,0,0,0,0,0,0,0,2368,0,10016.0,AUTHORS LEAGUE FUND ESTABLISHED BY THE AUTHORS LEAGUE OF AMERICA INC,,31 E 28TH ST FL 10,NEW YORK,NY,10016-7923,0.0,1.0,1.0,193603.0,1.0,4.0,119.0,561.0,0.0,1.0,13.0,0.0,1.0,12,,,,A11,70.0,A,A,A,AR,AR,AR,IN,,PF,S,ZA,A,0.5721,36061.0,5602.0,5600.0,core2005pf_ver1,PC,S,ZA,A,IN,,A1170,A
7559,132621140,2005,200512,200626.0,29491162384086.0,,N,Y,0.0,1.0,2005,3.0,6.0,6.0,3,161.0,20791,0,90607,325912,0,0,10000,150000,437310,235518,201792,165727,356228,0,3944840,100000,3640590,95800,3836390,0,5102601,15031,234293,N,N,N,N,N,N,N,N,N,N,N,N,N,N,N,N,N,N,N,0,0,416519,0,85518,60291,15727,60291,0,0,0,0,0,3944840,7125,0,0,5036,0,0,0,0,0,7125,4757227,227168,0,0,0,0,0,0,0,0,0,0,0,0,0,0,0,0,0,0,0,0,0,0,0,0,0,0,0,0,0,0,0,0,0,0,0,0,0,0,0,0,2089,0,10158.0,VIOLA W BERNARD FOUNDATION INC,HARRY GOODKIN & CO,605 3RD AVE 2,NEW YORK,NY,10158-0180,0.0,3.0,1.0,196812.0,1.0,4.0,161.0,180.0,602.0,1.0,13.0,0.0,1.0,12,,,,A68,,A,A,A,AR,AR,AR,IN,,PF,O,AR,A,0.417401,36061.0,5602.0,5600.0,core2005pf_ver1,PC,O,AR,A,IN,,A68,A
7625,132874843,2005,200512,200626.0,29491162232206.0,,N,Y,0.0,1.0,2005,3.0,2.0,3.0,3,995.0,28500,0,0,0,0,850,0,0,29350,28940,410,28940,0,0,24863,0,0,0,0,0,24863,0,296,N,Y,N,N,N,N,N,Y,Y,N,N,N,N,N,N,N,N,N,N,0,0,0,0,28940,0,28940,0,0,24863,0,0,0,24863,0,0,0,0,0,0,0,0,0,0,6000,0,0,0,0,0,0,0,0,0,0,0,0,0,0,0,0,0,0,0,0,0,0,0,0,0,0,0,0,0,0,0,0,0,0,0,0,0,0,0,0,0,0,0,10023.0,LAURA PAWEL DANCE COMPANY INC,,15 W 72ND ST,NEW YORK,NY,10023-3402,0.0,3.0,2.0,197701.0,1.0,4.0,995.0,119.0,0.0,1.0,13.0,0.0,1.0,12,,,,A62,,A,A,A,AR,AR,AR,IN,,PF,O,AR,A,0.141539,36061.0,5602.0,5600.0,core2005pf_ver1,PC,O,AR,A,IN,,A62,A
7640,132893085,2005,200509,200644.0,29491280002176.0,,N,Y,0.0,1.0,2004,3.0,3.0,1.0,3,92.0,0,0,3218,19,0,800,0,3500,4037,6705,-2668,3500,3237,4018,91742,0,0,0,0,0,88526,0,4559,N,N,N,N,N,N,N,N,N,N,N,N,N,N,N,N,N,N,N,0,0,3237,4018,3205,0,0,0,0,1768,0,87500,0,91742,65,0,0,0,0,65,0,0,0,65,92559,4494,0,0,0,0,0,0,0,0,0,0,0,0,0,0,0,0,0,0,0,0,0,0,0,0,0,0,0,0,0,0,0,0,0,0,0,0,0,0,0,0,0,0,10022.0,NEW YORK DRAMA CRITIC CIRCLE INC,ROSENZWEIG & CO,845 THIRD AVE,NEW YORK,NY,10022-6601,0.0,3.0,2.0,197710.0,1.0,4.0,92.0,0.0,0.0,1.0,13.0,0.0,1.0,9,,,,A65,,C,A,A,AR,AR,AR,IN,,PF,O,AR,A,0.850675,36061.0,5602.0,5600.0,core2005pf_ver1,PC,O,AR,A,IN,,A65,A
7696,132958531,2005,200511,200626.0,29491147091006.0,,N,Y,0.0,1.0,2004,3.0,0.0,0.0,3,995.0,0,0,0,0,0,0,0,0,0,0,0,0,0,0,0,0,0,0,0,0,0,0,0,N,N,N,N,N,N,N,N,N,N,N,N,N,N,N,N,N,N,N,0,0,0,0,0,0,0,0,0,0,0,0,0,0,0,0,0,0,0,0,0,0,0,0,0,0,0,0,0,0,0,0,0,0,0,0,0,0,0,0,0,0,0,0,0,0,0,0,0,0,0,0,0,0,0,0,0,0,0,0,0,0,0,0,0,0,0,0,10108.0,CHAMBER PLAYERS LIMITED,CHRIS EREDE,TIMES SQ STATION BOX 346,NEW YORK,NY,10108-0346,0.0,3.0,1.0,197810.0,1.0,4.0,995.0,90.0,0.0,1.0,13.0,198311.0,1.0,11,,,,A65,,C,A,A,AR,AR,AR,IN,,PF,O,AR,A,0.933348,36061.0,5602.0,5600.0,core2005pf_ver1,PC,O,AR,A,IN,,A65,A
7781,133030931,2006,200606,200651.0,29491336201156.0,A84Z,N,Y,0.0,1.0,2005,2.0,1.0,1.0,3,64.0,5483,0,0,0,0,0,0,0,5483,6975,-1492,5530,0,0,311,0,0,0,0,0,1,0,0,N,N,N,N,Y,N,N,N,N,N,N,N,N,N,N,N,N,N,N,0,0,0,0,6975,0,5530,0,0,311,0,0,0,311,0,0,0,0,0,0,0,0,0,0,0,0,1,0,0,0,1,5530,0,17782,8073,31385,1,0,0,0,1,0,0,0,0,0,0,0,0,0,0,0,0,0,0,0,0,0,0,0,0,0,0,0,0,0,0,0,10037.0,MARTIN LUTHER KING JR NEW YORK SUPPORT GROUP INC,,2255 5TH AVENUE NO 12C,NEW YORK,NY,10037-2018,0.0,3.0,1.0,199705.0,1.0,3.0,64.0,0.0,0.0,1.0,13.0,0.0,1.0,6,,,,A84,,B,A,A,AR,AR,AR,IN,,PF,O,AR,A,0.480158,36061.0,5602.0,5600.0,core2005pf_ver1,PC,O,AR,A,IN,,A84,A
7784,133031485,2004,200412,200605.0,29491007087176.0,,N,Y,0.0,1.0,2004,3.0,7.0,7.0,3,119.0,1949132,37981,3115,-7598,0,2674419,300000,90050,4657049,2037297,2619752,1352008,41096,2713755,6673958,1650000,0,0,1650000,27714,6673958,0,142558,N,N,N,N,N,N,N,N,N,N,N,N,N,N,N,N,N,N,N,0,0,41096,2715515,1947247,0,1261958,0,1760,512430,0,0,0,6646244,822,0,0,0,0,0,0,5,0,822,2894570,0,0,0,0,0,0,0,0,0,0,0,0,0,0,0,0,0,0,0,0,0,0,0,0,0,0,0,0,0,0,0,0,0,0,0,0,0,0,0,0,0,827,0,10019.0,BARYSHNIKOV DANCE FOUNDATION INC,PNFW,156 W 56TH ST 4TH FL,NEW YORK,NY,10019-3877,0.0,3.0,1.0,197911.0,1.0,4.0,119.0,0.0,0.0,1.0,13.0,0.0,1.0,12,,,,A62,,A,A,A,AR,AR,AR,IN,,PF,O,AR,A,0.738124,36061.0,5602.0,5600.0,core2005pf_ver1,PC,O,AR,A,IN,,A62,A
7803,133042386,2005,200512,200634.0,29491217066106.0,,N,Y,0.0,1.0,2005,3.0,3.0,1.0,3,119.0,0,1388,0,0,0,0,0,0,1388,525,863,0,863,0,62113,0,0,0,0,0,62113,3042,3059,N,N,N,N,N,N,N,N,N,N,N,N,N,N,N,N,N,N,N,0,0,1388,0,525,525,0,525,0,62113,0,0,0,62113,17,0,0,0,0,17,0,0,0,17,62113,3042,0,0,0,0,0,0,0,0,0,0,0,0,0,0,0,0,0,0,0,0,0,0,0,0,0,0,0,0,0,0,0,0,0,0,0,0,0,0,0,0,0,0,10016.0,THE FOUNDATION FOR THE NATIONAL PERFORMING ARTS CENTRE OF INDIAINC,TATA INCORPORATED,3 PARK AVE STRE 27TH FLR,NEW YORK,NY,10016-5902,0.0,3.0,1.0,198011.0,1.0,4.0,119.0,93.0,0.0,1.0,13.0,0.0,1.0,12,,,,A12,60.0,A,A,A,AR,AR,AR,IN,,PF,S,ZB,A,0.397996,36061.0,5602.0,5600.0,core2005pf_ver1,PC,S,ZB,A,IN,,A1260,A
7808,133047538,2005,200512,200642.0,93491283000006.0,,N,Y,0.0,1.0,2005,3.0,4.0,4.0,3,402.0,0,102,0,0,0,193292,0,2327,193394,128946,64448,128946,102,193394,125760,0,0,0,0,1,125760,0,9608,N,N,N,N,N,N,N,N,N,N,N,N,N,N,N,N,N,N,N,0,0,102,193394,126619,0,126619,0,0,50760,0,0,0,125760,2,0,0,0,0,2,0,0,0,2,195086,9606,0,0,0,0,0,0,0,0,0,0,0,0,0,0,0,0,0,0,0,0,0,0,0,0,0,0,0,0,0,0,0,0,0,0,0,0,0,0,0,0,0,0,10001.0,SEPHARDIC HERITAGE FOUNDATION INC,SAM CATTON,34 W 33 ST STE 1000,NEW YORK,NY,10001-3304,0.0,3.0,1.0,198012.0,1.0,4.0,402.0,994.0,400.0,1.0,13.0,198212.0,1.0,12,,,,A82,,B,A,A,AR,AR,AR,IN,,PF,O,AR,A,0.581339,36061.0,5602.0,5600.0,core2005pf_ver1,PC,O,AR,A,IN,,A82,A
7880,133093638,2005,200512,200635.0,29491217079006.0,,N,Y,0.0,1.0,2005,3.0,6.0,6.0,3,91.0,0,57806,75975,266783,0,15641,0,389300,416205,479984,-63779,389300,325521,58738,3966607,214879,1920519,197103,2332501,0,4420396,0,215301,N,Y,N,N,N,N,N,N,N,N,N,N,N,N,N,N,N,N,N,0,0,416205,149422,90684,90684,0,90684,90684,74488,0,0,0,3966607,3255,0,0,2100,0,2500,0,0,1337,3255,4371585,212046,0,0,0,0,0,0,0,0,0,0,0,0,0,0,0,0,0,0,0,0,0,0,0,0,0,0,0,0,0,0,0,0,0,0,0,0,0,0,0,0,-1337,0,10017.0,MILTON AND SALLY AVERY ARTS FOUNDATION INC,RADIN GLASS & CO,360 LEXINGTON AVE STE 22ND FLR,NEW YORK,NY,10017-6502,0.0,3.0,1.0,198311.0,1.0,4.0,91.0,123.0,561.0,1.0,13.0,0.0,1.0,12,FELDMAN RADIN & CO PC,M,,A12,61.0,B,A,A,AR,AR,AR,IN,,PF,S,ZB,A,0.469995,36061.0,5602.0,5600.0,core2005pf_ver1,PC,S,ZB,A,IN,,A1261,A
7887,133096058,2005,200512,200606.0,29491014043036.0,,N,Y,0.0,20.0,2005,3.0,1.0,3.0,3,90.0,33147,0,1099,306,0,0,0,0,34552,7392,27160,3680,0,0,1,0,0,0,0,0,1,0,1650,N,N,N,N,N,N,N,N,N,N,N,N,N,N,N,N,N,N,N,0,0,1092,0,7392,3682,3680,3682,0,0,0,0,0,0,0,0,0,0,0,0,0,0,0,0,33495,1650,0,0,0,0,0,0,0,0,0,0,0,0,0,0,0,0,0,0,0,0,0,0,0,0,0,0,0,0,0,0,0,0,0,0,0,0,0,0,0,0,0,0,10016.0,BARBARA BARONDESS THEATRE LAB FOUNDATION INC,ERE & CO,440 PARK AVE S 5TH,NEW YORK,NY,10016-8012,0.0,3.0,1.0,198201.0,1.0,4.0,90.0,995.0,0.0,1.0,13.0,198312.0,1.0,12,,,,A60,,A,A,A,AR,AR,AR,IN,,PF,O,AR,A,0.23768699999999998,36061.0,5602.0,5600.0,core2005pf_ver1,PC,O,AR,A,IN,,A60,A
7920,133106895,2005,200511,200619.0,29491112046166.0,A25I,N,Y,0.0,20.0,2004,3.0,1.0,1.0,3,46.0,2500,10,0,0,0,0,0,0,2510,11793,-9283,11793,10,0,1,0,0,0,0,0,1,0,137,N,Y,N,Y,N,N,N,N,N,N,N,N,N,N,N,N,N,N,N,0,0,10,0,11793,0,11793,0,0,0,0,0,0,0,0,0,0,0,0,0,0,0,0,0,5533,137,0,0,0,0,0,0,0,0,0,0,0,0,0,0,0,0,0,0,0,0,0,0,0,0,0,0,0,0,0,0,0,0,0,0,0,0,0,0,0,0,0,0,10023.0,LACOSTE SCHOOL OF THE ARTS IN FRANCE INC,CLEVELAND INSTITUTE OF ART,PO BOX 230339 ANSONIA STATION,NEW YORK,NY,10023-0006,0.0,3.0,1.0,200404.0,1.0,4.0,46.0,0.0,0.0,1.0,13.0,0.0,1.0,11,,,,A11,25.0,A,A,A,AR,AR,AR,IN,,PF,S,ZA,A,0.32161100000000004,36061.0,5602.0,5600.0,core2005pf_ver1,PC,S,ZA,A,IN,,A1125,A
8018,133171936,2005,200505,200607.0,29491014032006.0,,N,Y,0.0,1.0,2004,2.0,5.0,4.0,3,90.0,200000,1161,49525,13328,0,282,0,68226,264296,94644,169652,94644,64014,58212,931417,0,446940,0,446940,90000,1434501,0,63875,N,N,N,N,Y,Y,N,N,N,N,N,N,N,N,N,N,N,N,N,0,0,64014,58212,26418,0,26418,0,0,1013,0,0,0,841417,1280,0,0,607,0,0,0,0,0,1280,1296963,0,58212,40703,36863,19818,155596,94644,242649,187646,232489,757428,1434501,1159424,907017,1083143,4584085,1434501,1159424,907017,1083143,4584085,42583,33924,32671,34229,143407,0,0,0,0,0,0,0,0,0,0,0,0,0,0,0,673,0,10021.0,HERRICK THEATRE FOUNDATION INC,,605 PARK AVE APT 7A,NEW YORK,NY,10021-7055,0.0,3.0,2.0,198310.0,1.0,3.0,90.0,994.0,0.0,1.0,13.0,198405.0,1.0,5,,,,A65,,B,A,A,AR,AR,AR,IN,,PF,O,AR,A,0.398027,36061.0,5602.0,5600.0,core2005pf_ver1,PC,O,AR,A,IN,,A65,A
8065,133200329,2005,200512,200624.0,29491140200116.0,,N,Y,0.0,1.0,2005,3.0,8.0,7.0,3,602.0,2447881,4218,3504966,-3356116,0,0,60000,3658150,2600949,4475140,-1874191,4387694,3470192,0,42035556,0,18010777,23531266,41542043,0,41507553,0,2105069,N,Y,N,N,N,N,N,N,N,N,N,N,N,N,N,N,N,N,N,0,0,3509184,0,816990,38992,729544,38992,0,207472,0,80520,0,42035556,34702,0,0,44678,0,0,0,0,9976,34702,42742527,2070367,0,0,0,0,0,0,0,0,0,0,0,0,0,0,0,0,0,0,0,0,0,0,0,0,0,0,0,0,0,0,0,0,0,0,0,0,0,0,0,0,-9976,0,10019.0,LIZ CLAIBORNE & ART ORTENBERG FOUNDATION,NATHAN BERKMAN & CO,650 FIFTH AVENUE - 15TH FLOOR,NEW YORK,NY,10019-6108,0.0,3.0,1.0,198508.0,1.0,4.0,602.0,0.0,0.0,2.0,13.0,0.0,1.0,12,,,,A12,,B,A,A,AR,AR,AR,IN,,PF,S,ZB,A,0.793737,36061.0,5602.0,5600.0,core2005pf_ver1,PC,S,ZB,A,IN,,A12,A
8068,133201819,2005,200506,200621.0,29491070051236.0,,N,Y,0.0,1.0,2004,3.0,6.0,5.0,3,119.0,23300,366,20354,-30690,0,16963,0,24200,30293,44914,-14621,44692,20720,0,1627029,585608,861442,861442,2308492,891,1627029,0,83371,N,N,N,N,N,N,N,N,N,N,N,N,N,N,N,N,N,N,N,0,0,20720,0,20714,0,20492,0,0,520688,0,244899,0,1626138,414,0,0,0,0,0,0,0,0,414,1670810,82957,0,0,0,0,0,0,0,0,0,0,0,0,0,0,0,0,0,0,0,0,0,0,0,0,0,0,0,0,0,0,0,0,0,0,0,0,0,0,0,0,414,0,10027.0,PERSIAN HERITAGE FOUNDATION,,450 RIVERSIDE DRIVE,NEW YORK,NY,10027-6821,0.0,3.0,1.0,198406.0,1.0,4.0,119.0,602.0,0.0,1.0,13.0,0.0,1.0,6,,M,,A23,,A,A,A,AR,AR,AR,IN,,PF,O,AR,A,0.754446,36061.0,5602.0,5600.0,core2005pf_ver1,PC,O,AR,A,IN,,A23,A
8086,133210017,2006,200606,200644.0,29491287042216.0,,N,Y,0.0,1.0,2005,3.0,1.0,1.0,3,160.0,0,0,0,0,0,0,0,0,1,0,1,0,0,0,836,0,0,0,0,0,1,0,0,N,N,N,N,N,N,N,N,N,N,N,N,N,N,N,N,N,N,N,0,0,0,0,0,0,0,0,0,836,0,0,0,836,0,0,0,0,0,0,0,0,0,0,0,0,0,0,0,0,0,0,0,0,0,0,0,0,0,0,0,0,0,0,0,0,0,0,0,0,0,0,0,0,0,0,0,0,0,0,0,0,0,0,0,0,0,0,10469.0,PROGRAMMING PLANNING AND PLACEMENT ALTERNATIVES INC,,999 PELHAM PKY,BRONX,NY,10469-4905,0.0,3.0,1.0,198501.0,1.0,4.0,160.0,0.0,0.0,1.0,13.0,0.0,1.0,6,,,,A61,,C,A,A,AR,AR,AR,IN,,PF,O,AR,A,0.45045,36005.0,5602.0,5600.0,core2005pf_ver1,PC,O,AR,A,IN,,A61,A
8110,133229829,2006,200604,200639.0,29491252044026.0,A23Z,N,Y,0.0,1.0,2005,3.0,2.0,3.0,3,46.0,74509,0,0,0,0,0,0,0,74509,66117,8392,0,0,0,13851,0,0,0,0,603,13851,0,0,N,N,N,N,N,N,N,N,N,N,N,N,N,N,N,N,N,N,N,0,0,0,0,66117,0,0,0,0,13851,0,0,0,13248,0,0,0,0,0,0,0,0,0,0,0,0,0,0,0,0,0,0,0,0,0,0,0,0,0,0,0,0,0,0,0,0,0,0,0,0,0,0,0,0,0,0,0,0,0,0,0,0,0,0,0,0,0,0,10001.0,KOREAN LANGUAGE & CULTURAL INSTITUTE INC,,246 5TH AVE STE 500,NEW YORK,NY,10001-7696,0.0,3.0,1.0,199101.0,1.0,4.0,46.0,0.0,0.0,1.0,13.0,0.0,1.0,4,,,,A23,,A,A,A,AR,AR,AR,IN,,PF,O,AR,A,0.147371,36061.0,5602.0,5600.0,core2005pf_ver1,PC,O,AR,A,IN,,A23,A
8117,133236892,2005,200506,200612.0,29491056038146.0,,N,Y,0.0,1.0,2004,3.0,5.0,2.0,3,93.0,0,12616,0,0,0,0,0,20850,12616,71013,-58397,69413,11116,0,861366,0,0,0,0,0,861366,0,43090,N,Y,N,N,N,N,N,N,N,N,N,N,N,N,N,N,N,N,N,0,0,12616,0,50163,1500,48563,1500,0,3468,0,0,0,861366,111,0,0,754,0,0,0,0,643,111,874922,42979,0,0,0,0,0,0,0,0,0,0,0,0,0,0,0,0,0,0,0,0,0,0,0,0,0,0,0,0,0,0,0,0,0,0,0,0,0,0,0,0,-643,0,10004.0,HARA MUSEUM FUND,KO-YUNG TUNG OMELVENY & MYERS,60 BROAD ST,NEW YORK,NY,10004-2306,0.0,3.0,1.0,198509.0,1.0,4.0,93.0,0.0,0.0,1.0,13.0,0.0,1.0,6,,,,A50,,A,A,A,AR,AR,AR,IN,,PF,O,AR,A,0.25767199999999996,36061.0,5602.0,5600.0,core2005pf_ver1,PC,O,AR,A,IN,,A50,A
8156,133253712,2006,200606,200647.0,29491308007186.0,,N,Y,0.0,1.0,2005,3.0,8.0,6.0,3,995.0,0,0,809706,-39914,0,0,0,772419,769792,852959,-83167,780521,737268,737268,16450579,0,6906584,4160749,11067333,4194,17585461,878837,893582,N,N,N,N,N,N,N,N,N,N,N,N,N,N,N,N,N,N,N,0,0,809706,809706,80540,72438,8102,72438,72438,0,0,0,0,16446385,14745,0,0,15964,0,0,0,0,1219,14745,17898479,878837,0,0,0,0,0,0,0,0,0,0,0,0,0,0,0,0,0,0,0,0,0,0,0,0,0,0,0,0,0,0,0,0,0,0,0,0,0,0,0,0,-1219,0,10024.0,RADIO DRAMA NETWORK INC,HIMAN BROWN,285 CENTRAL PARK WEST,NEW YORK,NY,10024-3006,0.0,3.0,1.0,198503.0,1.0,4.0,995.0,90.0,0.0,1.0,13.0,198906.0,1.0,6,,,,A34,,A,A,A,AR,AR,AR,IN,,PF,O,AR,A,0.9210889999999999,36061.0,5602.0,5600.0,core2005pf_ver1,PC,O,AR,A,IN,,A34,A
8163,133255361,2005,200506,200622.0,29491126063206.0,,N,Y,0.0,1.0,2004,2.0,2.0,3.0,3,90.0,18000,0,41,0,0,75489,25574,0,93530,97217,-3687,0,41,0,18852,0,0,0,0,0,18852,0,1019,Y,N,N,N,Y,N,N,N,N,N,N,N,N,N,N,N,N,N,N,0,0,41,75530,97217,0,0,0,97217,18852,0,0,0,18852,0,0,0,0,0,0,0,0,0,0,20696,0,1,0,0,0,1,0,0,0,0,0,18852,22539,33713,29120,104224,0,0,0,0,0,0,0,0,0,0,0,0,0,0,0,8000,9000,12000,15595,44595,41,19,0,0,60,0,0,10025.0,THE LIVING THEATRE INC,,800 WEST END AVE 5A,NEW YORK,NY,10025-5467,0.0,3.0,1.0,198504.0,1.0,2.0,90.0,0.0,0.0,1.0,13.0,0.0,1.0,6,,,,A65,,B,A,A,AR,AR,AR,IN,,PF,O,AR,A,0.0221868,36061.0,5602.0,5600.0,core2005pf_ver1,PC,O,AR,A,IN,,A65,A
8196,133271577,2005,200512,200618.0,29491105052006.0,,N,Y,0.0,1.0,2005,3.0,2.0,2.0,3,561.0,16500,0,0,0,0,0,0,2250,16500,7514,8986,2250,0,0,15959,0,0,0,0,0,15959,0,293,N,N,N,N,N,N,N,N,N,N,N,N,N,N,N,N,N,N,N,0,0,0,0,5264,0,0,0,0,15459,0,0,0,15959,0,0,0,0,0,0,0,0,0,0,5947,293,0,0,0,0,0,0,0,0,0,0,0,0,0,0,0,0,0,0,0,0,0,0,0,0,0,0,0,0,0,0,0,0,0,0,0,0,0,0,0,0,0,0,10009.0,ART MATTERS INC,,187 E 4TH ST 5N,NEW YORK,NY,10009-7264,0.0,3.0,2.0,198510.0,1.0,4.0,561.0,0.0,0.0,1.0,13.0,0.0,1.0,12,,,,A99,,C,A,A,AR,AR,AR,IN,,PF,O,AR,A,0.654777,36061.0,5602.0,5600.0,core2005pf_ver1,PC,O,AR,A,IN,,A99,A
8223,133305823,2006,200604,200641.0,29491266004086.0,,N,Y,0.0,1.0,2005,3.0,6.0,6.0,3,602.0,0,1822,74016,61138,0,243,18465,83791,137219,107066,30153,93023,123527,0,2495325,0,0,0,0,0,2712838,123359,125830,N,N,N,N,N,N,N,N,Y,N,N,N,N,N,N,N,N,N,N,0,0,137219,0,23275,13692,9232,13692,0,2144,0,2406844,0,2495325,2471,0,0,3000,0,0,0,0,529,2471,2554927,123359,0,0,0,0,0,0,0,0,0,0,0,0,0,0,0,0,0,0,0,0,0,0,0,0,0,0,0,0,0,0,0,0,0,0,0,0,0,0,0,0,-529,0,10008.0,DOROTHY B MELVILLE TR FOR THE MUSEUMS AT STONY BROOK,DEUTSCHE BANK TRUST CO,PO BOX 1297,NEW YORK,NY,10008-1297,0.0,3.0,1.0,198703.0,1.0,4.0,602.0,0.0,0.0,2.0,13.0,0.0,1.0,4,,,,A50,,A,A,A,AR,AR,AR,IN,,PF,O,AR,A,0.447855,36061.0,5602.0,5600.0,core2005pf_ver1,PC,O,AR,A,IN,,A50,A
8251,133317928,2005,200506,200615.0,29491077001016.0,,N,Y,0.0,1.0,2004,2.0,6.0,3.0,3,91.0,0,3956,0,0,0,56320,0,0,60276,43728,16548,43559,3956,0,1383481,0,0,0,0,13965,1383481,0,12385,N,N,N,N,Y,N,N,N,N,N,N,N,N,N,N,N,N,N,N,0,0,3956,0,43728,0,43559,0,0,355898,0,0,0,1369516,1,0,0,4,0,0,0,0,3,1,251463,0,1,0,0,0,1,43559,41754,44842,81494,211649,0,0,0,0,0,0,0,0,0,0,8257,7879,5489,4316,25941,0,0,0,0,0,0,0,0,0,0,0,0,0,0,0,3,0,10151.0,IAN WOODNER FAMILY COLLECTION INC,,745 5TH AVE,NEW YORK,NY,10151-0099,0.0,3.0,2.0,198605.0,1.0,3.0,91.0,119.0,0.0,1.0,13.0,0.0,1.0,6,,,,A51,,C,A,A,AR,AR,AR,IN,,PF,O,AR,A,0.937033,36061.0,5602.0,5600.0,core2005pf_ver1,PC,O,AR,A,IN,,A99,A
8300,133328723,2005,200509,200643.0,29491259054156.0,,N,Y,0.0,1.0,2004,3.0,6.0,5.0,3,602.0,0,1241,47588,185229,0,2302,20000,29000,236360,117459,118901,40544,181364,0,1869929,0,1749615,0,1749615,67524,1869929,0,88126,N,N,N,N,N,N,N,N,N,N,N,N,N,N,N,N,N,N,N,0,0,234058,0,88459,52694,11544,52694,0,120314,0,0,0,1802405,3627,0,0,2220,0,0,0,13,0,3627,1789365,84499,0,0,0,0,0,0,0,0,0,0,0,0,0,0,0,0,0,0,0,0,0,0,0,0,0,0,0,0,0,0,0,0,0,0,0,0,0,0,0,0,1420,0,10017.0,MEX-AM CULTURAL FOUNDATION INC,GRANT HERRMANN SCHWARTZ & KLINGER,675 THIRD AVE,NEW YORK,NY,10017-5704,0.0,3.0,1.0,198610.0,1.0,4.0,602.0,600.0,603.0,1.0,13.0,0.0,1.0,9,,,,A12,20.0,B,A,A,AR,AR,AR,IN,,PF,S,ZB,A,0.957433,36061.0,5602.0,5600.0,core2005pf_ver1,PC,S,ZB,A,IN,,A1220,A
8333,133347776,2005,200512,200650.0,29491336011076.0,,N,Y,0.0,1.0,2005,2.0,6.0,3.0,3,120.0,16000,74997,231,0,0,0,0,0,91228,162467,-71239,162467,75228,75228,2943268,0,1104352,0,1104352,22534,2943268,0,108604,N,N,N,N,Y,N,N,N,N,N,N,N,N,N,N,N,N,N,N,0,0,75228,75228,162467,0,162467,0,0,0,0,0,0,2920734,1505,0,0,0,0,0,0,76,0,1505,2205157,0,75228,49080,31059,27425,182792,162467,136159,85503,22933,407062,2943268,3267303,1890785,1428965,9530321,0,0,0,0,0,72403,82883,24761,45856,225903,0,0,0,0,0,0,0,0,0,0,0,0,0,0,0,1581,0,10004.0,BURLINGTON MAGAZINE FOUNDATION INC,SULLIVAN AND CROMWELL,125 BROAD ST STE 2945,NEW YORK,NY,10004-2400,0.0,3.0,1.0,198609.0,1.0,3.0,120.0,0.0,0.0,1.0,13.0,0.0,1.0,12,,,,A33,,A,A,A,AR,AR,AR,IN,,PF,O,AR,A,0.365546,36061.0,5602.0,5600.0,core2005pf_ver1,PC,O,AR,A,IN,,A33,A
8514,133389923,2005,200510,200605.0,29491007122046.0,,N,Y,0.0,1.0,2004,3.0,4.0,1.0,3,122.0,9000,0,0,0,0,28,0,0,9028,9258,-230,940,0,0,119919,0,0,0,0,303568,22464,0,107,N,Y,N,N,Y,N,N,N,N,N,N,N,N,N,N,N,N,N,N,0,0,0,0,9258,0,1490,0,42459,2464,0,0,0,-183649,0,0,0,0,0,0,0,0,0,0,2169,0,0,0,0,0,0,0,0,0,0,0,0,0,0,0,0,0,0,0,0,0,0,0,0,0,0,0,0,0,0,0,0,0,0,0,0,0,0,0,0,0,0,0,10024.0,THE TEREZIN FOUNDATION INC,,262 CENTRAL PARK WEST,NEW YORK,NY,10024-3512,0.0,3.0,1.0,198703.0,1.0,4.0,122.0,0.0,0.0,1.0,13.0,0.0,1.0,10,,M,,A31,,A,A,A,AR,AR,AR,IN,,PF,O,AR,A,0.7667149999999999,36061.0,5602.0,5600.0,core2005pf_ver1,PC,O,AR,A,IN,,A31,A
8540,133396112,2005,200512,200625.0,29491161038126.0,,N,Y,0.0,1.0,2005,3.0,1.0,1.0,3,119.0,0,20,0,0,0,0,0,0,20,408,-388,408,20,0,5406,0,0,0,0,0,5406,0,275,N,Y,N,N,N,N,N,N,N,N,N,N,N,N,N,N,N,N,N,0,0,20,0,408,0,408,0,0,0,0,0,0,5406,0,0,0,0,0,0,0,0,0,0,5574,275,0,0,0,0,0,0,0,0,0,0,0,0,0,0,0,0,0,0,0,0,0,0,0,0,0,0,0,0,0,0,0,0,0,0,0,0,0,0,0,0,0,0,10003.0,INSTITUTE FOR ICE AGE STUDIES INC,,25 WAVERLY PLACE,NEW YORK,NY,10003-6759,0.0,3.0,1.0,198704.0,1.0,4.0,119.0,149.0,0.0,1.0,11.0,0.0,1.0,12,,,,A99,,C,A,A,AR,AR,AR,IN,,PF,O,AR,A,0.981007,36061.0,5602.0,5600.0,core2005pf_ver1,PC,O,AR,A,IN,,A99,A
8571,133410749,2005,200504,200616.0,29491091002176.0,,N,Y,0.0,1.0,2004,3.0,9.0,9.0,3,119.0,0,237555,3482891,13451700,0,1973696,599541,2438030,19145842,8234048,10911794,7421852,6153366,0,180664651,18996360,109593701,14596397,143186458,8097524,230461192,0,11035719,N,N,N,N,N,N,N,N,Y,N,N,N,N,N,N,N,N,Y,N,0,0,7875277,0,5796018,1721911,1411381,1721911,0,550,0,48463,0,172567127,123067,0,0,131197,0,0,0,0,8130,123067,224075520,10929401,0,0,0,0,0,0,0,0,0,0,0,0,0,0,0,0,0,0,0,0,0,0,0,0,0,0,0,0,0,0,0,0,0,0,0,0,0,0,0,0,-8130,0,10012.0,THE ANDY WARHOL FOUNDATION FOR THE VISUAL ARTS INC,KATHLEEN C MAURER,65 BLEECKER STREET 7TH FLR,NEW YORK,NY,10012-2420,0.0,3.0,1.0,198801.0,1.0,4.0,119.0,91.0,0.0,1.0,13.0,0.0,1.0,4,,M,,A40,,A,A,A,AR,AR,AR,IN,,PF,O,AR,A,0.440266,36061.0,5602.0,5600.0,core2005pf_ver1,PC,O,AR,A,IN,,A40,A
8651,133442953,2005,200512,200650.0,29491336058226.0,,N,Y,0.0,1.0,2005,3.0,1.0,1.0,3,121.0,0,10,0,0,0,0,0,0,10,1396,-1386,0,10,10,4763,0,0,0,0,2278,4705,0,0,N,N,N,N,N,N,N,N,N,N,N,Y,N,N,N,N,N,N,N,0,0,10,10,1396,0,0,0,0,2379,0,0,0,2485,0,0,0,0,0,0,0,0,0,0,3072,0,0,0,0,0,0,0,0,0,0,0,0,0,0,0,0,0,0,0,0,0,0,0,0,0,0,0,0,0,0,0,0,0,0,0,0,0,0,0,0,0,0,0,10024.0,VIDEO INFORMATION NETWORK,,257 W 86TH ST APT 5A,NEW YORK,NY,10024-3105,0.0,3.0,1.0,198802.0,1.0,4.0,121.0,0.0,0.0,1.0,13.0,0.0,1.0,12,,,,A31,,B,A,A,AR,AR,AR,IN,,PF,O,AR,A,0.26568600000000003,36061.0,5602.0,5600.0,core2005pf_ver1,PC,O,AR,A,IN,,A31,A
8662,133447662,2005,200512,200645.0,29491287048016.0,,N,Y,0.0,1.0,2005,3.0,1.0,3.0,3,90.0,27665,0,0,0,0,0,0,28243,27665,28243,-578,28243,0,0,1143,0,0,0,0,0,1143,0,89,N,N,N,N,N,N,N,N,N,N,N,N,N,N,N,N,N,N,N,0,0,0,0,0,0,0,0,0,1143,0,0,0,1143,0,0,0,0,0,0,0,0,0,0,1800,0,0,0,0,0,0,0,0,0,0,0,0,0,0,0,0,0,0,0,0,0,0,0,0,0,0,0,0,0,0,0,0,0,0,0,0,0,0,0,0,0,0,0,10036.0,COUNCIL FOR LIVING MUSIC INC,LOCAL 802 AF OF MUSICIANS LOCAL,322 W 48TH ST,NEW YORK,NY,10036-1308,0.0,3.0,1.0,198808.0,1.0,4.0,90.0,119.0,0.0,1.0,13.0,0.0,1.0,12,802,,,A68,,A,A,A,AR,AR,AR,IN,,PF,O,AR,A,0.37085999999999997,36061.0,5602.0,5600.0,core2005pf_ver1,PC,O,AR,A,IN,,A68,A
8686,133458208,2005,200505,200623.0,29491147023136.0,,N,Y,0.0,1.0,2004,2.0,8.0,7.0,3,0.0,1290328,924,574991,217348,553544,-126740,0,0,2580930,6319731,-3738801,5946715,772943,724341,28220373,1297744,2906703,3096516,7300963,0,31869975,0,517137,N,Y,N,N,Y,N,N,N,N,N,N,N,N,N,N,N,N,N,N,70535,335477,863798,1097357,6319731,90855,5946715,90855,373016,180022,0,0,0,28220373,7729,0,0,15234,0,0,0,70,7435,7729,10500248,0,517137,899905,1309909,1467571,4194522,5946715,6952619,6886864,2946683,22732881,1,0,0,0,1,0,0,0,0,0,0,0,0,0,0,0,0,0,0,0,0,0,0,0,0,0,0,0,0,0,-7435,0,10017.0,DAHESH MUSEUM OF ART,,601 - 5TH AVENUE 2ND FLR,NEW YORK,NY,10017-1024,0.0,3.0,5.0,198807.0,1.0,3.0,0.0,0.0,0.0,1.0,13.0,0.0,1.0,5,,,,A50,,A,A,A,AR,AR,AR,IN,,PF,O,AR,A,0.696555,36061.0,5602.0,5600.0,core2005pf_ver1,PC,O,AR,A,IN,,A50,A
8727,133486646,2005,200512,200624.0,29491140219236.0,,N,Y,0.0,1.0,2005,3.0,4.0,1.0,3,123.0,0,4966,0,0,0,0,0,103000,4966,112188,-107222,104750,4644,0,139680,0,0,0,0,0,139680,0,9127,N,Y,N,N,N,N,N,N,N,N,N,N,N,N,N,N,N,N,N,0,0,4966,0,9188,322,1750,322,0,0,0,0,0,139680,46,0,0,638,0,0,0,0,592,46,185321,9081,0,0,0,0,0,0,0,0,0,0,0,0,0,0,0,0,0,0,0,0,0,0,0,0,0,0,0,0,0,0,0,0,0,0,0,0,0,0,0,0,-592,0,10036.0,RONALD A WILFORD FOUNDATION FOR CONDUCTORS INC,US TRUST CO OF NY,114 W 47TH ST TAXVS,NEW YORK,NY,10036-1510,0.0,3.0,1.0,198906.0,1.0,4.0,123.0,0.0,0.0,1.0,13.0,0.0,1.0,12,,,,A60,,B,A,A,AR,AR,AR,IN,,PF,O,AR,A,0.6035470000000001,36061.0,5602.0,5600.0,core2005pf_ver1,PC,O,AR,A,IN,,A60,A
8841,133536258,2006,200607,200648.0,29491315025116.0,,N,Y,0.0,1.0,2005,3.0,2.0,4.0,3,120.0,173099,0,0,0,0,3794,0,14250,176893,217979,-41086,209265,0,0,11346,0,0,0,0,0,11346,0,666,N,N,N,N,N,N,N,N,N,N,N,N,N,N,N,N,N,N,N,0,0,0,3794,203729,0,195015,0,3794,11172,0,0,0,11346,0,0,0,0,0,0,0,0,0,0,13517,0,0,0,0,0,0,0,0,0,0,0,0,0,0,0,0,0,0,0,0,0,0,0,0,0,0,0,0,0,0,0,0,0,0,0,0,0,0,0,0,0,0,0,10023.0,2WICE ARTS FOUNDATION INC,PATRICIA TARR,PO BOX 20719 COLUMBUS CIR STA,NEW YORK,NY,10023-1487,0.0,3.0,1.0,199005.0,1.0,4.0,120.0,0.0,0.0,1.0,13.0,0.0,1.0,7,,,,A12,61.0,B,A,A,AR,AR,AR,IN,,PF,S,ZB,A,0.8673870000000001,36061.0,5602.0,5600.0,core2005pf_ver1,PC,S,ZB,A,IN,,A1261,A
8882,133556699,2005,200512,200651.0,29491336121166.0,,N,Y,0.0,1.0,2005,3.0,2.0,2.0,3,60.0,23120,0,0,0,0,0,0,0,23120,16399,6721,0,0,0,14824,0,0,0,0,0,14824,140,240,N,N,N,N,N,N,N,N,N,N,N,Y,N,N,N,N,N,N,N,0,0,0,0,16399,0,0,0,0,93,0,0,0,14824,0,0,0,0,0,0,0,0,0,0,4870,240,0,0,0,0,0,0,0,0,0,0,0,0,0,0,0,0,0,0,0,0,0,0,0,0,0,0,0,0,0,0,0,0,0,0,0,0,0,0,0,0,0,0,10012.0,CHAIM GROSS MUSEUM,ADFEL LEVY ZLOTNICK & CO,526 LAGUARDIA PL,NEW YORK,NY,10012-1401,0.0,3.0,1.0,199008.0,1.0,4.0,60.0,0.0,0.0,1.0,13.0,0.0,1.0,12,,M,,A50,,B,A,A,AR,AR,AR,IN,,PF,O,AR,A,0.698805,36061.0,5602.0,5600.0,core2005pf_ver1,PC,O,AR,A,IN,,A50,A
8894,133560519,2005,200512,200626.0,29491161064036.0,,N,Y,0.0,1.0,2005,3.0,1.0,1.0,3,560.0,1200,0,0,0,0,0,0,0,1200,1200,0,0,0,0,500,0,0,0,0,0,500,0,0,N,N,N,N,N,N,N,N,N,N,N,N,N,N,N,N,N,N,N,0,0,0,0,0,0,0,0,0,0,0,0,0,500,0,0,0,0,0,0,0,0,0,0,0,0,0,0,0,0,0,0,0,0,0,0,0,0,0,0,0,0,0,0,0,0,0,0,0,0,0,0,0,0,0,0,0,0,0,0,0,0,0,0,0,0,0,0,10471.0,SHANTI CULTURAL DYNAMICS INC,RAO-SHANTHA,5900 ARLINGTON AVE 16-S,RIVERDALE,NY,10471-1317,0.0,3.0,1.0,199004.0,1.0,4.0,560.0,0.0,0.0,1.0,13.0,0.0,1.0,12,,,,A23,,B,A,A,AR,AR,AR,IN,,PF,O,AR,A,0.25330199999999997,36005.0,5602.0,5600.0,core2005pf_ver1,PC,O,AR,A,IN,,A23,A
8918,133572353,2005,200512,200650.0,29491329196156.0,T20,N,Y,0.0,1.0,2005,3.0,6.0,7.0,3,602.0,5221735,22154,0,0,14088,0,183851,813330,5257977,1979595,3278382,1897507,22154,33217,4541515,0,0,0,0,415508,4541515,0,46006,N,N,N,N,N,N,N,N,Y,N,N,N,N,N,N,N,Y,N,N,0,6155,22154,36242,1166265,0,1139027,0,3025,61716,0,0,0,4126007,443,0,0,60,0,540,0,0,157,443,934126,0,0,0,0,0,0,0,0,0,0,0,0,0,0,0,0,0,0,0,0,0,0,0,0,0,0,0,0,0,0,0,0,0,0,0,0,0,0,0,0,0,-157,0,10012.0,NATIONAL VIDEO RESOURCES INC,,73 SPRING ST STE 606,NEW YORK,NY,10012-5802,0.0,3.0,1.0,199010.0,1.0,4.0,602.0,0.0,0.0,1.0,13.0,0.0,1.0,12,,,,A31,,A,A,A,AR,AR,AR,IN,,PF,O,AR,A,0.738052,36061.0,5602.0,5600.0,core2005pf_ver1,PC,O,AR,A,IN,,A31,A
8921,133573140,2005,200512,200613.0,29491070091196.0,,N,Y,0.0,1.0,2005,3.0,1.0,1.0,3,561.0,500,2,0,0,0,0,0,400,502,519,-17,400,1,0,514,0,0,0,0,0,514,0,28,N,N,N,N,N,N,N,N,N,N,N,N,N,N,N,N,N,N,N,0,0,2,0,119,1,0,1,0,24,0,0,0,514,0,0,0,0,0,0,0,0,0,0,565,28,0,0,0,0,0,0,0,0,0,0,0,0,0,0,0,0,0,0,0,0,0,0,0,0,0,0,0,0,0,0,0,0,0,0,0,0,0,0,0,0,0,0,10016.0,JACK GALEF ARTS FOUNDATION INC,GOLOMB SINDEL AND DIBLE,16 E 34 ST STE 1600,NEW YORK,NY,10016-4328,0.0,3.0,2.0,199205.0,1.0,4.0,561.0,914.0,119.0,1.0,13.0,0.0,1.0,12,,,,A12,,B,A,A,AR,AR,AR,IN,,PF,S,ZB,A,0.351914,36061.0,5602.0,5600.0,core2005pf_ver1,PC,S,ZB,A,IN,,A12,A
8922,133573737,2004,200412,200609.0,29491035031116.0,A23Z,N,Y,0.0,1.0,2004,3.0,4.0,5.0,3,92.0,548613,1128,0,0,0,0,46800,0,549741,391337,158404,387381,389,0,198536,0,0,0,0,2663,198536,0,8308,N,N,N,N,N,N,N,N,N,N,N,N,N,N,N,N,N,N,N,0,0,1128,0,391337,739,387381,739,0,0,0,0,0,195873,8,0,0,0,0,0,0,0,0,8,168693,8300,0,0,0,0,0,0,0,0,0,0,0,0,0,0,0,0,0,0,0,0,0,0,0,0,0,0,0,0,0,0,0,0,0,0,0,0,0,0,0,0,8,0,10003.0,FINNISH CULTURAL INSTITUTE IN NEW YORK,CHRISTY & VIENER,799 BROADWAY - ROOM 527,NEW YORK,NY,10003-6815,0.0,3.0,1.0,199011.0,1.0,4.0,92.0,0.0,0.0,1.0,13.0,0.0,1.0,12,,,,A23,,A,A,A,AR,AR,AR,IN,,PF,O,AR,A,0.0683832,36061.0,5602.0,5600.0,core2005pf_ver1,PC,O,AR,A,IN,,A23,A
8953,133590722,2005,200512,200651.0,29491336207016.0,A20Z,N,Y,0.0,1.0,2005,3.0,5.0,4.0,3,119.0,151530,741,11392,14711,0,0,0,27000,178374,34668,143706,27167,19343,0,550055,0,0,0,0,0,556062,0,23577,N,N,N,N,N,N,N,N,N,N,N,N,N,N,N,N,N,N,N,0,0,26844,0,7668,7501,167,7501,0,167169,0,375250,0,550055,387,0,0,257,0,750,0,0,6,387,478723,23190,0,0,0,0,0,0,0,0,0,0,0,0,0,0,0,0,0,0,0,0,0,0,0,0,0,0,0,0,0,0,0,0,0,0,0,0,0,0,0,0,-620,614,10001.0,THE BERNSTEIN FAMILY FOUNDATION,,121 W 27TH ST STE 1104,NEW YORK,NY,10001-6207,0.0,3.0,1.0,199105.0,1.0,4.0,119.0,149.0,59.0,1.0,13.0,0.0,1.0,12,,,,A12,61.0,A,A,A,AR,AR,AR,IN,,PF,S,ZB,A,0.64767,36061.0,5602.0,5600.0,core2005pf_ver1,PC,S,ZB,A,IN,,A1261,A
8954,133591085,2005,200512,200626.0,29491161375076.0,A42Z,N,Y,0.0,1.0,2005,3.0,5.0,3.0,3,91.0,0,3757,10044,0,0,3379,0,5000,17180,21422,-4242,12092,4770,0,502170,0,215774,0,215774,0,516889,0,25467,N,N,N,N,N,N,N,N,Y,N,N,N,N,N,N,N,N,N,N,0,0,13801,0,16422,9031,7092,9031,0,36396,0,0,0,502170,95,0,0,0,0,0,0,0,0,95,517087,25372,0,0,0,0,0,0,0,0,0,0,0,0,0,0,0,0,0,0,0,0,0,0,0,0,0,0,0,0,0,0,0,0,0,0,0,0,0,0,0,0,95,0,10016.0,LISETTE MODEL FOUNDATION INC,BLUM GERSEN AND WOOD ESQ,270 MADISON AVE,NEW YORK,NY,10016-0601,0.0,3.0,1.0,199604.0,1.0,4.0,91.0,0.0,0.0,1.0,11.0,0.0,1.0,12,,M,,A40,,C,A,A,AR,AR,AR,IN,,PF,O,AR,A,0.5224770000000001,36061.0,5602.0,5600.0,core2005pf_ver1,PC,O,AR,A,IN,,A40,A
8955,133591637,2005,200512,200626.0,29491161091236.0,,N,Y,0.0,1.0,2005,3.0,5.0,6.0,3,90.0,351028,4735,1557,-2063,0,35810,0,0,391067,273258,117809,267285,298631,38604,500810,0,0,0,0,0,500810,0,14746,N,Y,N,N,N,N,N,N,N,N,N,N,N,N,N,N,N,N,N,0,0,302129,42102,273258,3498,267285,3498,3498,18637,0,0,0,500810,2986,0,0,2859,0,0,0,0,0,2986,299402,0,0,0,0,0,0,0,0,0,0,0,0,0,0,0,0,0,0,0,0,0,0,0,0,0,0,0,0,0,0,0,0,0,0,0,0,0,0,0,0,0,127,0,10022.0,ROBERT CRAFT MUSIC FOUNDATION INC,KELLEY DRYE & WARREN,505 PARK AVE 20TH FLR,NEW YORK,NY,10022-1106,0.0,3.0,2.0,199012.0,1.0,4.0,90.0,119.0,0.0,1.0,13.0,0.0,1.0,12,,,,A40,,A,A,A,AR,AR,AR,IN,,PF,O,AR,A,0.669378,36061.0,5602.0,5600.0,core2005pf_ver1,PC,O,AR,A,IN,,A40,A
8961,133593706,2005,200512,200634.0,29491217051056.0,,N,Y,0.0,1.0,2005,3.0,4.0,1.0,3,602.0,1835,0,3462,0,0,0,0,0,5297,2392,2905,0,1070,1070,143980,0,0,0,0,0,143980,0,7019,N,N,N,N,N,N,N,N,N,N,N,N,N,N,N,N,N,N,N,0,0,3462,3462,2392,2392,0,2392,2392,0,0,0,0,143980,21,0,0,0,0,21,0,0,0,21,142527,6998,0,0,0,0,0,0,0,0,0,0,0,0,0,0,0,0,0,0,0,0,0,0,0,0,0,0,0,0,0,0,0,0,0,0,0,0,0,0,0,0,0,0,10011.0,BARBARA AND HOWARD WISE ENDOWMENT FOR THE ARTS INC,,110 W 13TH ST,NEW YORK,NY,10011-7802,0.0,3.0,2.0,199202.0,1.0,4.0,602.0,561.0,0.0,1.0,13.0,0.0,1.0,12,,,,A12,,B,A,A,AR,AR,AR,IN,,PF,S,ZB,A,0.518897,36061.0,5602.0,5600.0,core2005pf_ver1,PC,S,ZB,A,IN,,A12,A
9002,133614414,2005,200512,200652.0,29491343038146.0,,N,Y,0.0,1.0,2005,3.0,6.0,4.0,3,92.0,0,0,72757,-34631,0,0,0,17000,63126,57545,5581,19517,56813,56813,2048776,0,260524,0,260524,4000,2048776,0,100632,N,Y,N,N,N,N,N,N,N,N,N,N,N,N,N,N,N,N,N,25000,0,97358,97358,40545,40545,3817,40545,40545,260027,0,0,0,2044776,568,0,0,0,0,0,0,0,0,568,2043288,100064,0,0,0,0,0,0,0,0,0,0,0,0,0,0,0,0,0,0,0,0,0,0,0,0,0,0,0,0,0,0,0,0,0,0,0,0,0,0,0,0,568,0,11103.0,ATHANASIADES CULTURAL FOUNDATION INC,,30 96 42ND ST,ASTORIA,NY,11103-3031,0.0,3.0,1.0,199302.0,1.0,4.0,92.0,0.0,0.0,1.0,11.0,0.0,1.0,12,,,,A12,20.0,B,A,A,AR,AR,AR,IN,,PF,S,ZB,A,0.7797970000000001,36081.0,5602.0,5600.0,core2005pf_ver1,PC,S,ZB,A,IN,,A1220,A
9003,133614971,2005,200511,200647.0,29491308005146.0,,N,Y,0.0,1.0,2004,2.0,9.0,8.0,3,123.0,21200000,260223,0,-153937,0,0,52885,322100,21306286,386858,20919428,379186,65130,65130,118800161,0,0,0,0,0,128350161,0,334808,N,N,N,N,Y,N,N,N,Y,N,N,N,N,N,N,N,N,Y,N,0,0,72251,72251,64758,7121,57086,7121,7121,195752,0,0,0,118800161,1303,0,0,551,0,2500,0,0,1748,1303,6798131,0,65130,252554,0,0,317684,14479186,107992,240368,81995,14909541,128350161,107004918,89908090,76404958,401668127,128154409,95978813,89904409,76404958,390442589,223205,219521,69,543,443338,0,0,0,0,0,0,0,0,0,0,0,0,0,0,0,-1748,0,10019.0,SOLOW ART AND ARCHITECTURE FOUNDATION,SHELDON H SOLOW,9 W 57TH ST,NEW YORK,NY,10019-2701,0.0,3.0,2.0,199108.0,1.0,3.0,123.0,124.0,0.0,1.0,13.0,0.0,1.0,11,,,,A40,,A,A,A,AR,AR,AR,IN,,PF,O,AR,A,0.78815,36061.0,5602.0,5600.0,core2005pf_ver1,PC,O,AR,A,IN,,A40,A
9021,133620909,2005,200506,200623.0,29491140155026.0,,N,Y,0.0,1.0,2004,3.0,8.0,6.0,3,602.0,0,165,503628,383906,0,2070787,39100,1429000,2958486,1948653,1009833,1805987,2889829,0,17197426,2683559,8771978,3808568,15264105,0,17197426,0,833513,N,N,N,N,N,N,N,N,Y,N,N,N,N,N,N,N,N,Y,N,0,0,2958486,0,519653,68657,376987,68657,0,0,0,139290,0,17197426,57797,0,0,51000,0,40000,0,686,32517,57797,16924121,775716,0,0,0,0,0,0,0,0,0,0,0,0,0,0,0,0,0,0,0,0,0,0,0,0,0,0,0,0,0,0,0,0,0,0,0,0,0,0,0,0,-32517,0,10022.0,AARON COPLAND FUND FOR MUSIC INC,ELLIS J FREEDMAN,900 THIRD AVE 23RD FLR,NEW YORK,NY,10022-4728,0.0,3.0,2.0,199108.0,1.0,4.0,602.0,119.0,0.0,1.0,13.0,0.0,1.0,6,,,,A68,,A,A,A,AR,AR,AR,IN,,PF,O,AR,A,0.700018,36061.0,5602.0,5600.0,core2005pf_ver1,PC,O,AR,A,IN,,A68,A
9028,133626986,2006,200606,200651.0,29491217030026.0,,N,Y,0.0,1.0,2005,3.0,1.0,0.0,3,998.0,0,0,0,0,0,0,0,0,0,0,0,0,0,0,1,0,0,0,0,0,1,0,0,N,N,N,N,N,N,N,N,N,N,N,N,N,N,N,N,N,N,N,0,0,0,0,0,0,0,0,0,0,0,0,0,0,0,0,0,0,0,0,0,0,0,0,0,0,0,0,0,0,0,0,0,0,0,0,0,0,0,0,0,0,0,0,0,0,0,0,0,0,0,0,0,0,0,0,0,0,0,0,0,0,0,0,0,0,0,0,10018.0,FRIENDS OF LOUISIANA MUSEUM OF MODERN ART IN DENMARK INC,ROSE & BOXER,1065 AVE OF THE AME,NEW YORK,NY,10018-0000,0.0,3.0,1.0,199201.0,1.0,4.0,998.0,0.0,0.0,1.0,13.0,0.0,1.0,6,,,,A11,51.0,A,A,A,AR,AR,AR,IN,,PF,S,ZA,A,0.68814,36061.0,5602.0,5600.0,core2005pf_ver1,PC,S,ZA,A,IN,,A1151,A
9123,133667916,2005,200512,200650.0,29491336015076.0,,N,Y,0.0,1.0,2005,3.0,6.0,5.0,3,88.0,835449,0,0,0,0,38844,76045,15,874293,756724,117569,677836,0,0,1411523,0,0,0,0,5260,1411523,0,148,N,N,N,N,N,N,N,N,N,N,N,N,N,N,N,N,N,N,N,0,0,0,38844,756709,0,677821,0,38844,28313,0,0,0,1406263,0,0,0,0,0,0,0,0,0,0,3002,0,0,0,0,0,0,0,0,0,0,0,0,0,0,0,0,0,0,0,0,0,0,0,0,0,0,0,0,0,0,0,0,0,0,0,0,0,0,0,0,0,0,0,10022.0,AXIS THEATER CO INC,PETER SHARP & CO INC,545 MADISON AVENUE,NEW YORK,NY,10022-4219,0.0,3.0,1.0,199311.0,1.0,4.0,88.0,0.0,0.0,1.0,13.0,0.0,1.0,12,,,,A65,,B,A,A,AR,AR,AR,IN,,PF,O,AR,A,0.369179,36061.0,5602.0,5600.0,core2005pf_ver1,PC,O,AR,A,IN,,A65,A
9140,133674360,2005,200512,200642.0,29491273082176.0,A20,N,Y,0.0,1.0,2005,3.0,6.0,3.0,3,90.0,0,41216,15502,0,0,0,0,0,56718,38356,18362,51,44764,44764,3382190,0,1307355,0,1307355,0,3382190,127230,128176,N,N,N,N,N,N,N,N,N,N,N,N,N,N,N,N,N,N,N,0,0,56718,56718,38356,11954,51,11954,11954,341,0,0,0,3382190,895,0,0,0,0,1000,0,16,0,895,2602551,127281,0,0,0,0,0,0,0,0,0,0,0,0,0,0,0,0,0,0,0,0,0,0,0,0,0,0,0,0,0,0,0,0,0,0,0,0,0,0,0,0,89,0,10013.0,CIVITELLA RANIERI FOUNDATION,JD MILLER & CO LLP,28 HUBERT ST,NEW YORK,NY,10013-2041,0.0,3.0,1.0,199302.0,1.0,4.0,90.0,62.0,93.0,2.0,13.0,0.0,1.0,12,,,,A20,,B,A,A,AR,AR,AR,IN,,PF,O,AR,A,0.188185,36061.0,5602.0,5600.0,core2005pf_ver1,PC,O,AR,A,IN,,A20,A
9151,133680271,2005,200507,200607.0,29491014013216.0,,N,Y,0.0,1.0,2004,3.0,3.0,3.0,3,60.0,50000,510,0,0,0,8,0,0,50518,63162,-12644,63154,502,0,49611,0,0,0,0,0,49611,0,3507,N,Y,N,N,N,N,N,N,N,N,N,N,N,N,N,N,N,N,N,0,0,510,0,63162,8,63154,8,0,0,0,0,0,49611,5,0,0,0,0,0,0,0,0,5,71200,0,0,0,0,0,0,0,0,0,0,0,0,0,0,0,0,0,0,0,0,0,0,0,0,0,0,0,0,0,0,0,0,0,0,0,0,0,0,0,0,0,5,0,10010.0,MUSEUM VIEWS LTD,LILA A SHERMAN,2 PETER COOPER RD APT 9G,NEW YORK,NY,10010-6731,0.0,3.0,1.0,199301.0,1.0,4.0,60.0,0.0,0.0,1.0,13.0,0.0,1.0,7,MUSEUM VIEWS,,,A50,,A,A,A,AR,AR,AR,IN,,PF,O,AR,A,0.179309,36061.0,5602.0,5600.0,core2005pf_ver1,PC,O,AR,A,IN,,A50,A
9189,133693565,2005,200506,200623.0,29491140260116.0,,N,Y,0.0,1.0,2004,3.0,4.0,6.0,3,994.0,1004710,437,3336,568,-695118,0,90546,0,313933,160966,152967,42954,706425,0,356916,0,0,0,0,94211,355743,0,14465,N,Y,N,N,N,N,Y,N,N,N,N,N,N,N,N,N,N,N,N,0,698652,709803,-691345,160966,3378,42954,3378,105027,55718,0,209197,0,262705,7064,0,0,7200,0,0,0,99,37,7064,293712,0,0,0,0,0,0,0,0,0,0,0,0,0,0,0,0,0,0,0,0,0,0,0,0,0,0,0,0,0,0,0,0,0,0,0,0,0,0,0,0,0,-37,0,10013.0,CROWING ROOSTER ARTS INC,,100 LAFAYETTE STREET 602,NEW YORK,NY,10013-4400,0.0,3.0,1.0,199306.0,1.0,4.0,994.0,122.0,0.0,1.0,13.0,199706.0,1.0,6,,,,A20,,B,A,A,AR,AR,AR,IN,,PF,O,AR,A,0.762047,36061.0,5602.0,5600.0,core2005pf_ver1,PC,O,AR,A,IN,,A20,A
9209,133699100,2005,200512,200626.0,29491162143196.0,,N,Y,0.0,1.0,2005,3.0,3.0,3.0,3,602.0,0,72,1252,8831,0,0,0,2500,10155,2772,7383,2759,10142,0,49216,0,45641,0,45641,0,50773,2266,2367,N,Y,N,N,N,N,N,N,N,N,N,Y,N,N,N,N,N,N,N,0,0,10155,0,272,13,259,13,0,3575,0,0,0,49216,101,0,0,0,0,0,0,0,0,101,48068,2266,0,0,0,0,0,0,0,0,0,0,0,0,0,0,0,0,0,0,0,0,0,0,0,0,0,0,0,0,0,0,0,0,0,0,0,0,0,0,0,0,101,0,10016.0,MR AND MRS RAYMOND J HOROWITZ FOUNDATION FOR THE ARTS INC,RAYMOND J HOROWITZ,600 THIRD AVE,NEW YORK,NY,10016-1901,0.0,3.0,1.0,199305.0,1.0,4.0,602.0,0.0,0.0,1.0,13.0,0.0,1.0,12,,,,A12,,B,A,A,AR,AR,AR,IN,,PF,S,ZB,A,0.2776,36061.0,5602.0,5600.0,core2005pf_ver1,PC,S,ZB,A,IN,,A12,A
9216,133702827,2005,200512,200628.0,29491168021006.0,,N,Y,0.0,1.0,2005,3.0,1.0,6.0,3,994.0,1297136,0,0,0,0,783,0,0,1304394,294410,1009984,294410,0,0,9009,0,0,0,0,0,9009,0,443,N,N,N,N,Y,N,N,N,N,N,N,N,N,N,N,N,N,N,N,6475,0,0,0,294410,0,294410,0,0,6688,0,0,0,9009,0,0,0,0,0,0,0,0,0,0,9009,0,0,0,0,0,0,0,0,0,0,0,0,0,0,0,0,0,0,0,0,0,0,0,0,0,0,0,0,0,0,0,0,0,0,0,0,0,0,0,0,0,0,0,10019.0,MILLENIAL ARTS INCORPORATED,GMH CONSULTING INC,130 W 56TH ST 705,NEW YORK,NY,10019-3866,0.0,3.0,1.0,199407.0,1.0,4.0,994.0,90.0,94.0,1.0,13.0,0.0,1.0,12,,,,A61,,C,A,A,AR,AR,AR,IN,,PF,O,AR,A,0.525846,36061.0,5602.0,5600.0,core2005pf_ver1,PC,O,AR,A,IN,,A99,A
9232,133711111,2005,200512,200627.0,29491168110016.0,,N,Y,0.0,1.0,2005,3.0,1.0,1.0,3,994.0,0,0,0,0,0,0,0,0,1,0,1,0,0,0,1,0,0,0,0,0,1,0,0,N,N,N,N,N,N,N,N,N,N,N,N,N,N,N,N,N,N,N,0,0,0,0,0,0,0,0,0,0,0,0,0,0,0,0,0,0,0,0,0,0,0,0,0,0,0,0,0,0,0,0,0,0,0,0,0,0,0,0,0,0,0,0,0,0,0,0,0,0,0,0,0,0,0,0,0,0,0,0,0,0,0,0,0,0,0,0,10005.0,COBH HERITAGE FOUNDATION,CHARLES D MOONEY,88 PINE ST,NEW YORK,NY,10005-1801,0.0,3.0,1.0,199306.0,1.0,4.0,994.0,0.0,0.0,1.0,13.0,0.0,1.0,12,,,,A82,,B,A,A,AR,AR,AR,IN,,PF,O,AR,A,0.18426099999999998,36061.0,5602.0,5600.0,core2005pf_ver1,PC,O,AR,A,IN,,T99,T
9244,133719303,2006,200603,200638.0,29491252000236.0,A75Z,N,Y,0.0,1.0,2005,2.0,1.0,0.0,3,914.0,0,0,0,0,0,0,0,0,0,580,-580,0,0,0,305,0,0,0,0,33644,305,0,15,N,N,N,N,Y,N,N,N,N,N,N,N,N,N,N,N,N,N,N,0,0,0,0,580,0,0,0,0,305,0,0,0,-33339,0,0,0,0,0,0,0,0,0,0,305,0,1,0,0,0,1,0,0,0,0,0,0,0,0,0,0,0,0,0,0,0,10,10,10,10,40,0,0,0,0,0,0,0,0,0,0,0,0,0,0,0,0,0,10017.0,KAWAMURA CULTURAL FOUNDATION INC,KISO & TANAKA,675 3RD AVE STE 3008,NEW YORK,NY,10017-5704,0.0,3.0,2.0,199504.0,1.0,3.0,914.0,119.0,0.0,1.0,13.0,0.0,1.0,3,,,,A12,20.0,B,A,A,AR,AR,AR,IN,,PF,S,ZB,A,0.849856,36061.0,5602.0,5600.0,core2005pf_ver1,PC,S,ZB,A,IN,,A1220,A
9248,133721844,2005,200512,200623.0,29491140115096.0,,N,Y,0.0,1.0,2005,3.0,4.0,1.0,3,40.0,0,0,6748,-1,0,0,0,7738,6747,11377,-4630,7738,6748,0,207355,0,146664,0,146664,0,268872,4043,11848,N,Y,N,N,N,N,N,N,N,N,N,N,N,N,N,N,N,N,N,0,0,6748,0,3639,0,0,0,0,0,0,0,0,207355,0,0,0,300,0,0,0,0,233,67,240574,11781,0,0,0,0,0,0,0,0,0,0,0,0,0,0,0,0,0,0,0,0,0,0,0,0,0,0,0,0,0,0,0,0,0,0,0,0,0,0,0,0,-233,0,10003.0,MICHAEL HAUSMAN FILMHAUS FOUNDATION INC,MICHAEL HAUSMAN,736 BROADWAY,NEW YORK,NY,10003-9519,0.0,3.0,1.0,199311.0,1.0,4.0,40.0,0.0,0.0,1.0,13.0,0.0,1.0,12,,,,A31,,A,A,A,AR,AR,AR,IN,,PF,O,AR,A,0.7673180000000001,36061.0,5602.0,5600.0,core2005pf_ver1,PC,O,AR,A,IN,,A31,A
9330,133747036,2005,200511,200617.0,29491098017036.0,,N,Y,0.0,1.0,2004,2.0,8.0,6.0,3,62.0,1423073,7134,199033,42948,0,29860,0,14500,1702048,712855,989193,314152,330579,0,16831064,2245527,3081538,0,5327065,0,17219057,0,269057,N,N,N,N,Y,N,N,N,N,N,N,N,N,N,N,N,N,N,N,0,0,339920,236027,698355,9341,299652,9341,385592,57610,0,0,0,16831064,6612,0,0,11000,0,0,0,0,4388,6612,5463091,0,1,0,0,0,1,314152,276617,305459,191402,1087630,17264059,16313342,15656687,15441361,64675449,12907919,12588074,12314035,11886210,49696238,0,0,0,0,0,0,0,0,0,0,0,0,0,0,0,0,0,0,0,0,-4388,0,10128.0,CLASSICAL AMERICAN HOMES PRESERVATION TRUST,CSAM,69 E 93RD ST,NEW YORK,NY,10128-1331,0.0,3.0,1.0,199409.0,1.0,3.0,62.0,0.0,0.0,1.0,13.0,0.0,1.0,11,,,,A82,,B,A,A,AR,AR,AR,IN,,PF,O,AR,A,0.282114,36061.0,5602.0,5600.0,core2005pf_ver1,PC,O,AR,A,IN,,A82,A
9334,133747492,2005,200506,200630.0,29491162140166.0,A20J,N,Y,0.0,1.0,2004,3.0,3.0,4.0,3,994.0,129857,146,0,0,0,0,0,0,130003,139930,-9927,139930,146,146,60025,0,0,0,0,70706,60025,0,2262,N,N,N,N,N,N,Y,N,N,N,N,N,N,N,N,N,N,N,N,0,0,146,146,139930,0,139930,0,0,50025,0,0,0,-10681,3,0,0,0,0,0,0,0,0,3,45921,2259,0,0,0,0,0,0,0,0,0,0,0,0,0,0,0,0,0,0,0,0,0,0,0,0,0,0,0,0,0,0,0,0,0,0,0,0,0,0,0,0,3,0,10022.0,INTERNATIONAL CENTER OF DESIGN ART TO GOD TO THE WORLD AND TO MAN INC,WOLF POPPER LLP,845 THIRD AVE 12TH FLR,NEW YORK,NY,10022-6601,0.0,3.0,1.0,199505.0,1.0,4.0,994.0,119.0,63.0,1.0,13.0,0.0,1.0,6,,,,A20,,B,A,A,AR,AR,AR,IN,,PF,O,AR,A,0.9733350000000001,36061.0,5602.0,5600.0,core2005pf_ver1,PC,O,AR,A,IN,,A20,A
9335,133747516,2005,200512,200622.0,29491133075006.0,,N,Y,0.0,1.0,2005,3.0,1.0,1.0,3,994.0,0,0,0,0,0,0,0,0,1,0,1,0,0,0,3500,0,0,0,0,0,3500,0,0,N,N,N,N,N,N,N,N,N,N,N,N,N,N,N,N,N,N,N,0,0,0,0,0,0,0,0,0,0,0,0,0,3500,0,0,0,0,0,0,0,0,0,0,0,0,0,0,0,0,0,0,0,0,0,0,0,0,0,0,0,0,0,0,0,0,0,0,0,0,0,0,0,0,0,0,0,0,0,0,0,0,0,0,0,0,0,0,10031.0,OMNIFICENT INK PRODUCTIONS INC,,626 RIVERSIDE DR APT 10J,NEW YORK,NY,10031-7214,0.0,3.0,1.0,199410.0,1.0,4.0,994.0,88.0,0.0,1.0,13.0,0.0,1.0,12,,,,A60,,C,A,A,AR,AR,AR,IN,,PF,O,AR,A,0.0762407,36061.0,5602.0,5600.0,core2005pf_ver1,PC,O,AR,A,IN,,A60,A
9336,133747781,2005,200511,200646.0,29491301023016.0,,N,Y,0.0,1.0,2004,2.0,6.0,4.0,3,994.0,0,1473,25939,18707,0,0,13000,0,46119,167809,-121690,151885,46119,27412,1274569,0,916637,0,916637,306,1167229,0,53628,N,N,N,N,Y,N,N,N,Y,N,N,N,N,N,N,N,N,N,N,0,0,46119,27412,167809,0,151885,0,0,37652,0,0,0,1274263,922,0,0,1462,0,0,0,0,540,922,1088892,0,27412,26882,23827,68668,146789,151885,239688,291284,451982,1134839,0,0,0,0,0,0,0,0,0,0,35752,43594,47405,51567,178318,0,0,0,0,0,0,0,0,0,0,0,0,0,0,0,-540,0,10012.0,INSTITUTE FOR COOPERATION OF ART AND RESEARCH INC,CITRIN COOPERMAN,77 BLEECKER ST C2W14,NEW YORK,NY,10012-1556,0.0,3.0,1.0,199405.0,1.0,3.0,994.0,199.0,0.0,1.0,13.0,0.0,1.0,11,,,,A25,,B,A,A,AR,AR,AR,IN,,PF,O,AR,A,0.46119799999999994,36061.0,5602.0,5600.0,core2005pf_ver1,PC,O,AR,A,IN,,A25,A
9367,133753037,2005,200512,200632.0,29491162037016.0,,N,Y,0.0,1.0,2005,3.0,1.0,0.0,3,124.0,0,0,0,0,0,0,0,0,0,0,0,0,0,0,865,0,0,0,0,1950,865,0,0,N,N,N,N,N,N,N,N,N,N,N,N,N,N,N,N,N,N,N,0,0,0,0,0,0,0,0,0,0,0,0,0,-1085,0,0,0,0,0,0,0,0,0,0,0,0,0,0,0,0,0,0,0,0,0,0,0,0,0,0,0,0,0,0,0,0,0,0,0,0,0,0,0,0,0,0,0,0,0,0,0,0,0,0,0,0,0,0,10168.0,PUBLIC OPINION INC,MICHAEL BARNETT,122 E 42ND ST STE 200,NEW YORK,NY,10168-0299,0.0,3.0,1.0,199408.0,1.0,4.0,124.0,125.0,0.0,1.0,13.0,0.0,1.0,12,,,,A70,,C,A,A,AR,AR,AR,IN,,PF,O,AR,A,0.28401,36061.0,5602.0,5600.0,core2005pf_ver1,PC,O,AR,A,IN,,A70,A
9401,133772926,2005,200512,200623.0,29491140009076.0,A51Z,N,Y,0.0,1.0,2005,3.0,3.0,3.0,3,994.0,100,23,651,573,0,0,0,53000,1347,56670,-55323,55358,50209,0,55155,0,49608,0,49608,0,50921,0,3392,N,Y,N,N,N,N,N,N,N,N,N,N,N,N,N,N,N,N,N,0,0,51512,0,3670,1303,2358,1303,0,5547,0,0,0,55155,502,0,0,0,0,0,0,0,0,502,68873,2890,0,0,0,0,0,0,0,0,0,0,0,0,0,0,0,0,0,0,0,0,0,0,0,0,0,0,0,0,0,0,0,0,0,0,0,0,0,0,0,0,502,0,10010.0,V I A ART INC,FRANK E BUNTS,15 W 24TH ST 7TH FLR,NEW YORK,NY,10010-3214,0.0,3.0,1.0,199505.0,1.0,4.0,994.0,91.0,0.0,1.0,13.0,199712.0,1.0,12,,,,A51,,B,A,A,AR,AR,AR,IN,,PF,O,AR,A,0.8441549999999999,36061.0,5602.0,5600.0,core2005pf_ver1,PC,O,AR,A,IN,,A51,A
9421,133781874,2005,200512,200626.0,29491162192216.0,A51Z,N,Y,0.0,1.0,2005,3.0,7.0,6.0,3,60.0,0,49502,81574,905500,0,0,47500,254000,1036576,412058,624518,283613,926843,0,8046702,0,5574275,49282,5623557,0,9918184,291965,467690,N,N,N,N,N,N,N,N,Y,N,N,Y,N,N,N,N,N,N,N,0,0,1036576,0,158058,109733,29613,109733,0,86350,0,666433,0,8046702,18537,0,0,11976,0,0,0,0,0,18537,9496233,449153,0,0,0,0,0,0,0,0,0,0,0,0,0,0,0,0,0,0,0,0,0,0,0,0,0,0,0,0,0,0,0,0,0,0,0,0,0,0,0,0,6561,0,10011.0,COBY FOUNDATION LTD,MILBANK TWEED HADLEY & MCCLOY,511 AVENUE OF THE AMERICAS STE 387,NEW YORK,NY,10011-8436,0.0,3.0,1.0,199503.0,1.0,4.0,60.0,0.0,0.0,1.0,13.0,0.0,1.0,12,,,,A51,,B,A,A,AR,AR,AR,IN,,PF,O,AR,A,0.726675,36061.0,5602.0,5600.0,core2005pf_ver1,PC,O,AR,A,IN,,A51,A
9427,133783618,2005,200512,200637.0,29491231073206.0,A65Z,N,Y,0.0,1.0,2005,3.0,1.0,1.0,3,994.0,0,0,0,0,0,0,0,0,1,0,1,0,0,0,1,0,0,0,0,0,0,0,0,N,N,N,N,N,N,N,N,N,N,N,N,N,N,N,N,N,N,N,0,0,0,0,0,0,0,0,0,0,0,0,0,0,0,0,0,0,0,0,0,0,0,0,0,0,0,0,0,0,0,0,0,0,0,0,0,0,0,0,0,0,0,0,0,0,0,0,0,0,0,0,0,0,0,0,0,0,0,0,0,0,0,0,0,0,0,0,10036.0,WORLD CITY PICTURES INC,,520 W 43RD ST 5L,NEW YORK,NY,10036-4345,0.0,3.0,1.0,199601.0,1.0,4.0,994.0,92.0,0.0,1.0,13.0,0.0,1.0,12,,,,A65,,B,A,A,AR,AR,AR,IN,,PF,O,AR,A,0.19522,36061.0,5602.0,5600.0,core2005pf_ver1,PC,O,AR,A,IN,,A65,A
9453,133794021,2005,200512,200626.0,29491161027106.0,A60Z,N,Y,0.0,1.0,2005,3.0,4.0,4.0,3,602.0,180000,22,0,0,0,0,0,0,180022,26,179996,0,22,0,181692,0,0,0,0,0,181692,0,83,N,N,N,N,N,N,N,N,N,N,N,N,N,N,N,N,N,N,N,0,0,22,0,26,0,0,0,0,0,0,0,0,181692,0,0,0,0,0,0,0,0,0,0,1689,83,0,0,0,0,0,0,0,0,0,0,0,0,0,0,0,0,0,0,0,0,0,0,0,0,0,0,0,0,0,0,0,0,0,0,0,0,0,0,0,0,0,0,10314.0,GOTTLIEB-SCHWARTZ FAMILY FOUNDATION INC,WEISS & COMPANY,724 COLLFIELD AVE,STATEN ISLAND,NY,10314-4253,0.0,3.0,1.0,199505.0,1.0,4.0,602.0,0.0,0.0,1.0,13.0,0.0,1.0,12,,,,A60,,B,A,A,AR,AR,AR,IN,,PF,O,AR,A,0.05886369999999999,36085.0,5602.0,5600.0,core2005pf_ver1,PC,O,AR,A,IN,,A60,A
9456,133794783,2006,200606,200634.0,29491217021106.0,A50Z,N,Y,0.0,1.0,2005,3.0,0.0,0.0,3,994.0,0,0,0,0,0,0,0,0,0,0,0,0,0,0,0,0,0,0,0,0,0,0,0,N,N,N,N,N,N,N,N,N,N,N,N,N,N,N,N,N,N,N,0,0,0,0,0,0,0,0,0,0,0,0,0,0,0,0,0,0,0,0,0,0,0,0,0,0,0,0,0,0,0,0,0,0,0,0,0,0,0,0,0,0,0,0,0,0,0,0,0,0,0,0,0,0,0,0,0,0,0,0,0,0,0,0,0,0,0,0,10011.0,CONTEMPORARY ART FOR AMERICA,DELEY GAZINELLI,330 15TH ST 5D,NEW YORK,NY,10011-5963,0.0,3.0,2.0,199507.0,1.0,4.0,994.0,60.0,0.0,1.0,13.0,0.0,1.0,6,,,,A50,,B,A,A,AR,AR,AR,IN,,PF,O,AR,A,0.0702618,36061.0,5602.0,5600.0,core2005pf_ver1,PC,O,AR,A,IN,,A50,A
9461,133795843,2005,200509,200612.0,29491056023076.0,A51Z,N,Y,0.0,1.0,2004,2.0,5.0,3.0,3,559.0,6564,0,37648,19544,0,856,0,51000,64612,63694,918,52698,56148,38504,725485,18887,0,0,18887,93031,796124,0,24862,N,Y,N,N,Y,N,Y,N,N,N,N,N,N,N,N,N,N,N,N,0,0,58048,38504,12694,1900,1698,1900,0,40661,0,0,0,632454,561,0,0,600,0,0,0,0,39,561,504802,0,1,0,0,0,1,0,0,0,0,0,0,0,0,0,0,0,0,0,0,0,0,0,0,0,0,0,0,0,0,0,0,0,0,0,0,0,0,0,0,0,39,0,10118.0,DEANE & SUSAN PENN ART FOUNDATION INC,L WOLLIN,350 FIFTH AVE STE 2822,NEW YORK,NY,10118-2899,0.0,3.0,1.0,199507.0,1.0,3.0,559.0,0.0,0.0,1.0,13.0,0.0,1.0,9,,,,A12,,B,A,A,AR,AR,AR,IN,,PF,S,ZB,A,0.15677,36061.0,5602.0,5600.0,core2005pf_ver1,PC,S,ZB,A,IN,,A12,A
9513,133800381,2005,200511,200639.0,29491252034196.0,B99I,N,Y,0.0,1.0,2004,3.0,3.0,6.0,3,994.0,1290000,0,0,0,0,0,0,1243439,1290000,1243590,46410,1243439,0,0,54449,0,0,0,0,0,54449,0,2558,N,N,N,N,N,N,N,N,N,N,N,N,N,N,N,N,N,N,N,0,0,0,0,151,0,0,0,0,54449,0,0,0,54449,0,0,0,0,0,0,0,0,0,0,51937,2558,0,0,0,0,0,0,0,0,0,0,0,0,0,0,0,0,0,0,0,0,0,0,0,0,0,0,0,0,0,0,0,0,0,0,0,0,0,0,0,0,0,0,11385.0,THE GODINGER LEFKOWITZ MEMORIAL FOUNDATION INC,,63 15 TRAFFIC AVE,RIDGEWOOD,NY,11385-2629,0.0,3.0,1.0,199505.0,1.0,4.0,994.0,602.0,0.0,1.0,11.0,199911.0,1.0,11,,,,A80,,B,A,A,AR,AR,AR,IN,,PF,O,AR,A,0.47300299999999995,36081.0,5602.0,5600.0,core2005pf_ver1,PC,O,AR,A,IN,,B99,B
9535,133802490,2005,200512,200642.0,29491273032016.0,A76Z,N,Y,0.0,1.0,2005,2.0,3.0,4.0,3,93.0,332805,37,0,0,0,0,0,5365,332842,356486,-23644,5365,37,0,80746,0,0,0,0,5490,65246,0,0,N,N,N,N,Y,N,N,N,N,N,N,N,N,N,N,N,N,N,N,0,0,37,37,351121,0,0,0,7599,20234,0,0,0,75256,1,0,0,0,0,0,0,0,0,1,0,0,1,0,0,0,1,5365,53609,64055,0,123029,1,0,0,0,1,0,0,0,0,0,0,0,0,0,0,0,0,0,0,0,0,0,0,0,0,0,0,0,0,0,1,0,10019.0,FOUNDATION FOR HELLENIC CULTURE INC,PERSON & CP,7 W 57TH ST,NEW YORK,NY,10019-3404,0.0,3.0,1.0,199504.0,1.0,3.0,93.0,0.0,0.0,1.0,13.0,0.0,1.0,12,,,,A12,,B,A,A,AR,AR,AR,IN,,PF,S,ZB,A,0.0584935,36061.0,5602.0,5600.0,core2005pf_ver1,PC,S,ZB,A,IN,,A12,A
9548,133808182,2005,200512,200651.0,29491336108216.0,B82J,N,Y,0.0,1.0,2005,3.0,1.0,3.0,3,561.0,45000,0,0,0,0,0,0,47300,45000,49498,-4498,49498,0,0,1239,0,0,0,0,0,1239,0,466,N,N,N,N,N,N,N,N,N,N,N,N,N,N,N,N,N,N,N,0,0,0,0,2198,0,2198,0,0,1239,0,0,0,1239,0,0,0,0,0,0,0,0,0,0,9469,466,0,0,0,0,0,0,0,0,0,0,0,0,0,0,0,0,0,0,0,0,0,0,0,0,0,0,0,0,0,0,0,0,0,0,0,0,0,0,0,0,0,0,10016.0,SUSAN W ROSE FUND FOR MUSIC INC,MORRIS MANSFIELD,200 MADISON AVE,NEW YORK,NY,10016-3903,0.0,3.0,1.0,199509.0,1.0,4.0,561.0,90.0,602.0,1.0,13.0,0.0,1.0,12,,,,A68,,A,A,A,AR,AR,AR,IN,,PF,O,AR,A,0.814805,36061.0,5602.0,5600.0,core2005pf_ver1,PC,O,AR,A,IN,,A68,A
9549,133809561,2005,200511,200605.0,29491007133176.0,A50Z,N,Y,0.0,20.0,2004,3.0,1.0,1.0,3,90.0,0,3833,0,0,0,0,0,490171,3833,506675,-502842,502075,0,0,1,0,0,0,0,0,1,0,12512,N,N,N,Y,N,N,N,N,N,N,N,N,N,N,N,N,N,N,N,0,0,3833,0,16504,4600,11904,4600,4600,0,0,0,0,0,0,0,0,0,0,0,0,0,0,0,254049,12512,0,0,0,0,0,0,0,0,0,0,0,0,0,0,0,0,0,0,0,0,0,0,0,0,0,0,0,0,0,0,0,0,0,0,0,0,0,0,0,0,0,0,10024.0,ARTUR BALSAM FOUNDATION FOR CHAMBER MUSIC,LINDA ROSDEITCHER,90 RIVERSIDE DR,NEW YORK,NY,10024-5306,0.0,3.0,1.0,199505.0,1.0,4.0,90.0,0.0,0.0,1.0,13.0,0.0,1.0,11,,,,A6C,,A,A,A,AR,AR,AR,IN,,PF,O,AR,A,0.8222430000000001,36061.0,5602.0,5600.0,core2005pf_ver1,PC,O,AR,A,IN,,A6C,A
9552,133811670,2005,200512,200626.0,29491162209116.0,A76Z,N,Y,0.0,1.0,2005,3.0,2.0,1.0,3,995.0,2615,0,0,0,0,0,0,0,2615,0,2615,0,0,0,19076,0,0,0,0,0,19076,0,0,N,N,N,N,N,N,N,N,N,N,N,N,N,N,N,N,N,N,N,0,0,0,0,0,0,0,0,0,1692,0,0,0,19076,0,0,0,0,0,0,0,0,0,0,0,0,0,0,0,0,0,0,0,0,0,0,0,0,0,0,0,0,0,0,0,0,0,0,0,0,0,0,0,0,0,0,0,0,0,0,0,0,0,0,0,0,0,0,10016.0,HAPPY ORGANIZATION,DAN PEYTON,240 E 35TH ST APT 11A,NEW YORK,NY,10016-4220,0.0,3.0,1.0,199510.0,1.0,4.0,995.0,92.0,0.0,5.0,13.0,0.0,1.0,12,,,,A70,,C,A,A,AR,AR,AR,IN,,PF,O,AR,A,0.335982,36061.0,5602.0,5600.0,core2005pf_ver1,PC,O,AR,A,IN,,A70,A
9558,133830526,2005,200512,200633.0,29491210015176.0,T20Z,N,Y,0.0,1.0,2005,3.0,6.0,1.0,3,602.0,0,471,0,-2800,0,0,0,2000,-2329,22834,-25163,22828,471,0,1332809,0,0,0,0,0,1332809,0,66261,N,N,N,N,N,N,N,N,N,N,N,N,N,N,N,N,N,N,N,0,0,471,0,20834,0,20828,0,0,4651,0,0,0,1332809,9,0,0,0,0,0,0,0,0,9,1345391,66252,0,0,0,0,0,0,0,0,0,0,0,0,0,0,0,0,0,0,0,0,0,0,0,0,0,0,0,0,0,0,0,0,0,0,0,0,0,0,0,0,9,0,10006.0,DOROTHY DEHNER FOUNDATION FOR THE VISUAL ARTS,BRAUNER BARON ROSENZWEIG & KLEIN,61 BROADWAY 18TH FLR,NEW YORK,NY,10006-2708,0.0,3.0,1.0,199506.0,1.0,4.0,602.0,0.0,0.0,1.0,13.0,0.0,1.0,12,,M,,A40,,A,A,A,AR,AR,AR,IN,,PF,O,AR,A,0.168872,36061.0,5602.0,5600.0,core2005pf_ver1,PC,O,AR,A,IN,,A40,A
9562,133832587,2005,200506,200623.0,29491140257076.0,A56I,N,Y,0.0,1.0,2004,2.0,4.0,5.0,3,60.0,530341,52,628,0,0,14227,0,0,545248,755952,-210704,715119,676,6096,339126,0,0,0,0,0,339126,0,4923,N,N,N,N,Y,N,N,N,N,N,N,N,N,N,N,N,N,N,N,0,0,676,14907,755952,0,715119,0,8811,72344,0,0,0,339126,14,0,0,40,0,0,0,0,26,14,99955,0,4923,18522,13603,0,37048,194078,710487,501863,387611,1794039,0,0,0,0,0,0,0,0,0,0,3282,12348,9069,7229,31928,0,0,0,0,0,0,0,0,0,0,0,0,0,0,0,-26,0,10020.0,INSTITUTE FOR AEGEAN PREHISTORY STUDY CENTER FOR EAST CRETE,MILLBURN CORPORATION,1270 6TH AVE,NEW YORK,NY,10020-1700,0.0,3.0,1.0,199508.0,1.0,3.0,60.0,199.0,119.0,1.0,13.0,0.0,1.0,6,,,,A70,,A,A,A,AR,AR,AR,IN,,PF,O,AR,A,0.944916,36061.0,5602.0,5600.0,core2005pf_ver1,PC,O,AR,A,IN,,A70,A
9565,133834448,2005,200508,200609.0,29491042032186.0,A60Z,N,Y,0.0,1.0,2004,3.0,1.0,0.0,3,995.0,0,0,0,0,0,0,0,0,0,0,0,0,0,0,32,0,0,0,0,0,32,1,1,N,N,N,N,N,N,N,N,N,N,N,N,N,N,N,N,N,N,N,0,0,0,0,0,0,0,0,0,32,0,0,0,0,0,0,0,0,0,0,0,0,0,0,32,1,0,0,0,0,0,0,0,0,0,0,0,0,0,0,0,0,0,0,0,0,0,0,0,0,0,0,0,0,0,0,0,0,0,0,0,0,0,0,0,0,0,0,10023.0,CHOREOTECTONICS INC,RUKA KITO,155 W 70TH ST PH 2G,NEW YORK,NY,10023-4429,0.0,3.0,2.0,199605.0,1.0,4.0,995.0,90.0,0.0,1.0,13.0,0.0,1.0,8,,,,A60,,B,A,A,AR,AR,AR,IN,,PF,O,AR,A,0.325423,36061.0,5602.0,5600.0,core2005pf_ver1,PC,O,AR,A,IN,,A60,A
9572,133838457,2005,200512,200647.0,29491308018196.0,Z99Z,N,Y,0.0,1.0,2005,2.0,9.0,9.0,3,91.0,46727408,0,503405,650683,0,0,300000,431128,47881496,1349090,46532406,1117621,805627,0,148038875,7715613,12672659,210682,20598954,17479,150563648,0,1153640,N,N,N,N,Y,N,N,N,N,N,N,N,N,N,N,N,N,N,N,0,0,1016805,0,917962,211178,686493,211178,0,137890,0,0,0,148021396,16113,0,0,7485,0,17000,0,213,8159,16113,23424169,0,1,0,0,0,1,0,0,0,0,0,1,0,0,0,1,0,0,0,0,0,0,0,0,0,0,0,0,0,0,0,0,0,0,0,0,0,0,0,0,0,-8159,0,10022.0,PIERRE AND MARIA GAETANA MATISSE FOUNDATION,,1 EAST 53RD ST,NEW YORK,NY,10022-4200,0.0,3.0,1.0,199512.0,1.0,3.0,91.0,0.0,0.0,1.0,13.0,0.0,1.0,12,,M,,A40,,C,A,A,AR,AR,AR,IN,,PF,O,AR,A,0.34310799999999997,36061.0,5602.0,5600.0,core2005pf_ver1,PC,O,AR,A,IN,,A40,A
9574,133840653,2005,200512,200641.0,29491259094176.0,A99Z,N,Y,0.0,20.0,2005,3.0,1.0,1.0,3,995.0,0,0,0,0,0,0,0,0,1,0,1,0,0,0,208,0,0,0,0,0,208,0,0,N,N,N,N,N,N,N,N,N,N,N,N,N,N,N,N,N,N,N,0,0,0,0,0,0,0,0,0,208,0,0,0,208,0,0,0,0,0,0,0,0,0,0,0,0,0,0,0,0,0,0,0,0,0,0,0,0,0,0,0,0,0,0,0,0,0,0,0,0,0,0,0,0,0,0,0,0,0,0,0,0,0,0,0,0,0,0,10036.0,YOUNG ARTISTS GROUP INC,BRETT SINGER,C/O BRETT SINGER ASSOC LLC,NEW YORK,NY,10036-0000,0.0,3.0,2.0,199509.0,1.0,4.0,995.0,88.0,119.0,1.0,13.0,0.0,1.0,12,BRETT SINGER ASSOC LLC,,,A03,40.0,A,A,A,AR,AR,AR,IN,,PF,O,AR,A,0.029754000000000003,36061.0,5602.0,5600.0,core2005pf_ver1,PC,O,AR,A,IN,,A0340,A
9652,133885307,2005,200509,200636.0,29491231044106.0,A51Z,N,Y,0.0,1.0,2004,2.0,8.0,5.0,3,91.0,40000,4233,57570,126133,0,4034,126870,87800,231970,460890,-228920,421966,52893,52635,11557988,1145012,522597,0,1667609,4030,11524648,0,86917,N,Y,N,N,Y,N,N,N,N,Y,N,N,N,N,N,N,Y,N,N,0,0,62061,65837,373090,9168,334166,9168,13202,342,0,0,0,11553958,529,0,0,1513,0,0,0,0,984,529,1764808,0,52635,47711,57934,61746,220026,421966,403122,404685,368869,1598642,11524648,11743596,11932858,12174976,47376078,8739971,9025596,9103496,9115921,35984984,57945,86278,93175,105585,342983,0,0,0,0,0,0,0,0,0,0,0,0,0,0,0,-984,0,10012.0,NANCY GRAVES FOUNDATION INC,HECHT & COMPANY,4A,NEW YORK,NY,10012-0000,0.0,3.0,1.0,199704.0,1.0,3.0,91.0,0.0,0.0,1.0,13.0,0.0,1.0,9,,M,,A51,,B,A,A,AR,AR,AR,IN,,PF,O,AR,A,0.7098770000000001,36061.0,5602.0,5600.0,core2005pf_ver1,PC,O,AR,A,IN,,A51,A
9657,133888511,2005,200503,200614.0,29491070059076.0,A20Z,N,Y,0.0,1.0,2004,3.0,3.0,4.0,3,119.0,257000,0,0,0,0,0,0,120000,257000,264543,-7543,264543,0,0,25365,0,0,0,0,7000,25365,0,1222,N,N,N,N,N,N,N,N,N,N,N,N,N,N,N,N,N,N,N,0,0,0,0,144543,0,144543,0,0,25365,0,0,0,18365,0,0,0,0,0,0,0,0,0,0,24820,1222,0,0,0,0,0,0,0,0,0,0,0,0,0,0,0,0,0,0,0,0,0,0,0,0,0,0,0,0,0,0,0,0,0,0,0,0,0,0,0,0,0,0,10022.0,INTERNATIONAL FOUNDATION FOR ARTS & CULTURE INC,TOSHU FUKAMI,150 E 57TH ST APT 9D,NEW YORK,NY,10022-2785,0.0,3.0,2.0,199610.0,1.0,4.0,119.0,0.0,0.0,1.0,13.0,0.0,1.0,3,,,,A12,20.0,B,A,A,AR,AR,AR,IN,,PF,S,ZB,A,0.567125,36061.0,5602.0,5600.0,core2005pf_ver1,PC,S,ZB,A,IN,,A1220,A
9661,133892585,2005,200509,200639.0,29491252028226.0,,N,Y,0.0,1.0,2004,3.0,1.0,1.0,3,994.0,0,0,0,0,0,0,0,0,1,0,1,0,0,0,1,0,0,0,0,0,1,0,0,N,N,N,N,N,N,Y,N,N,N,N,N,N,N,N,N,N,N,N,0,0,0,0,0,0,0,0,0,0,0,0,0,0,0,0,0,0,0,0,0,0,0,0,0,0,0,0,0,0,0,0,0,0,0,0,0,0,0,0,0,0,0,0,0,0,0,0,0,0,0,0,0,0,0,0,0,0,0,0,0,0,0,0,0,0,0,0,10118.0,INTERNATIONAL CENTER FOR JAZZ FOUNDATION INC,WOLLIN,350 FIFTH AVE RM 2822,NEW YORK,NY,10118-2899,0.0,3.0,1.0,199609.0,1.0,4.0,994.0,60.0,0.0,1.0,13.0,0.0,1.0,9,,,,A6C,,A,A,A,AR,AR,AR,IN,,PF,O,AR,A,0.23170700000000002,36061.0,5602.0,5600.0,core2005pf_ver1,PC,O,AR,A,IN,,A6C,A
9663,133893379,2006,200603,200652.0,29491343052226.0,A20Z,N,Y,0.0,1.0,2005,2.0,2.0,0.0,3,91.0,0,0,0,0,0,0,0,0,0,545,-545,314,0,0,19817,0,0,0,0,25,19817,0,988,N,N,N,N,Y,N,N,N,N,N,N,N,N,N,N,N,N,N,N,0,0,0,0,545,0,314,0,0,0,0,0,0,19792,0,0,0,0,0,0,0,0,0,0,20064,0,1,977,686,521,2185,314,157,274,3515,4260,0,0,0,0,0,0,0,0,0,0,659,651,457,347,2114,0,0,0,0,0,0,0,0,0,0,0,0,0,0,0,0,0,10022.0,AMERICAN FOUNDATION FOR TEXTILE ART INC,,499 PARK AVE,NEW YORK,NY,10022-1240,0.0,3.0,1.0,199703.0,1.0,3.0,91.0,119.0,120.0,1.0,13.0,0.0,1.0,3,,,,A40,,A,A,A,AR,AR,AR,IN,,PF,O,AR,A,0.348627,36061.0,5602.0,5600.0,core2005pf_ver1,PC,O,AR,A,IN,,A40,A
9679,133902358,2005,200512,200651.0,29491336080236.0,A60J,N,Y,0.0,1.0,2005,3.0,5.0,6.0,3,602.0,76294,99,16748,0,0,10575,114237,48000,103716,332797,-229081,301903,0,0,608360,396156,0,0,396156,2000,610774,0,35717,N,Y,N,N,N,N,N,N,N,N,N,N,N,N,N,N,Y,N,N,0,0,16847,0,284797,30894,253903,30894,0,0,0,0,0,606360,0,0,0,0,0,0,0,0,0,0,725223,35717,0,0,0,0,0,0,0,0,0,0,0,0,0,0,0,0,0,0,0,0,0,0,0,0,0,0,0,0,0,0,0,0,0,0,0,0,0,0,0,0,0,0,10012.0,JONATHAN LARSON PERFORMING ARTS FOUNDATION INC,JAY S HARRIS,PO BOX 672,NEW YORK,NY,10012-0013,0.0,3.0,1.0,199702.0,1.0,4.0,602.0,119.0,0.0,1.0,13.0,0.0,1.0,12,,,,A12,60.0,A,A,A,AR,AR,AR,IN,,PF,S,ZB,A,0.536425,36061.0,5602.0,5600.0,core2005pf_ver1,PC,S,ZB,A,IN,,A1260,A
9715,133915359,2005,200512,200651.0,29491336065196.0,T20J,N,Y,0.0,1.0,2005,3.0,4.0,3.0,3,602.0,102000,72,0,0,0,-13682,0,94303,88390,94640,-6250,94303,0,0,103110,0,0,0,0,0,103110,0,5231,N,N,N,N,N,N,N,N,N,N,N,N,N,N,N,N,N,N,N,0,0,-13610,-13610,337,250,0,250,250,18627,0,80483,0,103110,0,0,0,0,0,0,0,0,0,0,106217,5231,0,0,0,0,0,0,0,0,0,0,0,0,0,0,0,0,0,0,0,0,0,0,0,0,0,0,0,0,0,0,0,0,0,0,0,0,0,0,0,0,0,0,10018.0,VIOLA FOUNDATION,BERNATH & ROSENBERG P C,1430 BROADWAY 13 FL,NEW YORK,NY,10018-3308,0.0,3.0,1.0,199701.0,1.0,4.0,602.0,0.0,0.0,2.0,13.0,0.0,1.0,12,,,,A68,,A,A,A,AR,AR,AR,IN,,PF,O,AR,A,0.293792,36061.0,5602.0,5600.0,core2005pf_ver1,PC,O,AR,A,IN,,A68,A
9804,133926887,2005,200512,200648.0,29491322000096.0,A60Z,N,Y,0.0,1.0,2005,3.0,1.0,4.0,3,119.0,0,1113,5236,-3649,0,122968,0,367500,125668,795876,-670208,1164020,6349,0,3056,0,0,0,0,0,3056,0,9841,N,Y,N,N,N,N,N,N,N,N,N,N,N,N,N,N,N,N,N,0,0,6349,0,428376,0,796520,0,0,3056,0,0,0,3056,63,0,0,400,0,0,0,0,337,63,199826,9778,0,0,0,0,0,0,0,0,0,0,0,0,0,0,0,0,0,0,0,0,0,0,0,0,0,0,0,0,0,0,0,0,0,0,0,0,0,0,0,0,-337,0,10019.0,LAURA PELS INTERNATIONAL FOUNDATION INC,LAURA PELS,200 WEST 57TH STREET SUITE 803,NEW YORK,NY,10019-3211,0.0,3.0,1.0,199703.0,1.0,4.0,119.0,90.0,0.0,1.0,13.0,0.0,1.0,12,,,,A60,,B,A,A,AR,AR,AR,IN,,PF,O,AR,A,0.58912,36061.0,5602.0,5600.0,core2005pf_ver1,PC,O,AR,A,IN,,A60,A
9851,133935786,2005,200512,200626.0,29491161071046.0,T22Z,N,Y,0.0,1.0,2005,3.0,1.0,1.0,3,119.0,0,0,0,0,0,0,0,0,1,0,1,0,0,0,1,0,0,0,0,0,1,0,0,N,N,N,N,N,N,N,N,N,N,N,N,N,N,N,N,N,N,N,0,0,0,0,0,0,0,0,0,0,0,0,0,0,0,0,0,0,0,0,0,0,0,0,0,0,0,0,0,0,0,0,0,0,0,0,0,0,0,0,0,0,0,0,0,0,0,0,0,0,0,0,0,0,0,0,0,0,0,0,0,0,0,0,0,0,0,0,10024.0,CLASSICAL MUSIC FOUNDATION OF NEW YORK,DON LEWIS,80 RIVERSIDE DRIVE,NEW YORK,NY,10024-5725,0.0,3.0,1.0,199807.0,1.0,4.0,119.0,0.0,0.0,1.0,13.0,0.0,1.0,12,,,,A68,,A,A,A,AR,AR,AR,IN,,PF,O,AR,A,0.907315,36061.0,5602.0,5600.0,core2005pf_ver1,PC,O,AR,A,IN,,A68,A
9854,133935995,2005,200512,200650.0,29491329125076.0,A40J,N,Y,0.0,1.0,2005,3.0,9.0,9.0,3,602.0,0,38684,851279,6932695,0,1632,0,2540000,7824290,3277604,4546686,2851741,7448251,0,52825684,3741279,42924316,143301,46808896,0,58492774,1594029,2771213,N,Y,N,N,N,N,N,N,N,N,N,N,N,N,N,N,N,N,N,0,0,7822658,0,737604,374407,311741,374407,0,2544016,0,3465192,0,52825684,74483,0,0,31318,0,110000,0,0,66835,74483,56268292,2696730,0,0,0,0,0,0,0,0,0,0,0,0,0,0,0,0,0,0,0,0,0,0,0,0,0,0,0,0,0,0,0,0,0,0,0,0,0,0,0,0,-66835,0,10021.0,LILY AUCHINCLOSS FOUNDATION INC,BESSEMER TRUST,16 E 79TH ST,NEW YORK,NY,10021-0150,0.0,3.0,1.0,199706.0,1.0,4.0,602.0,0.0,0.0,1.0,13.0,0.0,1.0,12,,,,A40,,B,A,A,AR,AR,AR,IN,,PF,O,AR,A,0.0628696,36061.0,5602.0,5600.0,core2005pf_ver1,PC,O,AR,A,IN,,A40,A
9874,133938484,2006,200606,200648.0,29491315048186.0,A99I,N,Y,0.0,1.0,2005,3.0,4.0,1.0,3,119.0,0,0,2524,51138,0,0,0,0,53662,0,53662,0,16574,37068,415826,0,0,386146,386146,0,415826,0,20791,N,N,N,N,N,N,N,N,N,N,N,N,N,N,N,N,N,N,N,0,0,16594,37068,0,0,0,0,0,29680,0,0,0,415826,332,0,0,0,0,0,0,0,0,332,415826,20459,0,0,0,0,0,0,0,0,0,0,0,0,0,0,0,0,0,0,0,0,0,0,0,0,0,0,0,0,0,0,0,0,0,0,0,0,0,0,0,0,332,0,10007.0,BETTY RETTER FOUNDATION,BETTY RETTER,225 BROADWAY STE 500,NEW YORK,NY,10007-3901,0.0,3.0,1.0,199707.0,1.0,4.0,119.0,0.0,0.0,2.0,13.0,0.0,1.0,6,,,,A11,,C,A,A,AR,AR,AR,IN,,PF,S,ZA,A,0.33970100000000003,36061.0,5602.0,5600.0,core2005pf_ver1,PC,S,ZA,A,IN,,A99,A
9914,133945713,2005,200512,200652.0,29491343082036.0,T22,N,Y,0.0,1.0,2005,3.0,6.0,0.0,3,149.0,0,0,0,0,0,0,0,91000,0,94722,-94722,91000,0,0,1086943,0,0,0,0,0,1086943,56141,58225,N,N,N,N,N,N,N,N,N,N,N,N,N,N,N,N,N,N,N,0,0,0,0,3722,0,0,0,0,1086943,0,0,0,1086943,0,0,0,0,0,0,0,0,0,0,1182227,58225,0,0,0,0,0,0,0,0,0,0,0,0,0,0,0,0,0,0,0,0,0,0,0,0,0,0,0,0,0,0,0,0,0,0,0,0,0,0,0,0,0,0,10003.0,HUDSON VALLEY ARTISTS FOUNDATION INC,PHILIP N ROTGIN P C,111 E 14TH ST 350,NEW YORK,NY,10003-4103,0.0,3.0,2.0,199806.0,1.0,3.0,149.0,0.0,0.0,1.0,13.0,0.0,1.0,12,,,,T23,40.0,B,A,A,AR,AR,AR,IN,,PF,S,ZC,A,0.275483,36061.0,5602.0,5600.0,core2005pf_ver1,PC,S,ZB,A,IN,,T23,T
9964,133949433,2006,200603,200641.0,29491259009226.0,T20Z,N,Y,0.0,1.0,2005,3.0,7.0,6.0,3,602.0,0,15106,137713,474800,0,0,60000,317134,627619,455196,172423,330134,801140,0,5035848,547500,3568540,106748,4222788,0,6695121,317517,346305,N,N,N,N,N,N,N,N,Y,N,N,N,N,N,N,N,N,N,N,0,0,925026,0,138062,123886,13000,123886,0,0,0,0,0,5035848,16023,0,0,2400,0,0,0,0,0,16023,7031576,330282,0,0,0,0,0,0,0,0,0,0,0,0,0,0,0,0,0,0,0,0,0,0,0,0,0,0,0,0,0,0,0,0,0,0,0,0,0,0,0,0,13623,0,10018.0,POTTERS WHEEL FOUNDATION INC,ANCHIN BLOCK & ANCHIN LLP,1375 BROADWAY,NEW YORK,NY,10018-7001,0.0,3.0,1.0,199812.0,1.0,4.0,602.0,0.0,0.0,1.0,13.0,0.0,1.0,3,,,,A40,,A,A,A,AR,AR,AR,IN,,PF,O,AR,A,0.260291,36061.0,5602.0,5600.0,core2005pf_ver1,PC,O,AR,A,IN,,A40,A
9973,133952016,2005,200512,200620.0,29491119058216.0,A20Z,N,Y,0.0,1.0,2005,3.0,5.0,6.0,3,91.0,0,5204,0,64875,0,3274,0,0,73353,17783,55570,0,62187,0,795763,0,505163,0,505163,0,674775,0,37639,N,N,N,N,N,N,N,N,N,N,N,N,N,N,N,N,N,N,N,0,0,70079,0,17783,7892,0,7892,0,273001,0,0,0,795763,1244,0,0,0,0,0,0,0,0,1244,764233,36395,0,0,0,0,0,0,0,0,0,0,0,0,0,0,0,0,0,0,0,0,0,0,0,0,0,0,0,0,0,0,0,0,0,0,0,0,0,0,0,0,1244,0,10017.0,PAINTER HILL FOUNDATION,REMINICK ARRONS & CO LLP,529 FIFTH AVE STE 901,NEW YORK,NY,10017-4608,0.0,3.0,1.0,199708.0,1.0,4.0,91.0,602.0,0.0,1.0,13.0,0.0,1.0,12,,,,A20,,B,A,A,AR,AR,AR,IN,,PF,O,AR,A,0.602645,36061.0,5602.0,5600.0,core2005pf_ver1,PC,O,AR,A,IN,,A20,A
10007,133965025,2006,200607,200651.0,29491329223076.0,B99Z,N,Y,0.0,1.0,2005,2.0,6.0,4.0,3,119.0,0,23883,6705,16027,0,116,0,750,46731,95317,-48586,750,36569,0,1439629,0,513162,0,513162,302433,1473370,0,75246,N,N,N,N,N,N,N,N,N,N,N,N,N,N,N,N,N,N,N,0,0,46615,37889,94567,10046,0,10046,58688,40001,0,0,40309,1137196,731,0,0,0,0,0,0,4,0,731,1527845,0,1,0,0,0,1,0,0,0,0,0,1,0,0,0,1,0,0,0,0,0,0,0,0,0,0,0,0,0,0,0,0,0,0,0,0,0,0,0,0,0,735,0,10169.0,GERARD SOUZAY VOCAL ARTS FOUNDATION INC,BROUDY AND ASSOC,230 PARK AVE 2400,NEW YORK,NY,10169-2402,0.0,3.0,1.0,199802.0,1.0,3.0,119.0,0.0,0.0,1.0,13.0,0.0,1.0,7,,,,A12,68.0,B,A,A,AR,AR,AR,IN,,PF,S,ZB,A,0.12253299999999999,36061.0,5602.0,5600.0,core2005pf_ver1,PC,S,ZB,A,IN,,A1268,A
10019,133967980,2005,200512,200627.0,29491168019166.0,A70Z,N,Y,0.0,1.0,2005,3.0,1.0,3.0,3,994.0,51264,0,0,0,0,0,0,0,51264,77654,-26390,-58393,0,0,8935,0,0,0,0,19261,8935,0,0,N,N,N,N,N,N,N,N,N,N,N,N,N,N,N,N,N,N,N,0,0,0,0,77654,0,58393,0,0,8935,0,0,0,-10326,0,0,0,0,0,0,0,0,0,0,0,0,0,0,0,0,0,0,0,0,0,0,0,0,0,0,0,0,0,0,0,0,0,0,0,0,0,0,0,0,0,0,0,0,0,0,0,0,0,0,0,0,0,0,10021.0,LANDMARKS FOUNDATION PROTECTING SAC RED SITES GLOBALLY INC,,155 E 75TH ST,NEW YORK,NY,10021-3251,0.0,3.0,1.0,199712.0,1.0,4.0,994.0,119.0,0.0,1.0,13.0,0.0,1.0,12,,,,A70,,B,A,A,AR,AR,AR,IN,,PF,O,AR,A,0.582182,36061.0,5602.0,5600.0,core2005pf_ver1,PC,O,AR,A,IN,,A70,A
10030,133972275,2005,200512,200646.0,29491294012116.0,A400,N,Y,0.0,1.0,2005,3.0,1.0,1.0,3,994.0,629,4,0,0,0,0,0,0,633,1460,-827,799,4,0,646,0,0,0,0,7311,646,0,56,N,Y,N,N,N,N,N,N,N,N,N,N,N,N,N,N,N,N,N,0,0,4,0,1460,0,799,0,661,0,0,0,0,-6665,0,0,0,0,0,0,0,0,0,0,1129,56,0,0,0,0,0,0,0,0,0,0,0,0,0,0,0,0,0,0,0,0,0,0,0,0,0,0,0,0,0,0,0,0,0,0,0,0,0,0,0,0,0,0,10001.0,ART2FACTS,RAYMOND M PEPI,158 W 27TH ST STE 4TH FLR,NEW YORK,NY,10001-6216,0.0,3.0,2.0,199812.0,1.0,4.0,994.0,119.0,0.0,1.0,13.0,0.0,1.0,12,,,,A40,,B,A,A,AR,AR,AR,IN,,PF,O,AR,A,0.125182,36061.0,5602.0,5600.0,core2005pf_ver1,PC,O,AR,A,IN,,A40,A
10037,133973817,2005,200509,200639.0,29491252025046.0,A110,N,Y,0.0,1.0,2004,3.0,4.0,5.0,3,994.0,15000,1312,2942,-83078,0,0,0,1250000,-63824,1264150,-1327974,820000,4254,0,178827,92940,0,0,92940,445130,178827,0,25347,N,Y,N,N,N,N,N,N,Y,N,N,N,N,N,N,N,N,Y,N,0,0,4254,0,14150,0,0,0,0,0,0,0,0,-266303,43,0,0,0,0,0,0,0,0,43,514656,25304,0,0,0,0,0,0,0,0,0,0,0,0,0,0,0,0,0,0,0,0,0,0,0,0,0,0,0,0,0,0,0,0,0,0,0,0,0,0,0,0,43,0,10024.0,FRIENDS OF CHINA HERITAGE FUND LIMITED,DIANE T WOO,440 W END AVE,NEW YORK,NY,10024-5358,0.0,3.0,1.0,199807.0,1.0,4.0,994.0,119.0,0.0,1.0,13.0,0.0,1.0,9,,,,A11,80.0,A,A,A,AR,AR,AR,IN,,PF,S,ZA,A,0.503685,36061.0,5602.0,5600.0,core2005pf_ver1,PC,S,ZA,A,IN,,A1180,A
10052,133976359,2006,200606,200650.0,29491336058026.0,A20,N,Y,0.0,1.0,2005,3.0,2.0,3.0,3,90.0,50000,0,0,0,0,1809,0,0,51809,55280,-3471,53351,0,0,19921,0,0,0,0,0,19921,0,2298,N,N,N,N,N,N,N,N,N,N,N,N,N,N,N,N,N,N,N,0,0,1809,0,55280,1929,53351,1929,0,19921,0,0,0,19921,0,0,0,0,0,0,0,0,0,0,46656,2298,0,0,0,0,0,0,0,0,0,0,0,0,0,0,0,0,0,0,0,0,0,0,0,0,0,0,0,0,0,0,0,0,0,0,0,0,0,0,0,0,0,0,10123.0,DAVID MERRICK ARTS FOUNDATION INC,SCOTT GILDEA & COMPANY LLP,450 SEVENTH AVE 1100,NEW YORK,NY,10123-1100,0.0,3.0,2.0,199804.0,1.0,4.0,90.0,0.0,0.0,1.0,13.0,0.0,1.0,6,,,,A12,61.0,B,A,A,AR,AR,AR,IN,,PF,S,ZB,A,0.8874200000000001,36061.0,5602.0,5600.0,core2005pf_ver1,PC,S,ZB,A,IN,,A1261,A
10109,133981562,2005,200511,200625.0,29491154059056.0,A51Z,N,Y,0.0,1.0,2004,2.0,4.0,2.0,3,60.0,0,431,32,3343,0,0,0,5885,3806,30090,-26284,30090,463,463,175222,171527,0,0,171527,0,123761,0,3285,N,N,N,N,Y,N,N,N,N,N,N,N,N,N,N,N,N,N,N,0,0,463,463,24205,0,24205,0,0,3695,0,0,0,175222,9,0,0,0,0,0,0,0,0,9,66709,0,1,0,0,0,1,0,0,0,0,0,1,0,0,0,1,0,0,0,0,0,0,0,0,0,0,0,0,0,0,0,0,0,0,0,0,0,0,0,0,0,9,0,10022.0,MICA FOUNDATION,HOWARD MORSE MORSE ZELNICK ROSE &,405 PARK AVE SUITE 1401,NEW YORK,NY,10022-9427,0.0,3.0,1.0,199811.0,1.0,3.0,60.0,0.0,0.0,1.0,13.0,0.0,1.0,11,,,,A51,,B,A,A,AR,AR,AR,IN,,PF,O,AR,A,0.37517,36061.0,5602.0,5600.0,core2005pf_ver1,PC,O,AR,A,IN,,A51,A
10121,133984936,2005,200512,200650.0,29491336012076.0,A31Z,N,Y,0.0,1.0,2005,3.0,8.0,8.0,3,602.0,6080075,137739,207353,-18242,0,0,521133,882035,6406925,8004587,-1597662,7813011,306582,196230,14226107,0,11319079,0,11319079,2481493,15443505,0,548682,N,N,N,N,N,N,Y,Y,Y,N,N,N,N,N,N,N,N,N,N,0,0,345092,348056,7122552,38510,6930976,38510,151826,0,0,0,0,11744614,6132,0,0,0,0,5500,0,0,0,6132,11140758,0,0,0,0,0,0,0,0,0,0,0,0,0,0,0,0,0,0,0,0,0,0,0,0,0,0,0,0,0,0,0,0,0,0,0,0,0,0,0,0,0,632,0,10022.0,ANDREA AND CHARLES BRONFMAN PHILANTROPIES INC,JEFFREY SOLOMAN,110 E 59TH ST 26TH FL,NEW YORK,NY,10022-1327,0.0,3.0,2.0,199807.0,1.0,4.0,602.0,0.0,0.0,1.0,13.0,0.0,1.0,12,,,,A31,,B,A,A,AR,AR,AR,IN,,PF,O,AR,A,0.33321799999999996,36061.0,5602.0,5600.0,core2005pf_ver1,PC,O,AR,A,IN,,T23,T
10147,133989802,2005,200512,200641.0,29491252139146.0,T20,N,Y,0.0,1.0,2005,3.0,1.0,1.0,3,0.0,500,0,0,0,0,0,0,0,500,616,-116,0,0,0,688,0,0,0,0,0,688,0,0,N,N,N,N,N,N,N,N,N,N,N,N,N,N,N,N,N,N,N,0,0,0,0,616,0,0,0,0,688,0,0,0,688,0,0,0,0,0,0,0,0,0,0,0,0,0,0,0,0,0,0,0,0,0,0,0,0,0,0,0,0,0,0,0,0,0,0,0,0,0,0,0,0,0,0,0,0,0,0,0,0,0,0,0,0,0,0,10003.0,GIVE YOUR ART FOUNDATION,FAIR AUFSESSER & FITZGERALD PC,57 E 11TH ST 10TH FLR,NEW YORK,NY,10003-4605,0.0,3.0,1.0,199910.0,1.0,4.0,0.0,0.0,0.0,2.0,13.0,0.0,1.0,12,,,,A12,,B,A,A,AR,AR,AR,IN,,PF,S,ZB,A,0.21282199999999998,36061.0,5602.0,5600.0,core2005pf_ver1,PC,S,ZB,A,IN,,T20,T
10168,133995881,2005,200506,200612.0,29491056060196.0,A20,N,Y,0.0,1.0,2004,3.0,6.0,3.0,3,0.0,399900,0,107,306015,0,0,72577,0,706022,658580,47442,352448,107,107,3226059,0,0,0,0,14000,3226059,0,1476,N,N,N,N,N,N,N,N,Y,N,N,N,N,N,N,N,N,N,N,0,0,107,306122,658580,0,352448,0,306015,500,0,0,0,3212059,2,0,0,0,0,0,0,0,0,2,29965,1474,0,0,0,0,0,0,0,0,0,0,0,0,0,0,0,0,0,0,0,0,0,0,0,0,0,0,0,0,0,0,0,0,0,0,0,0,0,0,0,0,2,0,10001.0,LUCILLE LORTEL THEATRE FOUNDATION INC,HECHT AND COMPANY PC,322 EIGHTH AVENUE 21ST FLOOR,NEW YORK,NY,10001-6763,0.0,3.0,1.0,199907.0,1.0,4.0,0.0,0.0,0.0,1.0,13.0,0.0,1.0,6,,,,A65,,B,A,A,AR,AR,AR,IN,,PF,O,AR,A,0.0695863,36061.0,5602.0,5600.0,core2005pf_ver1,PC,O,AR,A,IN,,A65,A
10206,134008419,2005,200512,200635.0,29491217058026.0,A112,N,Y,0.0,1.0,2005,3.0,1.0,1.0,3,0.0,0,19,0,0,0,0,0,1000,19,1000,-981,0,0,0,8625,0,0,0,0,0,8625,425,425,N,N,N,N,N,N,N,N,N,N,N,N,N,N,N,N,N,N,N,0,0,0,0,0,0,0,0,0,0,0,0,0,8625,0,0,0,0,0,0,0,0,0,0,8625,425,0,0,0,0,0,0,0,0,0,0,0,0,0,0,0,0,0,0,0,0,0,0,0,0,0,0,0,0,0,0,0,0,0,0,0,0,0,0,0,0,0,0,10014.0,CIRQUE POUR TOUS USA INC,MARIANNE S LAW,61 JANE ST APT 6D,NEW YORK,NY,10014-5152,0.0,3.0,1.0,200005.0,1.0,4.0,0.0,0.0,0.0,1.0,13.0,0.0,1.0,12,,,,A11,,B,A,A,AR,AR,AR,IN,,PF,S,ZA,A,0.402314,36061.0,5602.0,5600.0,core2005pf_ver1,PC,S,ZA,A,IN,,A11,A
10208,134008718,2005,200512,200639.0,29491252037246.0,S50Z,N,Y,0.0,1.0,2005,2.0,7.0,8.0,3,603.0,0,9,0,0,0,11993824,1157520,94496,11993833,11993834,-1,99414,0,94495,9441254,0,0,0,0,5761540,9441254,0,239,N,N,N,N,Y,N,N,N,Y,N,N,N,N,N,N,N,N,N,N,0,0,0,11993833,11899338,0,0,0,11899338,-223259,0,0,0,3679714,0,0,0,0,0,0,0,0,0,0,4855,0,239,8377,0,277,8893,0,0,0,277,277,9441254,8994113,8046783,6429388,32911538,9441254,8994113,8046783,6429388,32911538,0,0,0,0,0,0,0,0,0,0,0,0,0,0,0,0,0,0,0,0,0,0,10019.0,DORIS DUKE MANAGEMENT COMPANY,,650 FIFTH AVE,NEW YORK,NY,10019-6108,0.0,3.0,1.0,199809.0,1.0,3.0,603.0,0.0,0.0,1.0,13.0,0.0,1.0,12,,,,A02,60.0,B,A,A,AR,AR,AR,IN,,PF,O,AR,A,0.545833,36061.0,5602.0,5600.0,core2005pf_ver1,PC,O,AR,A,IN,,S50,S
10269,134018495,2004,200412,200604.0,29491344281005.0,T20Z,N,Y,0.0,1.0,2004,3.0,2.0,2.0,3,602.0,0,96,0,0,0,11770,0,11000,11866,21506,-9640,11000,96,0,12002,0,0,0,0,0,12002,0,909,N,Y,N,N,N,N,N,N,N,N,N,N,N,N,N,N,N,N,N,0,0,96,0,10506,0,0,0,0,12002,0,0,0,12002,2,0,0,0,0,0,0,0,0,2,18475,910,0,0,0,0,0,0,0,0,0,0,0,0,0,0,0,0,0,0,0,0,0,0,0,0,0,0,0,0,0,0,0,0,0,0,0,0,0,0,0,0,2,0,10014.0,CD 101-9 SMOOTH JAZZ FOUNDATION,WQCD-FM RADIO,395 HUDSON ST 7TH FLR,NEW YORK,NY,10014-7452,0.0,3.0,1.0,199811.0,1.0,4.0,602.0,0.0,0.0,1.0,13.0,0.0,1.0,12,,,,A6C,,A,A,A,AR,AR,AR,IN,,PF,O,AR,A,0.0973604,36061.0,5602.0,5600.0,core2005pf_ver1,PC,O,AR,A,IN,,A6C,A
10320,134032127,2005,200512,200619.0,29491112040196.0,A40,N,Y,0.0,1.0,2005,2.0,3.0,3.0,3,0.0,31316,0,0,0,0,0,0,0,31316,750,30566,0,798,0,32115,0,0,0,0,0,32115,0,0,N,N,N,N,Y,N,N,N,N,N,N,N,N,N,N,N,N,N,N,0,0,798,0,750,0,0,0,0,32115,0,0,0,32115,0,0,0,0,0,0,0,0,0,0,0,0,32115,33264,31574,31629,128582,0,0,0,0,0,32115,33264,31574,31629,128582,0,0,0,0,0,0,0,0,0,0,0,0,0,0,0,0,0,0,0,0,0,0,0,0,0,0,0,10016.0,BERT STERN FOUNDATION FOR THE VISUAL ARTS INC,BERT STERN,330 E 39TH ST APT 32G,NEW YORK,NY,10016-2135,0.0,3.0,2.0,200012.0,1.0,3.0,0.0,0.0,0.0,1.0,13.0,0.0,1.0,12,,M,,A40,,A,A,A,AR,AR,AR,IN,,PF,O,AR,A,0.9794360000000001,36061.0,5602.0,5600.0,core2005pf_ver1,PC,O,AR,A,IN,,A40,A
10324,134033257,2004,200412,200618.0,29491105007046.0,A68,N,Y,0.0,1.0,2004,3.0,0.0,0.0,3,0.0,0,0,0,0,0,0,0,0,0,0,0,0,0,0,0,0,0,0,0,0,0,0,0,N,N,N,N,N,N,N,N,N,N,N,N,N,N,N,N,N,N,N,0,0,0,0,0,0,0,0,0,0,0,0,0,0,0,0,0,0,0,0,0,0,0,0,0,0,0,0,0,0,0,0,0,0,0,0,0,0,0,0,0,0,0,0,0,0,0,0,0,0,0,0,0,0,0,0,0,0,0,0,0,0,0,0,0,0,0,0,10027.0,MOEBIUS CORPORATION,DEBORAH J BRADLEY,25 CLAREMONT AVE STE 4B,NEW YORK,NY,10027-6813,0.0,3.0,2.0,199901.0,1.0,4.0,0.0,0.0,0.0,1.0,13.0,0.0,1.0,12,,,,A68,,B,A,A,AR,AR,AR,IN,,PF,O,AR,A,0.77778,36061.0,5602.0,5600.0,core2005pf_ver1,PC,O,AR,A,IN,,A68,A
10403,134047433,2005,200512,200650.0,29491329122146.0,A51,N,Y,0.0,1.0,2005,2.0,9.0,8.0,3,0.0,3370438,0,132672,-590765,474935,1742814,414081,0,5130094,6853926,-1723832,4268825,4805218,587395,81535296,0,39772245,0,39772245,3848624,81535296,0,2136030,N,N,N,N,Y,Y,N,Y,N,N,N,N,N,N,N,N,N,N,N,0,730023,5132655,2350421,6853926,327437,4268825,327437,1763026,593069,0,0,2846158,77686672,96104,0,0,110954,0,0,0,0,14850,96104,43371176,0,587395,1506547,585771,1204207,3883920,4285921,6237982,6160627,6430384,23114914,0,0,0,0,0,0,0,0,0,0,1424020,1004365,390514,802805,3621704,0,0,0,0,0,0,0,0,0,0,0,0,0,0,0,-14850,0,10028.0,NEUE GALERIE NEW YORK,,1048 FIFTH AVE,NEW YORK,NY,10028-0111,0.0,3.0,1.0,199912.0,1.0,3.0,0.0,0.0,0.0,1.0,13.0,0.0,1.0,12,,,,A51,,B,A,A,AR,AR,AR,IN,,PF,O,AR,A,0.6299739999999999,36061.0,5602.0,5600.0,core2005pf_ver1,PC,O,AR,A,IN,,A51,A
10437,134055562,2005,200511,200632.0,29491203036176.0,A20,N,Y,0.0,1.0,2004,3.0,2.0,2.0,3,0.0,15000,0,0,0,0,0,0,0,15000,3162,11838,2433,0,0,12700,0,0,0,0,0,12700,0,707,N,N,N,N,N,N,N,N,N,N,N,N,N,N,N,N,N,N,N,0,0,0,0,3162,0,2433,0,0,12700,0,0,0,12700,0,0,0,0,0,0,0,0,0,0,14356,707,0,0,0,0,0,0,0,0,0,0,0,0,0,0,0,0,0,0,0,0,0,0,0,0,0,0,0,0,0,0,0,0,0,0,0,0,0,0,0,0,0,0,10020.0,FASSBINDER FOUNDATION INC,SEYFARTH SHAW,1270 AVE OF THE AMERICAS,NEW YORK,NY,10020-0000,0.0,3.0,1.0,200006.0,1.0,4.0,0.0,0.0,0.0,1.0,13.0,0.0,1.0,11,,,,A20,,B,A,A,AR,AR,AR,IN,,PF,O,AR,A,0.531632,36061.0,5602.0,5600.0,core2005pf_ver1,PC,O,AR,A,IN,,A20,A
10445,134057282,2005,200511,200634.0,29491210012006.0,T50,N,Y,0.0,1.0,2004,3.0,6.0,5.0,3,0.0,292237,45806,19,-54650,0,4750,0,78300,288162,79993,208169,79993,268272,0,1770841,0,285205,0,285205,0,1777641,0,84390,N,N,N,N,N,N,N,N,N,N,N,N,N,N,N,N,N,N,N,0,0,268272,0,1693,0,1693,0,0,0,0,0,0,1770841,5365,0,0,3434,0,5000,0,0,3069,5365,1713500,83775,0,0,0,0,0,0,0,0,0,0,0,0,0,0,0,0,0,0,0,0,0,0,0,0,0,0,0,0,0,0,0,0,0,0,0,0,0,0,0,0,-3069,0,10018.0,TRIO FOUNDATION,ANCHIN BLOCK & ANCHIN,1375 BROADWAY STE 18 FL,NEW YORK,NY,10018-7032,0.0,3.0,1.0,200008.0,1.0,4.0,0.0,0.0,0.0,2.0,13.0,0.0,1.0,11,,,,A6C,,A,A,A,AR,AR,AR,IN,,PF,O,AR,A,0.738719,36061.0,5602.0,5600.0,core2005pf_ver1,PC,O,AR,A,IN,,A6C,A
10461,134065722,2005,200512,200649.0,29491175003136.0,A65,N,Y,0.0,1.0,2005,3.0,0.0,0.0,3,0.0,0,0,0,0,0,0,0,0,0,0,0,7500,0,0,0,0,0,0,0,0,1,0,0,N,N,N,N,Y,N,N,N,N,N,N,N,N,N,N,N,N,N,N,0,0,0,0,0,0,0,0,0,0,0,0,0,0,0,0,0,0,0,0,0,0,0,0,0,0,0,0,0,0,0,0,0,0,0,0,0,0,0,0,0,0,0,0,0,0,0,0,0,0,0,0,0,0,0,0,0,0,0,0,0,0,0,0,0,0,0,0,10016.0,FANG THEATRE COMPANY LTD,SUZANNE AGINS,386 PARK AVE S STE 1200,NEW YORK,NY,10016-8804,0.0,3.0,1.0,199908.0,1.0,4.0,0.0,0.0,0.0,1.0,13.0,0.0,1.0,12,,M,,A65,,A,A,A,AR,AR,AR,IN,,PF,O,AR,A,0.435904,36061.0,5602.0,5600.0,core2005pf_ver1,PC,O,AR,A,IN,,A65,A
10484,134069592,2005,200512,200625.0,29491154095196.0,T30,N,Y,0.0,1.0,2005,3.0,9.0,9.0,3,0.0,5500000,801678,2349068,3293991,0,1622385,95680,3242338,13639795,6352342,7287453,3151495,7656650,0,270169082,19561180,28900991,13933164,62395335,8237252,270169082,0,12499774,N,N,N,N,N,N,N,N,N,N,N,N,Y,N,N,N,Y,N,N,72673,0,7989386,0,3110004,332736,1162002,332736,0,0,0,136594327,0,261931830,153133,0,0,139200,0,0,0,884,0,153133,253802518,12346641,0,0,0,0,0,0,0,0,0,0,0,0,0,0,0,0,0,0,0,0,0,0,0,0,0,0,0,0,0,0,0,0,0,0,0,0,0,0,0,0,14817,0,10028.0,KEREN KESHET-THE RAINBOW FOUNDATION,ROCHELLE KORMAN,1015 PARK AVENUE,NEW YORK,NY,10028-0904,0.0,3.0,1.0,199908.0,1.0,4.0,0.0,0.0,0.0,1.0,13.0,0.0,1.0,12,,,,A12,,B,A,A,AR,AR,AR,IN,,PF,S,ZB,A,0.8852620000000001,36061.0,5602.0,5600.0,core2005pf_ver1,PC,S,ZB,A,IN,,A12,A
10486,134069969,2005,200506,200626.0,29491168069036.0,A20,N,Y,0.0,1.0,2004,2.0,9.0,8.0,3,0.0,0,1236490,80410,-1008466,0,45695,0,4100000,354129,4337095,-3982966,4146294,1193058,1263613,70286260,1052656,0,3300299,4352955,0,77107944,0,3439792,N,N,N,N,Y,N,N,N,N,N,N,N,Y,N,N,N,N,N,N,0,0,1321539,1331900,237095,128481,46294,128481,68287,867134,0,32500000,0,70286260,23861,0,0,49695,0,0,0,0,25834,23861,69843484,0,1263613,1594970,2333288,2454505,7646376,2146294,1644206,78574394,8600443,90965337,77107944,77964496,83322113,232465325,470859878,8265000,9365000,7765000,155197250,180592250,2293195,2397016,2485227,2596989,9772427,0,0,0,0,0,0,0,0,0,0,0,0,0,0,0,-25834,0,10153.0,AMERICAN ART FOUNDATION INC,MEREDITH EDWARDS,767 FIFTH AVE 40TH FL,NEW YORK,NY,10153-0023,0.0,3.0,2.0,199911.0,1.0,3.0,0.0,0.0,0.0,1.0,13.0,0.0,1.0,6,,,,A12,,B,A,A,AR,AR,AR,IN,,PF,S,ZB,A,0.37361500000000003,36061.0,5602.0,5600.0,core2005pf_ver1,PC,S,ZB,A,IN,,A12,A
10494,134072609,2005,200512,200651.0,29491336149076.0,T20,N,Y,0.0,1.0,2005,3.0,7.0,6.0,3,0.0,925750,0,144114,-57398,0,2954,0,891397,1015420,1741726,-726306,1699480,131141,0,5822650,1930635,2000000,269167,4199802,0,5930273,0,271609,N,N,N,N,N,N,N,N,N,N,N,N,N,N,N,N,N,N,N,0,0,147068,0,850329,15927,808083,15927,0,0,0,0,0,5822650,2623,0,0,1220,0,0,0,25,0,2623,5514902,268986,0,0,0,0,0,0,0,0,0,0,0,0,0,0,0,0,0,0,0,0,0,0,0,0,0,0,0,0,0,0,0,0,0,0,0,0,0,0,0,0,1536,0,10022.0,THIRD MILLENIUM CHARITABLE AND CULTURAL FOUNDATION,DR MARCO STOFFEL,650 MADISON AVE 18TH FL,NEW YORK,NY,10022-1029,0.0,3.0,1.0,199909.0,1.0,4.0,0.0,0.0,0.0,1.0,13.0,0.0,1.0,12,,,,A12,20.0,B,A,A,AR,AR,AR,IN,,PF,S,ZB,A,0.29549899999999996,36061.0,5602.0,5600.0,core2005pf_ver1,PC,S,ZB,A,IN,,T20,T
10499,134073167,2005,200512,200617.0,29491091014086.0,A11,N,Y,0.0,1.0,2005,3.0,3.0,4.0,3,0.0,50351,0,461,-231,0,0,0,17500,50581,17825,32756,17500,43110,0,62120,0,0,0,0,0,62120,0,878,N,N,N,N,N,N,N,N,N,N,N,N,N,N,N,N,N,N,N,0,0,43110,0,325,0,0,0,0,0,0,0,0,62120,862,0,0,675,0,0,0,0,0,862,17828,16,0,0,0,0,0,0,0,0,0,0,0,0,0,0,0,0,0,0,0,0,0,0,0,0,0,0,0,0,0,0,0,0,0,0,0,0,0,0,0,0,187,0,10128.0,YOUNG FOUNDATION,,1088 PARK AVE,NEW YORK,NY,10128-1132,0.0,3.0,1.0,200002.0,1.0,4.0,0.0,0.0,0.0,2.0,13.0,0.0,1.0,12,YOUNG JOHN TTEE,,,A11,,B,A,A,AR,AR,AR,IN,,PF,S,ZA,A,0.8572649999999999,36061.0,5602.0,5600.0,core2005pf_ver1,PC,S,ZA,A,IN,,A11,A
10502,134074036,2005,200512,200651.0,29491336034056.0,A6C,N,Y,0.0,1.0,2005,2.0,1.0,3.0,3,0.0,49000,15,0,0,0,0,19800,600,49015,54086,-5071,54086,15,15,735,0,0,0,0,0,735,0,208,N,Y,N,N,Y,N,N,N,N,N,N,N,N,N,N,N,N,N,N,0,0,15,15,53486,0,53486,0,0,735,0,0,0,735,0,0,0,0,0,0,0,0,0,0,4225,0,15,23,39,20,97,54086,89605,82755,100643,327089,735,5806,20388,12793,39722,0,0,0,0,0,139,380,444,555,1518,0,0,0,0,0,0,0,0,0,0,0,0,0,0,0,0,0,10007.0,A CHILDS VOICE INC,ALBERT KALTER,225 BROADWAY STE 1806,NEW YORK,NY,10007-3001,0.0,3.0,2.0,199910.0,1.0,3.0,0.0,0.0,0.0,1.0,13.0,0.0,1.0,12,,,,A6C,,B,A,A,AR,AR,AR,IN,,PF,O,AR,A,0.00550271,36061.0,5602.0,5600.0,core2005pf_ver1,PC,O,AR,A,IN,,A6C,A
10539,134080444,2005,200512,200626.0,29491162175186.0,A11,N,Y,0.0,1.0,2005,2.0,5.0,4.0,3,0.0,233300,0,0,0,0,5233,0,0,238533,89180,149353,6131,0,0,615683,0,0,0,0,57000,618683,0,1792,N,N,N,N,Y,N,N,N,N,N,N,N,N,N,N,N,N,N,N,0,0,0,5233,89180,0,6131,0,83049,108197,0,0,0,558683,0,0,0,0,0,0,0,0,0,0,36388,0,1,0,0,0,1,142040,163010,167375,87255,559680,0,0,0,0,0,0,0,0,0,0,1195,1010,1902,1716,5823,0,0,0,0,0,0,0,0,0,0,0,0,0,0,0,0,0,10022.0,PARNASSUSWORKS FOUNDATION,RICHARD A RIFKIND,425 E 58TH ST,NEW YORK,NY,10022-2300,0.0,3.0,2.0,200001.0,1.0,3.0,0.0,0.0,0.0,2.0,13.0,0.0,1.0,12,,,,A11,,B,A,A,AR,AR,AR,IN,,PF,S,ZA,A,0.152403,36061.0,5602.0,5600.0,core2005pf_ver1,PC,S,ZA,A,IN,,A11,A
10687,134097150,2005,200512,200652.0,29491203025096.0,A54,N,Y,0.0,1.0,2005,2.0,1.0,1.0,3,0.0,0,0,0,0,0,0,0,0,1,0,1,0,0,0,1,0,0,0,0,0,1,0,0,N,N,N,N,Y,N,N,N,N,N,N,N,N,N,N,N,N,N,N,0,0,0,0,0,0,0,0,0,0,0,0,0,0,0,0,0,0,0,0,0,0,0,0,0,0,1,0,0,0,1,0,0,0,0,0,1,0,0,0,1,0,0,0,0,0,0,0,0,0,0,0,0,0,0,0,0,0,0,0,0,0,0,0,0,0,0,0,10006.0,INDIA HOUSE FOUNDATION,BRAUNER BARON ROSENZWEIG & KLEIN,61 BROADWAY FL 18,NEW YORK,NY,10006-2708,0.0,3.0,1.0,200604.0,1.0,3.0,0.0,0.0,0.0,1.0,13.0,0.0,1.0,12,,,,A54,,B,A,A,AR,AR,AR,IN,,PF,O,AR,A,0.341553,36061.0,5602.0,5600.0,core2005pf_ver1,PC,O,AR,A,IN,,A54,A
10711,134103203,2005,200506,200611.0,29491056099226.0,A51,N,Y,0.0,1.0,2004,3.0,3.0,3.0,3,0.0,55000,853,0,0,0,0,0,211426,55853,214081,-158228,214081,853,853,97842,0,0,0,0,0,97842,0,5927,N,N,N,N,N,N,N,N,N,N,N,N,N,N,N,N,N,N,N,0,0,853,853,2655,0,2655,0,0,0,0,0,0,97842,17,0,0,0,0,17,0,0,0,17,120354,0,0,0,0,0,0,0,0,0,0,0,0,0,0,0,0,0,0,0,0,0,0,0,0,0,0,0,0,0,0,0,0,0,0,0,0,0,0,0,0,0,0,0,10017.0,AMERICAN FRIENDS OF THE PUSHKIN MUSEUM INC,IMOWITZ KOENIG & CO LLP,622 THIRD AVE 33RD FLR,NEW YORK,NY,10017-6707,0.0,3.0,1.0,200003.0,1.0,4.0,0.0,0.0,0.0,1.0,13.0,0.0,1.0,6,,,,A11,50.0,A,A,A,AR,AR,AR,IN,,PF,S,ZA,A,0.394523,36061.0,5602.0,5600.0,core2005pf_ver1,PC,S,ZA,A,IN,,A1150,A
10718,134105372,2005,200512,200651.0,29491336027046.0,A65,N,Y,0.0,1.0,2005,2.0,2.0,2.0,3,0.0,18416,0,0,0,0,0,0,0,18416,3915,14501,3915,0,0,24850,0,0,0,0,0,24850,0,731,N,N,N,N,Y,N,N,N,N,N,N,N,N,N,N,N,N,N,N,0,0,0,0,3915,0,3915,0,0,24850,0,0,0,24850,0,0,0,0,0,0,0,0,0,0,14846,0,0,0,183,0,183,3915,2793,24887,4840,36435,0,0,0,0,0,0,0,0,0,0,487,339,122,160,1108,0,0,0,0,0,0,0,0,0,0,0,0,0,0,0,0,0,10036.0,AMERICAN STUDIO THEATER INC,US TRUST COMPANY OF NEW YORK,114 W 47TH ST TAXRGR,NEW YORK,NY,10036-1510,0.0,3.0,2.0,200205.0,1.0,3.0,0.0,0.0,0.0,1.0,13.0,0.0,1.0,12,,,,A6E,,A,A,A,AR,AR,AR,IN,,PF,O,AR,A,0.619467,36061.0,5602.0,5600.0,core2005pf_ver1,PC,O,AR,A,IN,,A6E,A
10743,134115047,2005,200503,200610.0,29491042045176.0,A25,N,Y,0.0,1.0,2004,2.0,7.0,4.0,3,0.0,0,551,32013,5081,0,91137,79200,0,128782,154716,-25934,60408,32753,27672,8534269,0,1349369,0,1349369,0,8420214,0,60947,N,N,N,N,Y,N,N,N,Y,N,N,N,N,N,N,N,N,N,N,0,0,37645,123701,154716,4892,60408,4892,96029,0,0,0,0,8534269,655,0,0,385,0,400,0,1,129,655,1237502,0,27672,21214,19120,26976,94982,60408,76999,179015,142416,458838,8420214,8436017,8276450,8286475,33419156,7164673,7164340,7172457,7226879,28728349,40631,38243,33817,37171,149862,0,0,0,0,0,0,0,0,0,0,0,0,0,0,0,-129,0,10022.0,SAUL STEINBERG FOUNDATION,JOHN SILBERMAN ASSOCIATIES P C,145 EAST 57TH STREET,NEW YORK,NY,10022-2141,0.0,3.0,2.0,200006.0,1.0,3.0,0.0,0.0,0.0,1.0,13.0,0.0,1.0,3,,M,,A25,,B,A,A,AR,AR,AR,IN,,PF,O,AR,A,0.859607,36061.0,5602.0,5600.0,core2005pf_ver1,PC,O,AR,A,IN,,A25,A
10804,134135854,2006,200606,200647.0,29491294063046.0,A65,N,Y,0.0,1.0,2005,3.0,1.0,1.0,3,0.0,0,0,0,0,0,10,0,0,10,120,-110,120,0,0,458,0,0,0,0,0,458,0,0,N,N,N,N,N,N,N,N,N,N,N,N,N,N,N,N,N,N,N,0,0,0,10,0,0,0,0,0,458,0,0,0,458,0,0,0,0,0,0,0,0,0,0,0,0,0,0,0,0,0,0,0,0,0,0,0,0,0,0,0,0,0,0,0,0,0,0,0,0,0,0,0,0,0,0,0,0,0,0,0,0,0,0,0,0,0,0,11238.0,ASSEMBLY PRODUCTIONS INC,,93 UNDERHILL AVE 5B,BROOKLYN,NY,11238-3931,0.0,3.0,3.0,200102.0,1.0,4.0,0.0,0.0,0.0,1.0,11.0,0.0,1.0,6,ASSEMBLY,,,A65,,B,A,A,AR,AR,AR,IN,,PF,O,AR,A,0.269816,36047.0,5602.0,5600.0,core2005pf_ver1,PC,O,AR,A,IN,,A65,A
10805,134136043,2005,200506,200611.0,29491056040176.0,B99,N,Y,0.0,1.0,2004,3.0,4.0,3.0,3,0.0,27500,9,0,0,0,0,0,0,27509,1070,26439,819,9,9,309018,0,222000,0,222000,36000,476518,14600,14600,N,N,N,N,N,N,Y,N,N,N,N,N,N,N,N,N,N,N,N,0,0,9,9,1070,0,819,0,0,8534,0,0,0,273018,0,0,0,95,0,1,0,0,96,0,296445,14600,0,0,0,0,0,0,0,0,0,0,0,0,0,0,0,0,0,0,0,0,0,0,0,0,0,0,0,0,0,0,0,0,0,0,0,0,0,0,0,0,-96,0,10118.0,POLLACK ART FOUNDATION INC,L WOLLIN,350 FIFTH AVE STE 2822,NEW YORK,NY,10118-2896,0.0,3.0,1.0,200109.0,1.0,4.0,0.0,0.0,0.0,1.0,13.0,0.0,1.0,6,,,,A12,,B,A,A,AR,AR,AR,IN,,PF,S,ZB,A,0.27472199999999997,36061.0,5602.0,5600.0,core2005pf_ver1,PC,S,ZB,A,IN,,A12,A
10814,134137801,2004,200408,200617.0,29491288055035.0,A33,N,Y,0.0,1.0,2003,2.0,1.0,1.0,3,0.0,0,0,0,0,0,0,0,0,1,0,1,0,0,0,54,0,0,0,0,1200,1,0,3,N,N,N,N,Y,N,N,N,N,N,N,N,N,N,N,N,N,N,N,0,0,0,0,0,0,0,0,0,0,0,0,0,-1146,0,0,0,0,0,0,0,0,0,0,54,0,3,0,0,0,3,0,0,0,0,0,54,0,0,0,54,54,0,0,0,54,2,0,0,0,2,0,0,0,0,0,0,0,0,0,0,0,0,0,0,0,0,0,11354.0,US AND CHINA NEWS FOUNDATION,EN SHENG HU,136 40 39TH AVE STE 508,FLUSHING,NY,11354-5536,0.0,3.0,1.0,200210.0,1.0,3.0,0.0,0.0,0.0,1.0,11.0,0.0,1.0,8,,,,A33,,B,A,A,AR,AR,AR,IN,,PF,O,AR,A,0.225451,36081.0,5602.0,5600.0,core2005pf_ver1,PC,O,AR,A,IN,,A33,A
10816,134138149,2005,200512,200652.0,29491343053226.0,T22,N,Y,0.0,1.0,2005,3.0,1.0,1.0,3,0.0,0,2,0,0,0,0,0,0,2,0,2,0,2,0,1765,0,0,0,0,0,1765,0,87,N,N,N,N,N,N,N,N,N,N,N,N,N,N,N,N,N,N,N,0,0,2,0,0,0,0,0,0,1765,0,0,0,1765,0,0,0,0,0,0,0,0,0,0,1764,87,0,0,0,0,0,0,0,0,0,0,0,0,0,0,0,0,0,0,0,0,0,0,0,0,0,0,0,0,0,0,0,0,0,0,0,0,0,0,0,0,0,0,10119.0,MELVYN AND BARBARA WEISS ART FOUNDATION,DEBORAH M STURMAN,ONE PENNSYLVANIA PLAZA 49TH FLR,NEW YORK,NY,10119-0165,0.0,3.0,1.0,200011.0,1.0,4.0,0.0,0.0,0.0,1.0,13.0,0.0,1.0,12,,,,A12,,B,A,A,AR,AR,AR,IN,,PF,S,ZB,A,0.591896,36061.0,5602.0,5600.0,core2005pf_ver1,PC,S,ZB,A,IN,,T22,T
10817,134138151,2005,200512,200652.0,29491343054006.0,A54,N,Y,0.0,1.0,2005,3.0,1.0,1.0,3,0.0,0,5,0,0,0,0,0,0,5,0,5,0,5,0,4781,0,0,0,0,0,4781,235,235,N,N,N,N,N,N,N,N,N,N,N,N,N,N,N,N,N,N,N,0,0,5,0,0,0,0,0,0,4781,0,0,0,4781,0,0,0,0,0,0,0,0,0,0,4779,235,0,0,0,0,0,0,0,0,0,0,0,0,0,0,0,0,0,0,0,0,0,0,0,0,0,0,0,0,0,0,0,0,0,0,0,0,0,0,0,0,0,0,10119.0,HOLOCAUST ART & REMEMBRANCE FOUNDATION,MELVYN WEISS,1 PENN PLZ FL 49,NEW YORK,NY,10119-4899,0.0,3.0,1.0,200101.0,1.0,4.0,0.0,0.0,0.0,1.0,13.0,0.0,1.0,12,,,,A12,80.0,B,A,A,AR,AR,AR,IN,,PF,S,ZB,A,0.398529,36061.0,5602.0,5600.0,core2005pf_ver1,PC,S,ZB,A,IN,,A1280,A
10823,134138655,2005,200512,200626.0,29491162153086.0,A20,N,Y,0.0,1.0,2005,2.0,1.0,4.0,3,0.0,307300,0,0,0,0,0,0,52948,307300,280567,26733,306441,0,0,9351,0,0,0,0,37815,9351,0,622,N,N,N,N,Y,N,N,N,N,N,N,N,N,N,N,N,Y,N,N,0,0,0,0,227619,0,253493,0,0,4351,0,0,0,-28464,0,0,0,0,0,0,0,0,0,0,12638,0,1,0,0,0,1,306441,484092,815873,895759,2502165,0,0,0,0,0,0,0,0,0,0,415,525,1355,2435,4730,0,0,0,0,0,0,0,0,0,0,0,0,0,0,0,0,0,10153.0,COMMISSION FOR ART RECOVERY INC,ANDREW L JAGODA,767 FIFTH AVE 46TH FLR,NEW YORK,NY,10153-0023,0.0,3.0,1.0,200102.0,1.0,3.0,0.0,0.0,0.0,1.0,13.0,0.0,1.0,12,,,,A20,,B,A,A,AR,AR,AR,IN,,PF,O,AR,A,0.8528309999999999,36061.0,5602.0,5600.0,core2005pf_ver1,PC,O,AR,A,IN,,A20,A
10842,134143098,2005,200512,200627.0,29491098024006.0,A23,N,Y,0.0,1.0,2005,3.0,1.0,3.0,3,0.0,26218,0,0,0,0,0,0,26108,26218,26129,89,26108,0,0,584,0,0,0,0,0,584,0,27,N,N,N,N,N,N,N,N,N,N,N,N,N,N,N,N,N,N,N,0,0,0,0,21,0,0,0,0,584,0,0,0,584,0,0,0,0,0,0,0,0,0,0,540,27,0,0,0,0,0,0,0,0,0,0,0,0,0,0,0,0,0,0,0,0,0,0,0,0,0,0,0,0,0,0,0,0,0,0,0,0,0,0,0,0,0,0,10023.0,JINDHAG FOUNDATION,GANER GROSSBACH & GANER,1995 BROADWAY,NEW YORK,NY,10023-5882,0.0,3.0,1.0,200112.0,1.0,4.0,0.0,0.0,0.0,1.0,13.0,200412.0,1.0,12,,,,A23,,B,A,A,AR,AR,AR,IN,,PF,O,AR,A,0.518134,36061.0,5602.0,5600.0,core2005pf_ver1,PC,O,AR,A,IN,,A23,A
10866,134147350,2005,200512,200626.0,29491161000026.0,B80,N,Y,0.0,1.0,2005,3.0,4.0,4.0,3,0.0,0,0,1456,-11466,0,0,0,5325,-10010,8506,-18516,5325,8940,5173,154722,24566,52954,0,77520,0,144447,0,2442,N,N,N,N,N,N,N,N,N,N,N,N,N,N,N,N,N,N,N,0,0,8940,5173,3181,0,0,0,0,0,0,0,0,154722,179,0,0,0,0,0,0,0,0,179,49576,2263,0,0,0,0,0,0,0,0,0,0,0,0,0,0,0,0,0,0,0,0,0,0,0,0,0,0,0,0,0,0,0,0,0,0,0,0,0,0,0,0,179,0,10021.0,INDEPENDENT THINKING & NEW MEDIA FOUNDATION CORP,M YAO,363 E 76TH ST 8L,NEW YORK,NY,10021-2432,0.0,3.0,1.0,200103.0,1.0,4.0,0.0,0.0,0.0,1.0,13.0,200412.0,1.0,12,,,,A30,,B,A,A,AR,AR,AR,IN,,PF,O,AR,A,0.090054,36061.0,5602.0,5600.0,core2005pf_ver1,PC,O,AR,A,IN,,B80,B
10905,134150082,2005,200512,200651.0,29491336181076.0,A50,N,Y,0.0,1.0,2005,3.0,8.0,7.0,3,0.0,4907120,15600,22150,24286,0,636005,0,0,5617561,3626664,1990897,2426435,0,61098,43610804,0,0,0,0,116060,43610804,0,299486,N,N,N,N,N,N,N,N,N,N,N,N,N,N,N,N,N,N,N,12400,0,74244,167750,3626664,106652,2426435,106652,106652,0,0,2207968,0,43494744,0,0,0,0,0,0,0,0,0,0,6080942,0,0,0,0,0,0,0,0,0,0,0,0,0,0,0,0,0,0,0,0,0,0,0,0,0,0,0,0,0,0,0,0,0,0,0,0,0,0,0,0,0,0,0,10112.0,STONE BARNS RESTORATION CORP,RICHARD N CATALDO,30 ROCKEFELLER PLZ STE 5600,NEW YORK,NY,10112-0002,0.0,3.0,1.0,200107.0,2.0,4.0,0.0,0.0,0.0,1.0,13.0,0.0,1.0,12,,,,A50,,B,A,A,AR,AR,AR,IN,,PF,O,AR,A,0.304268,36061.0,5602.0,5600.0,core2005pf_ver1,PC,O,AR,A,IN,,A50,A
10953,134165975,2005,200508,200607.0,29491028005186.0,A23,N,Y,0.0,1.0,2004,2.0,2.0,4.0,3,0.0,129315,0,0,0,0,0,42000,1500,129315,121044,8271,121158,0,114,21170,0,0,0,0,8871,21170,0,849,N,N,N,N,Y,N,N,N,N,N,N,N,N,N,N,N,N,N,N,0,0,0,0,119544,0,119658,0,-114,17077,0,0,0,12299,0,0,0,0,0,0,0,0,0,0,17233,0,114,0,0,0,114,121158,124927,120129,108183,474397,21170,13411,7490,14140,56211,21170,13411,7490,14140,56211,0,0,0,0,0,100949,128326,113761,112025,455061,100949,128326,113761,112025,455061,0,0,0,0,0,0,0,10036.0,FRIENDS OF RINRI KENKYUSHO OF NEW YORK INC,EMIKO AKUTAGAWA LINDSAY,25 W 43RD ST 1016,NEW YORK,NY,10036-7410,0.0,3.0,1.0,200112.0,1.0,3.0,0.0,0.0,0.0,1.0,13.0,0.0,1.0,8,RINRI TOMO-NO-KAI,,,A11,70.0,B,A,A,AR,AR,AR,IN,,PF,S,ZA,A,0.738983,36061.0,5602.0,5600.0,core2005pf_ver1,PC,S,ZA,A,IN,,A1170,A
10976,134179518,2006,200603,200638.0,29491252009026.0,A25,N,Y,0.0,1.0,2005,2.0,1.0,1.0,3,0.0,3500,12,0,0,0,335,0,1000,3847,1852,1995,1850,10,347,3306,0,0,0,0,0,3306,0,96,N,N,N,N,Y,N,N,N,N,N,N,N,N,N,N,N,N,N,N,0,0,12,347,852,2,850,2,0,3306,0,0,0,3306,0,0,0,0,0,0,0,0,0,0,1943,0,96,232,232,0,560,1850,13115,1309,0,16274,0,0,0,0,0,0,0,0,0,0,64,155,155,0,374,0,0,0,0,0,0,0,0,0,0,0,0,0,0,0,0,0,10001.0,INSTITUTE OF MASTERS OF WINE NORTH AMERICA LTD,TANNENBAUM HELPERN SYRACUSE,350 7TH AVE 1201,NEW YORK,NY,10001-5013,0.0,3.0,2.0,200309.0,1.0,3.0,0.0,0.0,0.0,1.0,13.0,0.0,1.0,3,,,,A25,,B,A,A,AR,AR,AR,IN,,PF,O,AR,A,0.0964684,36061.0,5602.0,5600.0,core2005pf_ver1,PC,O,AR,A,IN,,A25,A
10980,134180899,2005,200512,200646.0,29491294036106.0,A68,N,Y,0.0,1.0,2005,3.0,4.0,2.0,3,0.0,0,0,16415,0,0,0,20000,340,16415,24302,-7887,24302,14262,0,302677,0,55597,0,55597,0,361860,0,17776,N,N,N,N,N,N,N,N,Y,N,N,N,N,N,N,N,N,N,N,0,0,38224,0,23962,23962,23962,23962,0,0,0,235954,0,302677,285,0,0,0,0,0,0,0,0,285,360924,17491,0,0,0,0,0,0,0,0,0,0,0,0,0,0,0,0,0,0,0,0,0,0,0,0,0,0,0,0,0,0,0,0,0,0,0,0,0,0,0,0,285,0,10021.0,DA CAPO FOUNDATION INC,MATSUKO SHIBUYA,420 E 72ND ST,NEW YORK,NY,10021-4650,0.0,3.0,1.0,200407.0,1.0,4.0,0.0,0.0,0.0,1.0,13.0,0.0,1.0,12,,,,A68,,B,A,A,AR,AR,AR,IN,,PF,O,AR,A,0.510935,36061.0,5602.0,5600.0,core2005pf_ver1,PC,O,AR,A,IN,,A68,A
10981,134181214,2005,200512,200626.0,29491162101146.0,A25,N,Y,0.0,1.0,2005,3.0,5.0,2.0,3,0.0,0,22673,0,0,0,0,0,20000,22673,45057,-22384,44301,21917,0,767424,0,0,0,0,0,767424,0,37804,N,N,N,N,N,N,N,N,N,N,N,N,N,N,N,N,Y,N,N,0,0,22673,0,25057,756,24301,756,0,2584,0,0,0,767424,438,0,0,0,0,0,0,0,0,438,767596,37366,0,0,0,0,0,0,0,0,0,0,0,0,0,0,0,0,0,0,0,0,0,0,0,0,0,0,0,0,0,0,0,0,0,0,0,0,0,0,0,0,438,0,10016.0,MALEVICH SOCIETY,LAWRENCE KAYE TRUSTEE,2 PARK AVE,NEW YORK,NY,10016-5675,0.0,3.0,2.0,200201.0,1.0,4.0,0.0,0.0,0.0,1.0,13.0,0.0,1.0,12,,,,A25,,B,A,A,AR,AR,AR,IN,,PF,O,AR,A,0.6121939999999999,36061.0,5602.0,5600.0,core2005pf_ver1,PC,O,AR,A,IN,,A25,A
10985,134182614,2005,200512,200649.0,29491322034036.0,A20,N,Y,0.0,1.0,2005,3.0,4.0,4.0,3,0.0,186326,1373,4477,3615,0,0,0,263671,195791,301662,-105871,272766,0,0,359178,0,91730,0,91730,18000,366061,0,19883,N,Y,N,N,N,N,N,N,N,N,N,N,N,N,N,N,N,Y,N,0,0,9465,0,37991,26546,9095,26546,0,0,0,187594,0,341178,0,0,0,1200,0,0,0,0,1200,0,403713,19883,0,0,0,0,0,0,0,0,0,0,0,0,0,0,0,0,0,0,0,0,0,0,0,0,0,0,0,0,0,0,0,0,0,0,0,0,0,0,0,0,0,0,10017.0,HARRIET AND ESTEBAN VICENTE FOUNDATION,ROBERT S WARSHAW,501 FIFTH AVE STE 1803,NEW YORK,NY,10017-6189,0.0,3.0,1.0,200111.0,1.0,4.0,0.0,0.0,0.0,1.0,13.0,0.0,1.0,12,,M,,A20,,B,A,A,AR,AR,AR,IN,,PF,O,AR,A,0.770997,36061.0,5602.0,5600.0,core2005pf_ver1,PC,O,AR,A,IN,,A20,A
11003,134193640,2006,200603,200635.0,29491217082196.0,A20,N,Y,0.0,1.0,2005,2.0,2.0,2.0,3,0.0,10000,0,353,-120,0,0,0,5000,10233,5890,4343,5000,353,353,13820,0,0,0,0,0,14368,0,1251,N,N,N,N,Y,N,N,N,N,N,N,N,N,N,N,N,N,N,N,0,0,353,353,890,0,0,0,0,224,0,13596,0,13820,7,0,0,0,0,0,0,0,0,7,25402,0,353,218,83,0,654,5000,3000,1000,0,9000,13820,9481,3207,240,26748,13820,9481,3207,240,26748,834,251,137,15,1237,10000,10000,5000,5100,30100,10000,10000,5000,100,25100,0,0,0,0,0,7,0,10003.0,JONATHAN AND BARBARA SILVER FOUNDATION INC,SILVER BARBARA,30 E 4TH ST,NEW YORK,NY,10003-7025,0.0,3.0,2.0,200207.0,1.0,3.0,0.0,0.0,0.0,1.0,13.0,0.0,1.0,3,,,,A20,,B,A,A,AR,AR,AR,IN,,PF,O,AR,A,0.41190299999999996,36061.0,5602.0,5600.0,core2005pf_ver1,PC,O,AR,A,IN,,A20,A
11044,134201589,2004,200412,200612.0,29491337050045.0,A20,N,Y,0.0,1.0,2004,2.0,4.0,4.0,3,0.0,171741,0,30,-47,0,0,0,4535,171724,25495,146229,25040,1487,0,150270,0,142711,0,142711,0,146437,0,404,N,Y,N,N,Y,N,N,N,N,N,N,N,N,N,N,N,N,N,N,0,0,1842,30,20960,355,20505,355,355,0,0,0,0,150270,15,0,0,26,0,100,0,0,111,15,8201,0,404,0,0,0,404,20505,7125,14365,0,41995,0,0,0,0,0,0,0,0,0,0,269,175,575,0,1019,0,0,0,0,0,0,0,0,0,0,0,0,0,0,0,-111,0,10021.0,THE FOUNDATION TO PROMOTE SELF TAUGHT ART INC,AUDREY B HECKLER,1365 YORK AVE STE 9A,NEW YORK,NY,10021-4042,0.0,3.0,2.0,200409.0,1.0,3.0,0.0,0.0,0.0,1.0,13.0,0.0,1.0,12,,,,A12,,B,A,A,AR,AR,AR,IN,,PF,S,ZB,A,0.06687219999999999,36061.0,5602.0,5600.0,core2005pf_ver1,PC,S,ZB,A,IN,,A12,A
11252,136059836,2005,200512,200625.0,29491161207006.0,,N,Y,0.0,1.0,2005,3.0,3.0,2.0,3,161.0,10000,0,1520,1008,0,0,0,12500,12528,13917,-1389,13917,1611,0,68047,0,59215,0,59215,0,72707,0,3511,N,N,N,N,N,N,N,N,N,N,N,N,N,N,N,N,N,N,N,0,0,2528,0,1417,916,1417,916,0,8832,0,0,0,68047,32,0,0,0,0,0,0,0,0,32,71300,3479,0,0,0,0,0,0,0,0,0,0,0,0,0,0,0,0,0,0,0,0,0,0,0,0,0,0,0,0,0,0,0,0,0,0,0,0,0,0,0,0,32,0,10018.0,HISTORICAL RESEARCH FOUNDATION,SANFORD BECKER & CO PC,1430 BROADWAY STE 6TH FLR,NEW YORK,NY,10018-3308,0.0,3.0,2.0,196204.0,1.0,4.0,161.0,180.0,59.0,1.0,13.0,0.0,1.0,12,,,,A12,82.0,B,A,A,AR,AR,AR,IN,,PF,S,ZB,A,0.126297,36061.0,5602.0,5600.0,core2005pf_ver1,PC,S,ZB,A,IN,,A1282,A
11326,136069185,2005,200512,200625.0,29491154062076.0,,N,Y,0.0,1.0,2005,3.0,3.0,4.0,3,602.0,100000,0,0,0,0,0,0,90550,100000,98819,1181,99819,0,0,28312,0,0,0,0,23550,28312,0,798,N,N,N,N,N,N,N,N,Y,N,N,N,N,N,N,N,N,N,N,0,0,0,0,8269,0,8269,0,0,28312,0,0,0,4762,0,0,0,0,0,0,0,0,0,0,16212,798,0,0,0,0,0,0,0,0,0,0,0,0,0,0,0,0,0,0,0,0,0,0,0,0,0,0,0,0,0,0,0,0,0,0,0,0,0,0,0,0,0,0,10016.0,S FOREST COMPANY INC,ALEXANDER & GREEN,90 PARK AVE,NEW YORK,NY,10016-1301,0.0,3.0,1.0,195406.0,1.0,4.0,602.0,0.0,0.0,1.0,13.0,0.0,1.0,12,,,,A60,,C,A,A,AR,AR,AR,IN,,PF,O,AR,A,0.5926060000000001,36061.0,5602.0,5600.0,core2005pf_ver1,PC,O,AR,A,IN,,C99,C
11586,136096069,2005,200512,200632.0,29491203066086.0,,N,Y,0.0,1.0,2005,3.0,6.0,4.0,3,908.0,0,0,69479,44745,0,116319,50000,78600,230543,206807,23736,131187,92439,131963,1746610,1432850,0,0,1432850,0,2379174,0,0,N,Y,N,N,N,N,N,N,N,N,N,N,N,N,N,N,Y,N,N,0,0,114224,185798,128207,21785,52587,21785,53835,0,0,0,0,1746610,924,0,0,0,0,0,0,47,0,924,0,0,0,0,0,0,0,0,0,0,0,0,0,0,0,0,0,0,0,0,0,0,0,0,0,0,0,0,0,0,0,0,0,0,0,0,0,0,0,0,0,0,971,0,10022.0,DAUGHTERS OF THE CINCINNATI,,122 E 58TH ST,NEW YORK,NY,10022-1909,0.0,3.0,1.0,194308.0,1.0,4.0,908.0,40.0,0.0,1.0,13.0,0.0,1.0,12,,,,A80,,C,A,A,AR,AR,AR,IN,,PF,O,AR,A,0.21076999999999999,36061.0,5602.0,5600.0,core2005pf_ver1,PC,O,AR,A,IN,,A80,A
11808,136115059,2005,200512,200651.0,29491329138006.0,,N,Y,0.0,1.0,2005,3.0,4.0,3.0,3,59.0,0,0,38555,1956,0,0,0,108750,40511,102269,-61758,108750,39761,0,442160,0,429798,0,429798,0,1264569,0,63453,N,N,N,N,N,N,N,N,N,N,N,Y,N,N,N,N,N,N,N,0,0,40511,0,-6481,750,0,750,0,4545,0,0,0,442160,795,0,0,4500,0,0,0,0,3705,795,1288390,62658,0,0,0,0,0,0,0,0,0,0,0,0,0,0,0,0,0,0,0,0,0,0,0,0,0,0,0,0,0,0,0,0,0,0,0,0,0,0,0,0,-3705,0,10128.0,LITERARY SOCIETY FOUNDATION INC,KLUB LIEDERKRANZ,6 E 87TH ST,NEW YORK,NY,10128-0505,0.0,3.0,2.0,194705.0,1.0,4.0,59.0,0.0,0.0,1.0,13.0,0.0,1.0,12,,,,A70,,A,A,A,AR,AR,AR,IN,,PF,O,AR,A,0.837108,36061.0,5602.0,5600.0,core2005pf_ver1,PC,O,AR,A,IN,,A70,A
11834,136116536,2006,200604,200641.0,29491266033166.0,,N,Y,0.0,1.0,2005,3.0,5.0,4.0,3,602.0,0,17217,4940,2983,0,61009,0,31800,86149,50299,35850,32850,18567,0,566800,269277,52033,0,321310,0,919394,6026,44170,N,N,N,N,N,N,N,N,N,N,N,N,N,N,N,N,N,N,N,0,0,22157,0,18499,3590,1050,3590,0,0,0,198555,0,566800,371,0,0,160,0,0,0,0,0,371,896846,36518,0,0,0,0,0,0,0,0,0,0,0,0,0,0,0,0,0,0,0,0,0,0,0,0,0,0,0,0,0,0,0,0,0,0,0,0,0,0,0,0,211,0,10023.0,JACOB BLUESTEIN FOUNDATION,MARION GALISON,115 CENTRAL PARK W,NEW YORK,NY,10023-4153,0.0,3.0,1.0,195811.0,1.0,4.0,602.0,0.0,0.0,1.0,13.0,0.0,1.0,4,,,,A68,,A,A,A,AR,AR,AR,IN,,PF,O,AR,A,0.0790689,36061.0,5602.0,5600.0,core2005pf_ver1,PC,O,AR,A,IN,,A68,A
11977,136133259,2005,200512,200646.0,29491294000006.0,,N,Y,0.0,1.0,2005,3.0,1.0,1.0,3,602.0,0,12,0,0,0,0,0,0,12,1,11,0,11,11,2167,0,0,0,0,0,2167,0,106,N,N,N,N,N,N,N,N,N,N,N,N,N,N,N,N,N,N,N,0,0,12,12,1,1,0,1,1,0,0,0,0,2167,0,1,0,0,0,0,0,0,0,1,0,105,0,0,0,0,0,0,0,0,0,0,0,0,0,0,0,0,0,0,0,0,0,0,0,0,0,0,0,0,0,0,0,0,0,0,0,0,0,0,0,0,1,0,10017.0,IRISH EMIGRANT SOCIETY OF NEW YORK,,5 E 42ND ST,NEW YORK,NY,10017-6904,0.0,3.0,1.0,194503.0,1.0,4.0,602.0,0.0,0.0,1.0,13.0,0.0,1.0,12,,,,A23,,C,A,A,AR,AR,AR,IN,,PF,O,AR,A,0.648922,36061.0,5602.0,5600.0,core2005pf_ver1,PC,O,AR,A,IN,,A23,A
11978,136133318,2005,200512,200635.0,29491217098016.0,,N,Y,0.0,1.0,2005,3.0,2.0,1.0,3,999.0,0,10,517,0,0,0,0,0,527,200,327,200,469,327,18060,0,0,0,0,0,17328,0,890,N,N,N,N,N,N,N,N,N,N,N,N,N,N,N,N,N,N,N,0,0,669,527,200,200,200,200,200,304,0,0,0,18060,4,0,0,0,0,0,0,0,0,4,18060,886,0,0,0,0,0,0,0,0,0,0,0,0,0,0,0,0,0,0,0,0,0,0,0,0,0,0,0,0,0,0,0,0,0,0,0,0,0,0,0,0,4,0,10021.0,GEORGE BARRY MALLON MEMORIAL CORP,JOHNE DONNELLY,330 E TOUR ST STE 5J,NEW YORK,NY,10021-0000,0.0,3.0,1.0,193902.0,1.0,4.0,999.0,0.0,0.0,5.0,13.0,0.0,1.0,12,,,,A80,,C,A,A,AR,AR,AR,IN,,PF,O,AR,A,0.720091,36061.0,5602.0,5600.0,core2005pf_ver1,PC,O,AR,A,IN,,A80,A
12015,136139518,2005,200512,200626.0,29491162194026.0,,N,Y,0.0,1.0,2005,3.0,8.0,8.0,3,40.0,50000,14270,441984,1044980,0,1347435,132749,104050,2898669,994520,1904149,678919,2603121,0,18608984,0,15148114,0,15148114,52092,19991761,21623,804701,N,N,N,N,N,N,N,N,Y,N,N,N,N,N,N,N,Y,Y,N,0,0,2847801,0,890470,244680,570369,244680,0,535754,0,543463,0,18556892,52062,0,0,30000,0,0,0,0,0,52062,16339116,752639,0,0,0,0,0,0,0,0,0,0,0,0,0,0,0,0,0,0,0,0,0,0,0,0,0,0,0,0,0,0,0,0,0,0,0,0,0,0,0,0,22062,0,10003.0,KURT WEILL FOUNDATION FOR MUSIC,HOROWITZ COLEMAN & WALDMAN,7 EAST 20TH STREET 3RD FLR,NEW YORK,NY,10003-1106,0.0,3.0,1.0,196407.0,1.0,4.0,40.0,59.0,0.0,1.0,13.0,0.0,1.0,12,,,,A68,,A,A,A,AR,AR,AR,IN,,PF,O,AR,A,0.575628,36061.0,5602.0,5600.0,core2005pf_ver1,PC,O,AR,A,IN,,A68,A
12074,136149781,2005,200508,200607.0,29491028000246.0,A60Z,N,Y,0.0,1.0,2004,2.0,6.0,4.0,3,90.0,1600,8913,299479,14346,0,0,0,155875,351834,257234,94600,242386,340734,321798,4613801,0,3820082,311773,4131855,0,4896477,0,235668,N,N,N,N,Y,N,N,N,N,N,N,N,N,N,N,N,Y,N,N,27496,0,350234,325888,101359,9500,86511,9500,4090,33526,2230,-10769,0,4613801,6815,0,0,8600,0,0,0,0,1785,6815,4785155,0,235668,229145,217611,209188,891612,242386,280671,213297,175680,912034,0,0,0,0,0,0,0,0,0,0,157112,152763,145074,139459,594408,0,0,0,0,0,0,0,0,0,0,0,0,0,0,0,-1785,0,10016.0,PERFORMING ARTS FOUNDATION INC,SPITZ & EDELSTEIN CPAS,21 E 40TH ST STE 1006,NEW YORK,NY,10016-0501,0.0,3.0,1.0,196411.0,1.0,3.0,90.0,0.0,0.0,1.0,13.0,0.0,1.0,8,,,,A12,60.0,A,A,A,AR,AR,AR,IN,,PF,S,ZB,A,0.149724,36061.0,5602.0,5600.0,core2005pf_ver1,PC,S,ZB,A,IN,,A1260,A
12134,136157956,2005,200512,200636.0,29491224021136.0,,N,Y,0.0,1.0,2005,3.0,2.0,2.0,3,59.0,18572,0,0,0,0,0,0,19500,18572,20987,-2415,20987,0,0,12315,0,0,0,0,0,12315,0,666,N,N,N,N,N,N,N,N,N,N,N,N,N,N,N,N,N,N,N,0,0,0,0,1487,0,1487,0,0,12315,0,0,0,12315,0,0,0,0,0,0,0,0,0,0,13523,666,0,0,0,0,0,0,0,0,0,0,0,0,0,0,0,0,0,0,0,0,0,0,0,0,0,0,0,0,0,0,0,0,0,0,0,0,0,0,0,0,0,0,10036.0,LARCHMONT CHAMBER MUSIC CIRCLE INC,LILLIE BERNSTEIN,1185 AVE OF AMERICAS,NEW YORK,NY,10036-2601,0.0,3.0,2.0,196404.0,1.0,4.0,59.0,0.0,0.0,1.0,13.0,0.0,1.0,12,,,,A6C,,A,A,A,AR,AR,AR,IN,,PF,O,AR,A,0.00753827,36061.0,5602.0,5600.0,core2005pf_ver1,PC,O,AR,A,IN,,A6C,A
12262,136161674,2005,200512,200652.0,29491343098246.0,,N,Y,0.0,1.0,2005,3.0,6.0,4.0,3,60.0,427537,1117,0,0,8417,4569,45972,3450,441640,362368,79272,341889,1117,14103,1070230,0,0,0,0,2346,1070230,0,13848,N,N,N,N,N,N,N,N,N,N,N,N,N,N,N,N,N,N,N,0,24542,1117,14103,358918,0,338439,0,0,283755,0,0,0,1067884,22,0,0,0,0,0,0,0,0,22,281186,0,0,0,0,0,0,0,0,0,0,0,0,0,0,0,0,0,0,0,0,0,0,0,0,0,0,0,0,0,0,0,0,0,0,0,0,0,0,0,0,0,22,0,10025.0,NICHOLAS ROERICH MUSEUM,,319 W 107TH ST,NEW YORK,NY,10025-2715,0.0,3.0,1.0,199404.0,1.0,4.0,60.0,0.0,0.0,1.0,13.0,0.0,1.0,12,,,,A50,,A,A,A,AR,AR,AR,IN,,PF,O,AR,A,0.549462,36061.0,5602.0,5600.0,core2005pf_ver1,PC,O,AR,A,IN,,A50,A
12331,136164757,2006,200603,200652.0,29491343048086.0,,N,Y,0.0,1.0,2005,3.0,6.0,6.0,3,602.0,0,8380,43975,129218,0,799850,0,226000,981423,854244,127179,405528,164936,412939,2597306,506367,1122033,0,1628400,535230,2597306,0,105945,N,N,N,N,N,N,N,Y,Y,N,N,N,N,N,N,N,N,N,N,0,0,181573,799850,628244,16637,223028,16637,386911,61396,0,0,0,2062076,3299,0,0,3072,0,0,0,14,0,3299,2151161,102646,0,0,0,0,0,0,0,0,0,0,0,0,0,0,0,0,0,0,0,0,0,0,0,0,0,0,0,0,0,0,0,0,0,0,0,0,0,0,0,0,241,0,10005.0,SOCIETY OF THE FRIENDLY SONS OF SAINT PATRICK IN THE CITY OF NEW Y,,80 WALL ST,NEW YORK,NY,10005-3601,0.0,3.0,1.0,194506.0,1.0,4.0,602.0,0.0,0.0,1.0,13.0,0.0,1.0,3,,,,A80,,C,A,A,AR,AR,AR,IN,,PF,O,AR,A,0.130151,36061.0,5602.0,5600.0,core2005pf_ver1,PC,O,AR,A,IN,,A80,A
12371,136168827,2005,200512,200623.0,29491140007166.0,A20,N,Y,0.0,1.0,2005,2.0,4.0,2.0,3,602.0,8975,0,0,0,0,10604,0,0,19579,40252,-20673,37301,7863,7863,421970,0,0,0,0,0,471934,0,15515,N,N,N,N,N,N,N,N,N,N,N,N,N,N,N,N,N,N,N,0,0,10604,10604,40252,2741,37301,2741,2741,215068,0,0,0,421970,157,0,0,0,0,0,0,0,0,157,315033,0,0,0,0,0,0,0,0,0,0,0,0,0,0,0,0,0,0,0,0,0,0,0,0,0,0,0,0,0,0,0,0,0,0,0,0,0,0,0,0,0,157,0,10016.0,EDWARD ALBEE FOUNDATION INC,A KOZAK CO,192 LEXINGTON AVE 1100,NEW YORK,NY,10016-6823,0.0,3.0,1.0,196412.0,1.0,4.0,602.0,0.0,0.0,1.0,13.0,0.0,1.0,12,,,,A20,,B,A,A,AR,AR,AR,IN,,PF,O,AR,A,0.9763149999999999,36061.0,5602.0,5600.0,core2005pf_ver1,PC,O,AR,A,IN,,A20,A
12728,136625578,2005,200508,200605.0,29491014030126.0,,N,Y,0.0,1.0,2004,3.0,4.0,3.0,3,602.0,30224,0,5040,-817,0,2432,0,29735,36879,32147,4732,29735,4490,4490,145317,0,0,0,0,848,145317,0,0,N,Y,N,N,N,N,N,N,N,N,N,N,N,N,N,N,N,N,N,0,0,5040,5040,2412,550,0,550,550,2481,0,142836,0,144469,45,0,0,0,0,0,0,0,0,45,0,0,0,0,0,0,0,0,0,0,0,0,0,0,0,0,0,0,0,0,0,0,0,0,0,0,0,0,0,0,0,0,0,0,0,0,0,0,0,0,0,0,45,0,10036.0,AMERICAN SOCIETY OF JOURNALISTS AND AUTHORS CHARITABLE TRUST,,1501 BROADWAY 302,NEW YORK,NY,10036-5505,0.0,3.0,1.0,198810.0,1.0,4.0,602.0,0.0,0.0,1.0,13.0,199308.0,1.0,8,,,,A70,,A,A,A,AR,AR,AR,IN,,PF,O,AR,A,0.7374890000000001,36061.0,5602.0,5600.0,core2005pf_ver1,PC,O,AR,A,IN,,A70,A
12738,136734265,2005,200512,200626.0,29491161252216.0,,N,Y,0.0,1.0,2005,3.0,4.0,3.0,3,602.0,0,0,16985,4040,0,13,0,26156,21038,33086,-12048,26968,14917,0,432049,25406,342867,34820,403093,0,452737,0,24427,N,Y,N,N,N,N,N,N,Y,N,N,N,N,N,N,N,N,N,N,0,0,21035,0,6930,6118,812,6118,0,0,0,0,0,432049,149,0,0,0,0,0,0,0,0,149,495986,24278,0,0,0,0,0,0,0,0,0,0,0,0,0,0,0,0,0,0,0,0,0,0,0,0,0,0,0,0,0,0,0,0,0,0,0,0,0,0,0,0,149,0,10286.0,TRUST U/W CARL OTTO VONKIENBUSCH A/B/O PHILADELPHIA MUSEUM OF ART,,ONE WALL ST 28TH FLR,NEW YORK,NY,10286-0001,0.0,3.0,1.0,197806.0,1.0,4.0,602.0,0.0,0.0,2.0,13.0,0.0,1.0,12,,,,A50,,A,A,A,AR,AR,AR,IN,,PF,O,AR,A,0.0286878,36061.0,5602.0,5600.0,core2005pf_ver1,PC,O,AR,A,IN,,A50,A
12760,136814491,2005,200507,200605.0,29491007027216.0,,N,Y,0.0,1.0,2004,3.0,8.0,7.0,3,602.0,0,92,1023041,906220,0,0,157232,1802500,1929353,2209283,-279930,2033330,1797938,0,27001925,2672558,21530004,1237736,25440298,0,36156571,0,1806736,N,Y,N,N,N,N,N,N,Y,N,N,N,N,N,N,N,N,N,N,0,0,1929353,0,406783,131415,230830,131415,0,0,0,213599,0,27001925,17979,0,0,39500,0,0,0,0,21521,17979,36685002,1788757,0,0,0,0,0,0,0,0,0,0,0,0,0,0,0,0,0,0,0,0,0,0,0,0,0,0,0,0,0,0,0,0,0,0,0,0,0,0,0,0,-21521,0,10017.0,FRANCES & EDWIN CUMMINGS MEMORIAL 578956,THE BANK OF NEW YORK TAX DEPT,501 5TH AVENUE,NEW YORK,NY,10017-6107,0.0,3.0,1.0,198403.0,1.0,4.0,602.0,0.0,0.0,6.0,13.0,0.0,1.0,7,,,,A80,,C,A,A,AR,AR,AR,IN,,PF,O,AR,A,0.07382280000000001,36061.0,5602.0,5600.0,core2005pf_ver1,PC,O,AR,A,IN,,A80,A
12998,137045257,2005,200512,200631.0,29491168078006.0,,N,Y,0.0,1.0,2005,3.0,4.0,7.0,3,602.0,8373031,0,46978,0,0,0,0,8462290,8420009,8468951,-48942,8468951,46978,0,350311,0,0,0,0,25000,350311,0,17335,N,Y,N,N,N,N,N,N,N,N,N,N,N,N,N,N,N,N,N,0,0,46978,0,6661,0,6661,0,0,1656,0,0,0,325311,470,0,0,1304,0,0,0,0,834,470,351986,16865,0,0,0,0,0,0,0,0,0,0,0,0,0,0,0,0,0,0,0,0,0,0,0,0,0,0,0,0,0,0,0,0,0,0,0,0,0,0,0,0,-834,0,10169.0,MOSAIC FUND,SATTERLEE STEPHENS BURKE & BURKE,230 PARK AVE STE 1130,NEW YORK,NY,10169-1199,0.0,3.0,1.0,199502.0,1.0,4.0,602.0,0.0,0.0,2.0,13.0,0.0,1.0,12,SEITZ HOWARD G TTEE,,,A40,,A,A,A,AR,AR,AR,IN,,PF,O,AR,A,0.5630890000000001,36061.0,5602.0,5600.0,core2005pf_ver1,PC,O,AR,A,IN,,A40,A
13037,137061011,2005,200506,200626.0,29491161002066.0,A50I,N,Y,0.0,1.0,2004,2.0,4.0,1.0,3,60.0,5000,0,0,0,0,0,0,4850,5000,6553,-1553,4960,0,0,331169,0,0,0,0,0,358406,0,17495,N,N,N,N,Y,N,N,Y,N,N,N,N,N,N,N,N,N,N,N,0,0,0,0,1703,230,110,230,1703,502,0,0,0,331169,0,0,0,0,0,0,0,0,0,0,355230,0,1,0,0,0,1,4960,41850,17870,34675,99355,358406,350064,306243,297280,1311993,358406,350064,306243,297280,1311993,11669,10781,10008,9402,41860,5000,40745,21000,34500,101245,5000,40745,21000,34500,101245,0,0,0,0,0,0,0,10016.0,WEISS MEMORIAL FOUNDATION TR,EUGENE STOLER CPA KONIGSBERG WOLF,440 PARK AVE S,NEW YORK,NY,10016-8012,0.0,3.0,1.0,199701.0,1.0,3.0,60.0,0.0,0.0,2.0,13.0,0.0,1.0,6,WEISS HERBERT TTEE,,,A50,,B,A,A,AR,AR,AR,IN,,PF,O,AR,A,0.38821,36061.0,5602.0,5600.0,core2005pf_ver1,PC,O,AR,A,IN,,A50,A
13074,137082559,2005,200512,200650.0,29491336000196.0,T30J,N,Y,0.0,1.0,2005,3.0,2.0,1.0,3,602.0,0,596,0,0,0,4,269,0,600,1837,-1237,1759,521,0,19441,0,0,0,0,0,19441,0,966,N,N,N,N,N,N,N,N,N,N,N,N,N,N,N,N,N,N,N,0,0,596,0,1837,75,1759,75,0,0,0,0,0,19441,10,0,0,0,0,50,0,0,12,10,19616,956,0,0,0,0,0,0,0,0,0,0,0,0,0,0,0,0,0,0,0,0,0,0,0,0,0,0,0,0,0,0,0,0,0,0,0,0,0,0,0,0,-40,28,10112.0,NEW YORK FINE ARTS SUPPORT TR,ROCKEFELLER TRUST COMPANY TTEE,30 ROCKEFELLER PLZ,NEW YORK,NY,10112-0002,0.0,3.0,1.0,199603.0,1.0,4.0,602.0,0.0,0.0,2.0,13.0,0.0,1.0,12,,,,A19,40.0,A,A,A,AR,AR,AR,IN,,PF,O,AR,A,0.7262350000000001,36061.0,5602.0,5600.0,core2005pf_ver1,PC,O,AR,A,IN,,A1940,A
13118,137101223,2005,200512,200635.0,29491217076056.0,A45Z,N,Y,0.0,1.0,2005,2.0,6.0,4.0,3,91.0,131613,15,0,0,0,1557,0,0,133185,129146,4039,127081,0,0,4494110,0,0,0,0,16961,8814386,0,3553,N,Y,N,N,Y,N,N,N,N,N,N,N,N,N,N,N,N,N,N,0,0,0,1572,129146,0,127081,0,2066,56162,0,0,0,4477149,0,0,0,20,0,0,0,0,20,0,72139,0,0,2799,3438,4011,10248,127081,50915,87801,59898,325695,4504440,0,0,0,4504440,4504440,0,0,0,4504440,0,0,0,0,0,0,0,0,0,0,0,0,0,0,0,0,0,0,0,0,-20,0,10012.0,KIKI KOGELNIK FOUNDATION,STEPHEN KILDUNNE,330 LAFAYETTE ST 7,NEW YORK,NY,10012-2739,0.0,3.0,2.0,199705.0,1.0,3.0,91.0,0.0,0.0,2.0,13.0,0.0,1.0,12,,,,A40,,C,A,A,AR,AR,AR,IN,,PF,O,AR,A,0.35525300000000004,36061.0,5602.0,5600.0,core2005pf_ver1,PC,O,AR,A,IN,,A40,A
13527,137325028,2005,200512,200650.0,29491329173126.0,A51,N,Y,0.0,1.0,2005,2.0,7.0,6.0,3,0.0,1204752,289,0,0,0,1379,0,0,1206420,885458,320962,801160,289,0,8461760,0,0,0,0,2357,8717581,0,273,N,Y,N,N,Y,N,N,N,N,N,N,N,N,N,N,N,N,N,N,0,0,289,0,885458,0,801160,0,0,0,0,0,0,8459403,3,0,0,200,0,0,0,0,197,3,5547,0,1,1679,0,0,1680,801160,675253,541513,594775,2612701,8503924,6580328,4797272,4132957,24014481,8452175,6505347,4797272,4083444,23838238,182,4191,985,0,5358,1206420,4186488,1226577,4198616,10818101,828,407,392,0,1627,47,3526,2077,20,5670,-197,0,10171.0,FISHER LANDAU CENTER FOR ART,FISHER BROTHERS,299 PARK AVE,NEW YORK,NY,10171-0002,0.0,3.0,2.0,200210.0,1.0,3.0,0.0,0.0,0.0,2.0,13.0,0.0,1.0,12,LANDAU EMILY FISHER TTEE,,,A51,,B,A,A,AR,AR,AR,IN,,PF,O,AR,A,0.8451190000000001,36061.0,5602.0,5600.0,core2005pf_ver1,PC,O,AR,A,IN,,A51,A
13583,137450689,2005,200512,200648.0,29491322033186.0,T22,N,Y,0.0,1.0,2005,3.0,8.0,8.0,3,0.0,25000000,0,31185,0,0,0,0,0,25031185,0,25031185,0,31185,0,25031185,0,0,0,0,0,25031185,50742,51366,N,N,N,N,N,N,N,N,N,N,N,N,N,N,N,N,N,N,N,0,0,31185,0,0,0,0,0,0,0,0,0,0,25031185,624,0,0,0,0,10000,0,0,9376,624,1042966,50742,0,0,0,0,0,0,0,0,0,0,0,0,0,0,0,0,0,0,0,0,0,0,0,0,0,0,0,0,0,0,0,0,0,0,0,0,0,0,0,0,-9376,0,10019.0,ARISON ARTS FOUNDATION,PAUL WEISS,1285 AVENUE OF THE AMERICAS,NEW YORK,NY,10019-6031,0.0,3.0,1.0,200506.0,1.0,4.0,0.0,0.0,0.0,2.0,13.0,0.0,1.0,12,,,,A12,,B,A,A,AR,AR,AR,IN,,PF,S,ZB,A,0.88564,36061.0,5602.0,5600.0,core2005pf_ver1,PC,S,ZB,A,IN,,T22,T
14458,161632202,2005,200512,200652.0,29491343111076.0,A12,N,Y,0.0,1.0,2005,3.0,4.0,5.0,3,0.0,252916,0,49,0,0,0,0,0,252965,0,252965,0,49,0,252965,0,0,0,0,0,252965,12455,12456,N,N,N,N,N,N,N,N,N,N,N,N,N,N,N,N,N,N,N,0,0,49,0,0,0,0,0,0,252965,0,0,0,252965,1,0,0,0,0,0,0,0,0,1,252916,12455,0,0,0,0,0,0,0,0,0,0,0,0,0,0,0,0,0,0,0,0,0,0,0,0,0,0,0,0,0,0,0,0,0,0,0,0,0,0,0,0,1,0,10019.0,THE LAURA PELS INTERNATIONAL FOUNDATION FOR THEATER,SCHULTE ROTH & ZABEL LLP,200 W 57TH ST STE 803,NEW YORK,NY,10019-3211,0.0,3.0,1.0,200401.0,1.0,4.0,0.0,0.0,0.0,1.0,13.0,0.0,1.0,12,,,,A12,65.0,B,A,A,AR,AR,AR,IN,,PF,S,ZB,A,0.104512,36061.0,5602.0,5600.0,core2005pf_ver1,PC,S,ZB,A,IN,,A1265,A
15516,200487898,2005,200512,200626.0,29491161162186.0,A51,N,Y,0.0,1.0,2005,3.0,4.0,2.0,3,0.0,10000,0,0,0,0,0,0,6000,10000,16528,-6528,6000,0,0,175861,0,0,0,0,0,167187,0,0,N,N,N,N,N,N,N,N,N,N,N,N,N,N,N,N,N,N,N,0,0,0,0,10528,0,0,0,0,0,0,0,0,175861,0,0,0,0,0,0,0,0,0,0,0,0,0,0,0,0,0,0,0,0,0,0,0,0,0,0,0,0,0,0,0,0,0,0,0,0,0,0,0,0,0,0,0,0,0,0,0,0,0,0,0,0,0,0,10012.0,MALLOY FAM FOUNDATION INC,DAN MALLOY,131 MERCER ST,NEW YORK,NY,10012-3864,0.0,3.0,1.0,200409.0,1.0,4.0,0.0,0.0,0.0,1.0,13.0,0.0,1.0,12,,,,A51,,B,A,A,AR,AR,AR,IN,,PF,O,AR,A,0.45115299999999997,36061.0,5602.0,5600.0,core2005pf_ver1,PC,O,AR,A,IN,,A51,A
16394,201512804,2005,200512,200619.0,29491112068176.0,A23,N,Y,0.0,1.0,2005,3.0,1.0,1.0,3,0.0,1200,0,0,0,0,0,0,0,1200,1278,-78,0,0,0,1,0,0,0,0,5768,1,0,0,N,N,N,N,N,N,N,N,N,N,N,N,N,N,N,N,N,N,N,0,0,0,0,1278,0,0,0,0,0,0,0,0,-5768,0,0,0,0,0,0,0,0,0,0,0,0,0,0,0,0,0,0,0,0,0,0,0,0,0,0,0,0,0,0,0,0,0,0,0,0,0,0,0,0,0,0,0,0,0,0,0,0,0,0,0,0,0,0,11354.0,AMERICAN FUJIAN ARTIST ASSOCIATION INC,,15402 33RD AVE,FLUSHING,NY,11354-3314,0.0,3.0,1.0,200607.0,1.0,15.0,0.0,0.0,0.0,1.0,11.0,200812.0,20.0,12,,,,A23,,B,A,A,AR,AR,AR,IN,,PC,O,AR,A,0.22196300000000002,36081.0,5602.0,5600.0,core2005pf_ver1,PC,O,AR,A,IN,,A23,A
16425,201547673,2004,200412,200617.0,29491344195075.0,T23,N,Y,0.0,1.0,2004,2.0,3.0,4.0,3,0.0,251000,47,0,0,0,0,0,100500,251047,183335,67712,183335,0,0,67712,0,0,0,0,0,67712,0,0,N,N,N,N,Y,N,N,N,N,N,N,N,N,N,N,N,N,N,N,0,0,47,47,82835,82835,82835,82835,82835,67712,0,0,0,67712,0,0,0,0,0,0,0,0,0,0,0,0,1,0,0,0,1,0,0,0,0,0,1,0,0,0,1,0,0,0,0,0,0,0,0,0,0,0,0,0,0,0,0,0,0,0,0,0,0,0,0,0,0,0,10017.0,GAETANO FILANGIERI PHILOSOPHICAL SOCIETY OF AMERICA INC,LAWRENCE AURIANA,140 E 45TH ST,NEW YORK,NY,10017-3144,0.0,3.0,2.0,200512.0,1.0,3.0,0.0,0.0,0.0,1.0,13.0,0.0,1.0,12,,,,A70,,A,A,A,AR,AR,AR,IN,,PF,O,AR,A,0.798405,36061.0,5602.0,5600.0,core2005pf_ver1,PC,O,AR,A,IN,,A70,A
16604,201766629,2005,200512,200638.0,29491252001056.0,A12,N,Y,0.0,1.0,2005,3.0,1.0,1.0,3,0.0,1000,18,0,0,0,0,0,0,1018,816,202,816,18,0,833,0,0,0,0,4032,833,0,21,N,Y,N,N,N,N,Y,N,N,N,N,N,N,N,N,N,N,N,N,0,0,18,0,816,0,816,0,0,833,0,0,0,-3199,0,0,0,0,0,0,0,0,0,0,417,21,0,0,0,0,0,0,0,0,0,0,0,0,0,0,0,0,0,0,0,0,0,0,0,0,0,0,0,0,0,0,0,0,0,0,0,0,0,0,0,0,0,0,10036.0,FINE ART RESTORATION FOUNDATION,THEODORE W STRIGGLES,19 W 44TH ST STE 1108,NEW YORK,NY,10036-6101,0.0,3.0,1.0,200507.0,1.0,4.0,0.0,0.0,0.0,1.0,13.0,0.0,1.0,12,,,,A40,,A,A,A,AR,AR,AR,IN,,PF,O,AR,A,0.738276,36061.0,5602.0,5600.0,core2005pf_ver1,PC,O,AR,A,IN,,A40,A
16629,201781329,2005,200509,200633.0,29491112036216.0,A23,N,Y,0.0,1.0,2004,3.0,1.0,3.0,3,0.0,31855,0,0,0,0,0,0,0,31855,26100,5755,0,0,0,5755,0,0,0,0,0,5755,0,0,N,N,N,N,N,N,N,N,N,N,N,N,N,N,N,N,N,N,N,0,0,0,0,26100,0,0,0,0,5755,0,0,0,5755,0,0,0,0,0,0,0,0,0,0,0,0,0,0,0,0,0,0,0,0,0,0,0,0,0,0,0,0,0,0,0,0,0,0,0,0,0,0,0,0,0,0,0,0,0,0,0,0,0,0,0,0,0,0,10002.0,US FUZHOU LANG QU HAI YU UNITED ASSOCIATION INC,LIN GUAN ZHOU,43 MARKET ST,NEW YORK,NY,10002-7203,0.0,3.0,1.0,200603.0,1.0,15.0,0.0,0.0,0.0,1.0,13.0,200812.0,10.0,9,,,,A23,,B,A,A,AR,AR,AR,IN,,PC,O,AR,A,0.148102,36061.0,5602.0,5600.0,core2005pf_ver1,PC,O,AR,A,IN,,A23,A
17738,203156955,2005,200512,200635.0,29491210055146.0,A12,N,Y,0.0,1.0,2005,3.0,7.0,7.0,3,0.0,9871138,110939,10742,0,0,0,0,0,9992819,10053,9982766,0,111792,0,9982766,6880030,993635,1971525,9845190,0,9946621,192949,195185,N,N,N,N,N,N,N,N,N,N,N,N,N,N,N,N,N,N,N,0,0,121681,0,10053,9889,0,9889,0,0,0,0,0,9982766,2236,0,0,0,0,4000,164,0,1928,2236,9907887,192949,0,0,0,0,0,0,0,0,0,0,0,0,0,0,0,0,0,0,0,0,0,0,0,0,0,0,0,0,0,0,0,0,0,0,0,0,0,0,0,0,-1928,0,10038.0,VIVIAN G PRINS FOUNDATION,STROOCK & STROOCK & LAVAN LLP,180 MAIDEN LN,NEW YORK,NY,10038-4925,0.0,3.0,1.0,200601.0,1.0,4.0,0.0,0.0,0.0,2.0,13.0,0.0,1.0,12,,,,A12,,B,A,A,AR,AR,AR,IN,,PF,S,ZB,A,0.660388,36061.0,5602.0,5600.0,core2005pf_ver1,PC,S,ZB,A,IN,,A12,A
18928,222436291,2005,200510,200626.0,29491161048046.0,,N,Y,0.0,1.0,2004,3.0,0.0,2.0,3,29.0,23968,0,0,0,0,0,0,0,23968,19571,4397,0,0,0,0,0,0,0,0,0,6959,0,192,N,N,N,N,N,N,N,N,N,N,N,N,N,N,N,N,N,N,N,0,0,0,0,19571,0,0,0,0,0,0,0,0,0,0,0,0,0,0,0,0,0,0,0,3811,192,0,0,0,0,0,0,0,0,0,0,0,0,0,0,0,0,0,0,0,0,0,0,0,0,0,0,0,0,0,0,0,0,0,0,0,0,0,0,0,0,0,0,10017.0,AMERICAN FRIENDS OF ITALIAN JEWRY INC,KOENIG RATNER & MOTT PC,369 LEXINGTON AVE,NEW YORK,NY,10017-6506,0.0,3.0,1.0,198305.0,1.0,4.0,29.0,994.0,0.0,1.0,13.0,0.0,1.0,10,,,,A11,23,A,A,A,AR,AR,AR,IN,,PF,S,ZA,A,0.653295,36061.0,5602.0,5600.0,core2005pf_ver1,PC,S,ZA,A,IN,,A1123,A
19034,222530466,2005,200512,200651.0,29491336114136.0,,N,Y,0.0,1.0,2005,3.0,1.0,3.0,3,93.0,55794,0,0,0,0,1746,0,8500,57540,225556,-168016,8500,0,0,1626,0,0,0,0,593102,1626,0,260,N,N,N,N,N,N,N,N,N,N,N,N,N,N,N,N,N,N,N,0,0,0,0,217056,0,0,0,0,1626,0,0,0,-591476,0,0,0,0,0,0,0,0,0,0,5280,260,0,0,0,0,0,0,0,0,0,0,0,0,0,0,0,0,0,0,0,0,0,0,0,0,0,0,0,0,0,0,0,0,0,0,0,0,0,0,0,0,0,0,10012.0,ISE CULTURAL FOUNDATION INC,,555 BROADWAY,NEW YORK,NY,10012-3919,0.0,3.0,2.0,198408.0,1.0,4.0,93.0,90.0,0.0,1.0,13.0,0.0,1.0,12,,,,A12,20,B,A,A,AR,AR,AR,IN,,PF,S,ZB,A,0.968475,36061.0,5602.0,5600.0,core2005pf_ver1,PC,S,ZB,A,IN,,A1220,A
19521,222809914,2004,200412,200613.0,29491070048006.0,A68Z,N,Y,0.0,1.0,2004,3.0,4.0,1.0,3,90.0,0,5,66,0,0,0,9600,0,71,20955,-20884,0,71,0,147152,0,0,0,0,0,66303,0,3928,N,N,N,N,N,N,N,N,N,N,N,N,N,N,N,N,N,N,N,0,0,71,0,20955,0,8720,0,0,0,0,115654,0,147152,1,0,0,0,0,0,0,0,0,1,79749,3927,0,0,0,0,0,0,0,0,0,0,0,0,0,0,0,0,0,0,0,0,0,0,0,0,0,0,0,0,0,0,0,0,0,0,0,0,0,0,0,0,1,0,10023.0,MUSIC AND MORE INC,GANER,1995 BROADWAY 16TH FLR,NEW YORK,NY,10023-5882,0.0,3.0,1.0,198708.0,1.0,4.0,90.0,0.0,0.0,1.0,13.0,0.0,1.0,12,,,,A68,,A,A,A,AR,AR,AR,IN,,PF,O,AR,A,0.43888699999999997,36061.0,5602.0,5600.0,core2005pf_ver1,PC,O,AR,A,IN,,A68,A
20481,223525125,2005,200506,200612.0,29491056074096.0,,N,Y,0.0,1.0,2004,2.0,5.0,1.0,3,998.0,0,0,6636,0,0,0,0,0,6636,13962,-7326,1000,6636,6636,754094,0,0,0,0,0,769944,0,26734,N,N,N,N,Y,N,Y,N,N,N,N,N,N,N,N,N,N,N,N,0,0,6636,6636,13962,0,1000,0,0,0,0,0,0,754094,133,0,0,44,0,1,0,0,0,133,542815,0,6636,884,3887,10075,21482,1000,29075,33500,21197,84772,0,0,0,0,0,0,0,0,0,0,17823,18763,20187,21035,77808,0,0,0,0,0,0,0,0,0,0,0,0,0,0,0,88,0,10118.0,MERL ART FOUNDATION INC,LONNIE WOLLIN,350 FIFTH AVE STE 2822,NEW YORK,NY,10118-2899,0.0,3.0,2.0,199811.0,1.0,3.0,998.0,0.0,0.0,1.0,13.0,0.0,1.0,6,,,,A12,,B,A,A,AR,AR,AR,IN,,PF,S,ZB,A,0.010204099999999999,36061.0,5602.0,5600.0,core2005pf_ver1,PC,S,ZB,A,IN,,A12,A
20485,223527668,2005,200506,200613.0,29491056077036.0,A40Z,N,Y,0.0,1.0,2004,2.0,6.0,4.0,3,60.0,0,0,19430,-45268,0,0,0,0,-19838,40102,-59940,1095,25430,25430,1561106,0,737409,0,737409,0,1741409,0,59301,N,Y,N,N,Y,N,Y,N,N,N,N,N,N,N,N,N,N,N,N,6000,0,25430,25430,40102,0,1095,0,0,0,0,0,0,1561106,709,0,0,0,0,1,0,0,0,709,1204080,0,25430,16075,15072,14071,70648,1095,63000,78500,44075,186670,0,0,0,0,0,0,0,0,0,0,39534,49255,37209,34306,160304,0,0,0,0,0,0,0,0,0,0,0,0,0,0,0,708,0,10118.0,YATES ART FOUNDATION INC,L WOLLIN,350 FIFTH STE 2822,NEW YORK,NY,10118-2899,0.0,3.0,1.0,199803.0,1.0,3.0,60.0,0.0,0.0,1.0,13.0,0.0,1.0,6,,,,A12,,B,A,A,AR,AR,AR,IN,,PF,S,ZB,A,0.7658659999999999,36061.0,5602.0,5600.0,core2005pf_ver1,PC,S,ZB,A,IN,,A12,A
20789,223668584,2005,200506,200626.0,29491162159006.0,A54,N,Y,0.0,1.0,2004,2.0,6.0,4.0,3,0.0,300000,0,827,0,0,0,0,0,300827,329767,-28940,295063,0,0,1979321,0,0,0,0,0,2141859,0,103429,N,N,N,N,Y,N,N,N,N,N,N,N,N,N,N,N,N,N,N,0,0,827,0,329767,3550,295063,3550,0,89092,0,0,0,1979321,0,0,0,0,0,0,0,0,0,0,2100084,0,103433,103594,103444,96014,406485,295063,256331,242055,178883,972332,2141859,2139645,2039083,2082031,8402618,2141859,2139645,2039083,2082031,8402618,0,0,0,0,0,0,0,0,0,0,0,0,0,0,0,0,0,0,0,0,0,0,10016.0,CWJ CLASSIC AUTOMOBILE MUSEUM INC,BEHAN LING & RUTA CPAS PC,475 PARK AVE S 31 FL,NEW YORK,NY,10016-6901,0.0,3.0,1.0,200009.0,1.0,3.0,0.0,0.0,0.0,1.0,13.0,0.0,1.0,6,,,,A50,,A,A,A,AR,AR,AR,IN,,PF,O,AR,A,0.8687530000000001,36061.0,5602.0,5600.0,core2005pf_ver1,PC,O,AR,A,IN,,A50,A
21792,226799567,2005,200512,200652.0,29491343139126.0,T23,N,Y,0.0,25.0,2005,2.0,9.0,9.0,3,0.0,1614398,546869,921178,-91370,289233,780428,178242,0,4420477,14799243,-10378766,12073563,1558350,1558350,131604463,10589926,0,0,10589926,946032,131604463,0,1815294,N,N,N,N,Y,N,N,Y,N,N,N,N,N,N,N,N,N,N,N,359741,199878,1830778,2897449,14799243,272428,12073563,272428,1339099,452450,0,38436774,0,130658431,31167,0,0,30000,0,0,0,34,0,31167,54911448,0,1558350,1091942,532801,482898,3665991,12337125,13458762,18228528,7649951,51674366,0,0,0,0,0,0,0,0,0,0,1210196,1762331,2370938,783217,6126682,0,0,0,0,0,0,0,0,0,0,0,0,0,0,0,1201,0,10003.0,SHELLEY & DONALD RUBIN CULTURAL TR UA 05111999,DONALD RUBIN,115 FIFTH AVE 7TH FL,NEW YORK,NY,10003-1004,0.0,3.0,2.0,199908.0,1.0,3.0,0.0,0.0,0.0,2.0,13.0,0.0,1.0,12,RUBLIN MUSEUM OF ART,,,A50,,A,A,A,AR,AR,AR,IN,,PF,O,AR,A,0.89279,36061.0,5602.0,5600.0,core2005pf_ver1,PC,O,AR,A,IN,,A50,A
24133,237044630,2005,200505,200621.0,29491077037006.0,,N,Y,0.0,1.0,2004,3.0,1.0,1.0,3,119.0,1071,0,0,0,0,0,0,0,1071,325,746,0,0,0,1476,0,0,0,0,0,1476,0,0,N,N,N,N,N,N,N,N,N,N,N,N,N,N,N,N,N,N,N,0,0,0,0,325,0,0,0,0,1476,0,0,0,1476,0,0,0,0,0,0,0,0,0,0,0,0,0,0,0,0,0,0,0,0,0,0,0,0,0,0,0,0,0,0,0,0,0,0,0,0,0,0,0,0,0,0,0,0,0,0,0,0,0,0,0,0,0,0,10025.0,RIVERSIDE THEATER WORKSHOP INC,,280 RIVERSIDE DR STE 10E,NEW YORK,NY,10025-9027,0.0,3.0,1.0,196912.0,1.0,4.0,119.0,59.0,0.0,1.0,13.0,0.0,1.0,5,,,,A65,,B,A,A,AR,AR,AR,IN,,PF,O,AR,A,0.950133,36061.0,5602.0,5600.0,core2005pf_ver1,PC,O,AR,A,IN,,A65,A
24223,237055841,2005,200512,200638.0,29491238070056.0,,N,Y,0.0,1.0,2005,3.0,6.0,5.0,3,119.0,0,27109,5669,-95933,0,0,0,68001,-63155,131457,-194612,97909,0,0,1645673,0,0,0,0,0,1715938,0,85837,N,N,N,N,N,N,N,N,N,N,N,N,N,N,N,N,Y,N,N,0,0,32778,0,63456,33548,29908,33548,0,36817,0,1580866,0,1645673,0,0,0,288,0,0,0,0,288,0,1742879,85837,0,0,0,0,0,0,0,0,0,0,0,0,0,0,0,0,0,0,0,0,0,0,0,0,0,0,0,0,0,0,0,0,0,0,0,0,0,0,0,0,-288,0,10158.0,THE AMERICAN INDONESIAN CULTURAL AND EDUCATIONAL FOUNDATION INC,,605 THIRD AVE STE 1501,NEW YORK,NY,10158-1599,0.0,3.0,1.0,197002.0,1.0,4.0,119.0,602.0,40.0,1.0,13.0,0.0,1.0,12,,,,A23,,A,A,A,AR,AR,AR,IN,,PF,O,AR,A,0.213758,36061.0,5602.0,5600.0,core2005pf_ver1,PC,O,AR,A,IN,,A23,A
24230,237057127,2005,200512,200626.0,29491161274156.0,,N,Y,0.0,1.0,2005,3.0,1.0,1.0,3,59.0,2350,0,0,0,0,0,0,1850,2350,5437,-3087,0,0,0,7640,0,0,0,0,0,7640,0,17,N,N,N,N,N,N,N,N,N,N,N,N,N,N,N,N,N,N,N,0,0,0,0,2350,0,2350,0,0,365,0,0,0,7640,0,0,0,0,0,0,0,0,0,0,1001,0,0,0,0,0,0,0,0,0,0,0,0,0,0,0,0,0,0,0,0,0,0,0,0,0,0,0,0,0,0,0,0,0,0,0,0,0,0,0,0,0,0,0,11413.0,AFRICAN CHRISTIAN TEACHERS ASSOCIATION,,13538 226TH ST,LAURELTON,NY,11413-2432,0.0,3.0,2.0,197002.0,1.0,4.0,59.0,29.0,0.0,5.0,11.0,0.0,1.0,12,,,,A23,,A,A,A,AR,AR,AR,IN,,PF,O,AR,A,0.838283,36081.0,5602.0,5600.0,core2005pf_ver1,PC,O,AR,A,IN,,B03,B
24663,237170979,2005,200512,200641.0,29491252141116.0,,N,Y,0.0,1.0,2005,3.0,0.0,1.0,3,90.0,0,0,0,0,0,0,0,0,1,0,1,0,0,0,0,0,0,0,0,26173,1,0,0,N,N,N,N,N,N,N,N,N,N,N,N,N,N,N,N,N,N,N,0,0,0,0,0,0,0,0,0,0,0,0,0,-26173,0,0,0,0,0,0,0,0,0,0,0,0,0,0,0,0,0,0,0,0,0,0,0,0,0,0,0,0,0,0,0,0,0,0,0,0,0,0,0,0,0,0,0,0,0,0,0,0,0,0,0,0,0,0,10024.0,CREATIVE OPERA COMPANY LTD,FRANCES EBERMAN,101 W 85TH ST STE 34,NEW YORK,NY,10024-4452,0.0,3.0,1.0,198008.0,1.0,4.0,90.0,0.0,0.0,1.0,13.0,0.0,1.0,12,,,,A6A,,A,A,A,AR,AR,AR,IN,,PF,O,AR,A,0.512571,36061.0,5602.0,5600.0,core2005pf_ver1,PC,O,AR,A,IN,,A6A,A
24693,237179844,2006,200601,200632.0,29491210025156.0,,N,Y,0.0,1.0,2005,3.0,3.0,1.0,3,602.0,3026,623,0,0,0,0,0,3550,3649,3716,-67,3550,623,623,98306,0,0,0,0,0,98306,0,4917,N,N,N,N,N,N,N,N,N,N,N,N,N,N,N,N,N,N,N,0,0,623,623,166,0,0,0,0,0,0,0,0,98306,12,0,0,0,0,0,0,0,0,12,98339,0,0,0,0,0,0,0,0,0,0,0,0,0,0,0,0,0,0,0,0,0,0,0,0,0,0,0,0,0,0,0,0,0,0,0,0,0,0,0,0,0,12,0,11234.0,RANDI PRESS FOUNDATION,,2284 FLATBUSH AVE,BROOKLYN,NY,11234-4518,0.0,3.0,1.0,197302.0,1.0,4.0,602.0,0.0,0.0,1.0,11.0,0.0,1.0,1,,,,A33,,A,A,A,AR,AR,AR,IN,,PF,O,AR,A,0.727975,36047.0,5602.0,5600.0,core2005pf_ver1,PC,O,AR,A,IN,,A33,A
24914,237292189,2005,200512,200632.0,29491210022226.0,,N,Y,0.0,1.0,2005,3.0,4.0,4.0,3,119.0,0,444,1002,8351,0,0,0,102775,9797,105096,-95299,102775,7476,0,128567,0,65942,0,65942,0,100716,0,6682,N,Y,N,N,N,N,N,N,N,N,N,N,N,N,N,N,N,N,N,0,0,9797,0,2321,2321,0,2321,0,0,0,45000,0,128567,75,0,0,0,0,0,0,0,0,75,135671,6607,0,0,0,0,0,0,0,0,0,0,0,0,0,0,0,0,0,0,0,0,0,0,0,0,0,0,0,0,0,0,0,0,0,0,0,0,0,0,0,0,75,0,10016.0,INSTITUTE OF CHINESE PERFORMING ARTS INC,THOMAS SHIAH,600 THIRD AVE 22ND FLR,NEW YORK,NY,10016-1915,0.0,3.0,3.0,197312.0,1.0,4.0,119.0,0.0,0.0,1.0,13.0,0.0,1.0,12,,,,A60,,A,A,A,AR,AR,AR,IN,,PF,O,AR,A,0.575862,36061.0,5602.0,5600.0,core2005pf_ver1,PC,O,AR,A,IN,,A60,A
24920,237296158,2005,200512,200649.0,29491329013166.0,,N,Y,0.0,1.0,2005,3.0,7.0,7.0,3,602.0,0,237716,145550,182544,0,19182,0,860000,584992,950986,-365994,868908,485389,0,7339631,0,1743738,3066150,4809888,0,7415895,0,376453,N,N,N,N,N,N,N,N,N,N,N,N,N,N,N,N,N,N,N,0,0,560560,0,90986,75171,8908,75171,0,0,0,1674953,0,7339631,9708,0,0,3000,0,15600,0,0,89,9708,7643714,366745,0,0,0,0,0,0,0,0,0,0,0,0,0,0,0,0,0,0,0,0,0,0,0,0,0,0,0,0,0,0,0,0,0,0,0,0,0,0,0,0,-8892,8803,10178.0,THE LUTECE FOUNDATION INC,KELLY DRYE WARREN CLARK CARR & EL,101 PARK AVENUE,NEW YORK,NY,10178-0002,0.0,3.0,1.0,197212.0,1.0,4.0,602.0,0.0,0.0,1.0,13.0,0.0,1.0,12,,,,A11,,A,A,A,AR,AR,AR,IN,,PF,S,ZA,A,0.9385889999999999,36061.0,5602.0,5600.0,core2005pf_ver1,PC,S,ZA,A,IN,,A11,A
25070,237361022,2005,200509,200625.0,29491147105176.0,,N,Y,0.0,1.0,2004,3.0,7.0,4.0,3,60.0,3000,0,114400,0,9364,81661,4347,0,361902,579124,-217222,338904,302242,267877,6837015,0,3624454,412418,4036872,59770,6963199,0,352027,N,N,N,N,N,N,N,N,N,N,N,N,N,N,N,N,N,N,N,153477,1149,529708,267877,579124,227466,338904,227466,0,17473,163806,347850,0,6777245,6045,0,0,6000,0,3000,0,45,2910,6045,7147752,0,0,0,0,0,0,0,0,0,0,0,0,0,0,0,0,0,0,0,0,0,0,0,0,0,0,0,0,0,0,0,0,0,0,0,0,0,0,0,0,0,-2910,0,10024.0,NEUSTADT MUSEUM OF TIFFANY ART,,2166 BROADWAY 23C,NEW YORK,NY,10024-6673,0.0,3.0,2.0,197404.0,1.0,4.0,60.0,0.0,0.0,1.0,13.0,0.0,1.0,9,,,,A40,,C,A,A,AR,AR,AR,IN,,PF,O,AR,A,0.292238,36061.0,5602.0,5600.0,core2005pf_ver1,PC,O,AR,A,IN,,A40,A
25084,237365629,2005,200508,200607.0,29491028000086.0,,N,Y,0.0,1.0,2004,3.0,5.0,4.0,3,64.0,0,1567,17895,-2030,0,0,0,56000,17432,59965,-42533,56000,14831,0,780559,0,0,0,0,0,975153,43649,46144,N,Y,N,N,N,N,N,N,N,N,N,N,N,N,N,N,N,N,N,0,0,18796,0,3965,3965,0,3965,0,0,0,678854,0,780559,148,0,0,266,0,0,0,0,118,148,936941,45996,0,0,0,0,0,0,0,0,0,0,0,0,0,0,0,0,0,0,0,0,0,0,0,0,0,0,0,0,0,0,0,0,0,0,0,0,0,0,0,0,-118,0,10001.0,WORLD GRATITUDE DAY INC,,132 W 31ST ST,NEW YORK,NY,10001-3406,0.0,3.0,1.0,197404.0,1.0,4.0,64.0,119.0,149.0,1.0,13.0,0.0,1.0,8,,,,A84,,C,A,A,AR,AR,AR,IN,,PF,O,AR,A,0.699896,36061.0,5602.0,5600.0,core2005pf_ver1,PC,O,AR,A,IN,,Q99,Q
25085,237365710,2005,200512,200629.0,29491126055206.0,,N,Y,0.0,1.0,2005,3.0,1.0,1.0,3,119.0,0,0,0,0,0,0,0,0,1,0,1,0,0,0,1,0,0,0,0,0,1,0,0,N,N,N,N,N,N,N,N,N,N,N,N,N,N,N,N,N,N,N,0,0,0,0,0,0,0,0,0,0,0,0,0,0,0,0,0,0,0,0,0,0,0,0,0,0,0,0,0,0,0,0,0,0,0,0,0,0,0,0,0,0,0,0,0,0,0,0,0,0,0,0,0,0,0,0,0,0,0,0,0,0,0,0,0,0,0,0,10023.0,ION NICOLA THEATRE FOUNDATION INC,,342 W 71ST ST,NEW YORK,NY,10023-3556,0.0,3.0,2.0,197405.0,1.0,4.0,119.0,0.0,0.0,1.0,13.0,0.0,1.0,12,,,,A65,,B,A,A,AR,AR,AR,IN,,PF,O,AR,A,0.675675,36061.0,5602.0,5600.0,core2005pf_ver1,PC,O,AR,A,IN,,A65,A
25127,237381454,2005,200509,200619.0,29491112049086.0,,N,Y,0.0,1.0,2004,3.0,1.0,1.0,3,90.0,0,0,0,0,0,0,0,0,1,0,1,0,0,0,1,0,0,0,0,0,1,0,0,N,N,N,N,N,N,N,N,N,N,N,N,N,N,N,N,N,N,N,0,0,0,0,0,0,0,0,0,0,0,0,0,0,0,0,0,0,0,0,0,0,0,0,0,0,0,0,0,0,0,0,0,0,0,0,0,0,0,0,0,0,0,0,0,0,0,0,0,0,0,0,0,0,0,0,0,0,0,0,0,0,0,0,0,0,0,0,10108.0,PHILHARMONIA EREDE INC,,BOX 346,NEW YORK,NY,10108-0346,0.0,3.0,2.0,197411.0,1.0,4.0,90.0,0.0,0.0,1.0,13.0,0.0,1.0,9,,,,A69,,A,A,A,AR,AR,AR,IN,,PF,O,AR,A,0.918364,36061.0,5602.0,5600.0,core2005pf_ver1,PC,O,AR,A,IN,,A69,A
25197,237412320,2005,200512,200634.0,29491154067206.0,,N,Y,0.0,1.0,2005,3.0,2.0,1.0,3,994.0,0,86,0,0,0,0,0,1860,86,2257,-2171,1860,86,86,20137,0,0,0,0,0,20137,0,1075,N,N,N,N,N,N,N,N,N,N,N,N,N,N,N,N,N,N,N,0,0,86,86,397,0,0,0,0,20137,0,0,0,20137,2,0,0,0,0,0,0,0,0,2,21829,1073,0,0,0,0,0,0,0,0,0,0,0,0,0,0,0,0,0,0,0,0,0,0,0,0,0,0,0,0,0,0,0,0,0,0,0,0,0,0,0,0,2,0,10019.0,FLARE FOUNDATION FOR THE ARTS INC,,200 CENTRAL PARK S,NEW YORK,NY,10019-1436,0.0,3.0,2.0,197411.0,1.0,4.0,994.0,119.0,64.0,1.0,13.0,0.0,1.0,12,,,,A12,,B,A,A,AR,AR,AR,IN,,PF,S,ZB,A,0.674894,36061.0,5602.0,5600.0,core2005pf_ver1,PC,S,ZB,A,IN,,A12,A
25371,237443020,2005,200512,200650.0,29491329137076.0,,N,Y,0.0,1.0,2005,3.0,1.0,1.0,3,602.0,0,0,0,0,0,0,0,0,1,0,1,0,0,0,1,0,0,0,0,0,1,0,0,N,N,N,N,N,N,N,N,N,N,N,N,N,N,N,N,N,N,N,0,0,0,0,0,0,0,0,0,0,0,0,0,0,0,0,0,3328,0,0,0,0,3328,0,0,0,0,0,0,0,0,0,0,0,0,0,0,0,0,0,0,0,0,0,0,0,0,0,0,0,0,0,0,0,0,0,0,0,0,0,0,0,0,0,0,0,-3328,0,10023.0,ABC BROADCASTING FOUNDATION INC,,77 W 66TH ST 6TH FL,NEW YORK,NY,10023-6201,0.0,3.0,1.0,197504.0,1.0,4.0,602.0,0.0,0.0,1.0,13.0,0.0,1.0,12,,,,A30,,A,A,A,AR,AR,AR,IN,,PF,O,AR,A,0.833239,36061.0,5602.0,5600.0,core2005pf_ver1,PC,O,AR,A,IN,,A30,A
27436,300021188,2005,200512,200651.0,29491336225226.0,A12,N,Y,0.0,1.0,2005,3.0,4.0,3.0,3,0.0,26288,0,3178,0,0,0,0,21918,29466,25671,3795,21918,3178,0,119253,0,89540,0,89540,0,120614,0,5853,N,Y,N,N,N,N,N,N,N,N,N,N,N,N,N,N,N,N,N,0,0,3178,0,3753,0,0,0,0,29713,0,0,0,119253,32,0,0,0,0,0,0,0,0,32,118848,5821,0,0,0,0,0,0,0,0,0,0,0,0,0,0,0,0,0,0,0,0,0,0,0,0,0,0,0,0,0,0,0,0,0,0,0,0,0,0,0,0,32,0,10011.0,JOEL FAN FOUNDATION,JOEL FAN,200 W 15TH ST,NEW YORK,NY,10011-6539,0.0,3.0,1.0,200305.0,1.0,4.0,0.0,0.0,0.0,1.0,13.0,0.0,1.0,12,,,,A12,,B,A,A,AR,AR,AR,IN,,PF,S,ZB,A,0.7607619999999999,36061.0,5602.0,5600.0,core2005pf_ver1,PC,S,ZB,A,IN,,A12,A
29049,311599286,2005,200510,200607.0,29491014037046.0,A51,N,Y,0.0,1.0,2004,2.0,5.0,1.0,3,998.0,0,1,0,0,0,0,0,0,1,10301,-10300,10301,1,1,825562,0,0,0,0,9000,825562,0,4,N,N,N,N,Y,N,N,N,N,N,N,N,N,N,N,N,N,N,N,0,0,1,1,10301,0,10301,0,0,562,0,0,0,816562,0,0,0,0,0,0,0,0,0,0,75,0,1,0,0,0,1,10301,9332,65701,104786,190120,1,0,0,0,1,0,0,0,0,0,0,0,0,0,0,0,0,0,0,0,0,0,0,0,0,0,0,0,0,0,0,0,10013.0,SASSON SOFFER FOUNDATION INC,SASSON SOFFER,78 GRAND ST,NEW YORK,NY,10013-2255,0.0,3.0,1.0,199903.0,1.0,3.0,998.0,0.0,0.0,1.0,13.0,0.0,1.0,10,,,,A51,,B,A,A,AR,AR,AR,IN,,PF,O,AR,A,0.9140780000000001,36061.0,5602.0,5600.0,core2005pf_ver1,PC,O,AR,A,IN,,A51,A
29247,311631167,2005,200512,200641.0,29491259069016.0,A25,N,Y,0.0,1.0,2005,3.0,5.0,2.0,3,0.0,0,272,0,11000,0,0,0,27000,11272,38193,-26921,27100,272,0,612166,0,0,0,0,0,612166,0,2002,N,Y,N,N,N,N,N,N,Y,N,N,N,N,N,N,N,N,N,N,0,0,272,0,11193,0,100,0,0,6427,0,0,0,612166,3,0,0,0,0,0,0,0,0,3,40640,1999,0,0,0,0,0,0,0,0,0,0,0,0,0,0,0,0,0,0,0,0,0,0,0,0,0,0,0,0,0,0,0,0,0,0,0,0,0,0,0,0,3,0,10012.0,REUBEN KADISH ART FOUNDATION,,PO BOX 618,NEW YORK,NY,10012-0012,0.0,3.0,2.0,199902.0,1.0,4.0,0.0,0.0,0.0,1.0,13.0,0.0,1.0,12,,M,,A12,,B,A,A,AR,AR,AR,IN,,PF,S,ZB,A,0.569337,36061.0,5602.0,5600.0,core2005pf_ver1,PC,S,ZB,A,IN,,A12,A
29379,311666637,2005,200512,200619.0,29491112100056.0,A51,N,Y,0.0,20.0,2005,3.0,1.0,1.0,3,0.0,0,0,0,0,0,0,0,0,1,0,1,0,0,0,1,0,0,0,0,0,1,0,0,N,N,N,Y,N,N,N,N,N,N,N,N,N,N,N,N,N,N,N,0,0,0,0,0,0,0,0,0,0,0,0,0,0,0,0,0,0,0,0,0,0,0,0,0,0,0,0,0,0,0,0,0,0,0,0,0,0,0,0,0,0,0,0,0,0,0,0,0,0,0,0,0,0,0,0,0,0,0,0,0,0,0,0,0,0,0,0,10017.0,JADE ART FOUNDATION,MORRIS N& MCVEIGH LLP,767 THRID AVE,NEW YORK,NY,10017-0000,0.0,3.0,1.0,199911.0,1.0,4.0,0.0,0.0,0.0,1.0,13.0,0.0,1.0,12,,,,A12,,B,A,A,AR,AR,AR,IN,,PF,S,ZB,A,0.423778,36061.0,5602.0,5600.0,core2005pf_ver1,PC,S,ZB,A,IN,,A12,A
29514,311693404,2005,200508,200617.0,29491007095006.0,A20,N,Y,0.0,1.0,2004,2.0,1.0,1.0,3,0.0,0,0,0,0,0,0,0,0,1,0,1,0,0,0,1,0,0,0,0,0,1,0,0,N,N,N,N,Y,N,N,N,N,N,N,N,N,N,N,N,N,N,N,0,0,0,0,0,0,0,0,0,0,0,0,0,0,0,0,0,0,0,0,0,0,0,0,0,0,1,0,0,0,1,0,0,0,0,0,0,0,0,0,0,0,0,0,0,0,0,0,0,0,0,0,0,0,0,0,0,0,0,0,0,0,0,0,0,0,0,0,10018.0,PIECE BY PIECE PRODUCTIONS INC,HOLTZ RUBENSTEIN REMINICK LLP,1430 BROADWAY 17TH FL,NEW YORK,NY,10018-3355,0.0,3.0,1.0,200006.0,1.0,3.0,0.0,0.0,0.0,1.0,13.0,0.0,1.0,8,,,,A20,,B,A,A,AR,AR,AR,IN,,PF,O,AR,A,0.380748,36061.0,5602.0,5600.0,core2005pf_ver1,PC,O,AR,A,IN,,A20,A
29670,311735171,2005,200506,200623.0,29491021007056.0,A60,N,Y,0.0,1.0,2004,3.0,4.0,1.0,3,0.0,7000,1099,0,0,0,0,0,17100,8099,18748,-10649,18748,1099,0,175342,0,0,0,0,0,175342,0,8679,N,Y,N,N,N,N,N,N,N,N,N,N,N,N,N,N,N,N,N,0,0,1099,0,1648,0,1648,0,0,0,0,0,0,175342,11,0,0,38,0,0,0,0,27,11,176232,8668,0,0,0,0,0,0,0,0,0,0,0,0,0,0,0,0,0,0,0,0,0,0,0,0,0,0,0,0,0,0,0,0,0,0,0,0,0,0,0,0,-27,0,10022.0,INSTITUTE FOR ACOUSTICS FOR THE PERFORMING ARTS,HERMAN KRAWITZ,333 E 57TH ST STE 4D,NEW YORK,NY,10022-2950,0.0,3.0,2.0,200102.0,1.0,15.0,0.0,0.0,0.0,1.0,13.0,200506.0,10.0,6,,,,A60,,A,A,A,AR,AR,AR,IN,,PC,O,AR,A,0.657288,36061.0,5602.0,5600.0,core2005pf_ver1,PC,O,AR,A,IN,,A60,A
29933,311811031,2005,200504,200608.0,29491323007125.0,A20,N,Y,0.0,1.0,2004,3.0,1.0,1.0,3,0.0,0,0,0,0,0,0,0,0,1,0,1,0,0,0,1,0,0,0,0,0,1,0,0,N,N,N,N,N,N,N,N,N,N,N,N,N,N,N,N,N,N,N,0,0,0,0,0,0,0,0,0,0,0,0,0,0,0,0,0,0,0,0,0,0,0,0,0,0,0,0,0,0,0,0,0,0,0,0,0,0,0,0,0,0,0,0,0,0,0,0,0,0,0,0,0,0,0,0,0,0,0,0,0,0,0,0,0,0,0,0,10016.0,THE GABARRON FOUNDATION INC,THE CARRIAGE HOUSE,149 E 38TH ST,NEW YORK,NY,10016-2604,0.0,3.0,2.0,200205.0,1.0,4.0,0.0,0.0,0.0,1.0,13.0,0.0,1.0,4,,,,A20,,B,A,A,AR,AR,AR,IN,,PF,O,AR,A,0.457262,36061.0,5602.0,5600.0,core2005pf_ver1,PC,O,AR,A,IN,,A20,A
29942,311813545,2005,200512,200638.0,29491252005146.0,T22,N,Y,0.0,1.0,2005,3.0,5.0,6.0,3,0.0,970303,931,20577,21113,0,0,0,22500,1012924,104607,908317,49859,0,0,955171,0,0,0,0,0,995571,0,46140,N,N,N,N,N,N,N,N,N,N,N,N,N,N,N,N,N,N,N,0,0,42621,21603,82107,54748,27359,54748,54748,0,0,0,0,955171,0,0,0,0,0,0,0,0,0,0,936857,46140,0,0,0,0,0,0,0,0,0,0,0,0,0,0,0,0,0,0,0,0,0,0,0,0,0,0,0,0,0,0,0,0,0,0,0,0,0,0,0,0,0,0,10282.0,BEVERLY WILLIS ARCHITECTURE FOUNDATION INC,BEVERLY WILLIS,20 RIVER TER APT 7 M,NEW YORK,NY,10282-1208,0.0,3.0,1.0,200202.0,1.0,4.0,0.0,0.0,0.0,1.0,13.0,0.0,1.0,12,,,,A40,,A,A,A,AR,AR,AR,IN,,PF,O,AR,A,0.9903280000000001,36061.0,5602.0,5600.0,core2005pf_ver1,PC,O,AR,A,IN,,A40,A
29949,311815304,2005,200511,200610.0,29491042039186.0,A65,N,Y,0.0,1.0,2004,3.0,1.0,1.0,3,0.0,1000,0,0,0,0,0,0,0,1000,0,1000,0,0,0,1000,0,0,0,0,0,1000,0,0,N,N,N,N,Y,N,N,N,N,N,N,N,N,N,N,N,N,N,N,0,0,0,0,0,0,0,0,0,1000,0,0,0,1000,0,0,0,0,0,0,0,0,0,0,0,0,0,0,0,0,0,0,0,0,0,0,0,0,0,0,0,0,0,0,0,0,0,0,0,0,0,0,0,0,0,0,0,0,0,0,0,0,0,0,0,0,0,0,10024.0,THE CONSTANT THEATER FOUNDATION INC,ROBERT CAMP,365 WEST END AVE SUITE 7 C,NEW YORK,NY,10024-6560,0.0,3.0,1.0,200207.0,1.0,4.0,0.0,0.0,0.0,1.0,13.0,0.0,1.0,11,,,,A12,65.0,B,A,A,AR,AR,AR,IN,,PF,S,ZB,A,0.9184399999999999,36061.0,5602.0,5600.0,core2005pf_ver1,PC,S,ZB,A,IN,,A1265,A
38594,382415253,2005,200512,200644.0,29491280028076.0,,N,Y,0.0,1.0,2005,2.0,4.0,3.0,3,90.0,0,18178,304,-84,0,0,0,43000,18398,63719,-45321,60212,14982,0,369297,215333,0,112840,328173,0,371634,0,19691,N,N,N,N,Y,N,N,N,N,N,N,N,N,N,N,N,N,N,N,0,0,18482,0,20719,3500,17212,3500,0,20902,0,0,0,369297,0,0,0,0,0,0,0,0,0,0,399814,19691,1,0,0,0,1,0,0,0,0,0,1,0,0,0,1,0,0,0,0,0,0,0,0,0,0,0,0,0,0,0,0,0,0,0,0,0,0,0,0,0,0,0,10013.0,CENTER FOR ALTERNATIVE MEDIA AND CULTURE,C R M MANAGEMENT,PO BOX 778,NEW YORK,NY,10013-0778,0.0,3.0,1.0,198303.0,1.0,2.0,90.0,0.0,0.0,1.0,13.0,0.0,1.0,12,,,,A30,,B,A,A,AR,AR,AR,IN,,PF,O,AR,A,0.135163,36061.0,5602.0,5600.0,core2005pf_ver1,PC,O,AR,A,IN,,A30,A
47189,510201123,2005,200510,200642.0,29491273022156.0,,N,Y,0.0,1.0,2004,3.0,6.0,5.0,3,119.0,0,0,42564,36909,0,1875,0,5000,81348,113604,-32256,78776,46267,0,1639468,220500,1098294,26552,1345346,16000,1639468,0,87132,N,N,N,N,N,N,N,N,Y,N,N,N,N,N,N,N,N,N,N,0,0,79473,0,108604,33206,73776,33206,0,0,0,0,0,1623468,925,0,0,5514,0,0,0,0,4589,925,1769170,88082,0,0,0,0,0,0,0,0,0,0,0,0,0,0,0,0,0,0,0,0,0,0,0,0,0,0,0,0,0,0,0,0,0,0,0,0,0,0,0,0,-4589,0,10004.0,HEATHCOTE ART FOUNDATION INC,CONDON O MEARA MCGINTY & DONNELLY,3 NEW YORK PLAZA,NEW YORK,NY,10004-2442,0.0,3.0,1.0,196701.0,1.0,4.0,119.0,0.0,0.0,1.0,13.0,0.0,1.0,10,,,,A12,,B,A,A,AR,AR,AR,IN,,PF,S,ZB,A,0.565738,36061.0,5602.0,5600.0,core2005pf_ver1,PC,S,ZB,A,IN,,A12,A
47251,510243710,2005,200512,200650.0,29491322044056.0,A31,N,Y,0.0,1.0,2005,3.0,1.0,2.0,3,88.0,17350,0,0,0,0,0,0,0,17350,927,16423,927,0,0,282,0,0,0,0,0,282,0,19,N,N,N,N,N,N,N,N,N,N,N,N,N,N,N,N,N,N,N,0,0,0,0,927,0,927,0,0,282,0,0,0,282,0,0,0,0,0,0,0,0,0,0,385,19,0,0,0,0,0,0,0,0,0,0,0,0,0,0,0,0,0,0,0,0,0,0,0,0,0,0,0,0,0,0,0,0,0,0,0,0,0,0,0,0,0,0,10014.0,REALIZATIONS PRODUCTIONS INC,PORTZ,338 W 11TH ST APT 5D,NEW YORK,NY,10014-2377,0.0,3.0,2.0,197504.0,1.0,4.0,88.0,90.0,0.0,1.0,13.0,0.0,1.0,12,,,,A31,,B,A,A,AR,AR,AR,IN,,PF,O,AR,A,0.34175,36061.0,5602.0,5600.0,core2005pf_ver1,PC,O,AR,A,IN,,A31,A
47269,510254205,2005,200512,200641.0,29491259116086.0,,N,Y,0.0,1.0,2005,3.0,3.0,4.0,3,602.0,109105,2418,0,0,0,48,0,374000,111571,393333,-281762,0,2418,0,93907,0,0,0,0,0,93907,0,12585,N,Y,N,N,N,N,N,N,N,N,N,N,N,N,N,N,N,N,N,0,0,2418,0,0,0,0,0,0,0,0,0,0,93907,0,0,0,0,0,0,0,0,0,0,255542,12585,0,0,0,0,0,0,0,0,0,0,0,0,0,0,0,0,0,0,0,0,0,0,0,0,0,0,0,0,0,0,0,0,0,0,0,0,0,0,0,0,0,0,10021.0,THE MUSEUM OF SCOTLAND AND HERITAGE TRUST FOUNDATION,SLOANE & HINSHAW INC,67A 77 ST,NEW YORK,NY,10021-1813,0.0,3.0,1.0,198012.0,1.0,4.0,602.0,0.0,0.0,1.0,13.0,0.0,1.0,12,,,,A50,,A,A,A,AR,AR,AR,IN,,PF,O,AR,A,0.1689,36061.0,5602.0,5600.0,core2005pf_ver1,PC,O,AR,A,IN,,A50,A
47445,510486845,2005,200512,200613.0,29491070018126.0,A33,N,Y,0.0,1.0,2005,2.0,1.0,0.0,3,0.0,0,0,0,0,0,0,0,0,0,0,0,0,0,0,1,0,0,0,0,0,1,0,0,N,N,N,N,N,N,N,N,N,N,N,N,N,N,N,N,N,N,N,0,0,0,0,0,0,0,0,0,0,0,0,0,0,0,0,0,0,0,0,0,0,0,0,0,0,1,0,0,0,1,0,0,0,0,0,0,0,0,0,0,0,0,0,0,0,0,0,0,0,0,0,0,0,0,0,0,0,0,0,0,0,0,0,0,0,0,0,11214.0,ASSOCIATION OF YOUNG JOURNALISTS INC,VALENTIN SAZHIN,7603 NEW UTRECHT AVE,BROOKLYN,NY,11214-1021,0.0,3.0,1.0,200405.0,1.0,3.0,0.0,0.0,0.0,1.0,11.0,0.0,1.0,12,,,,A33,,B,A,A,AR,AR,AR,IN,,PF,O,AR,A,0.288011,36047.0,5602.0,5600.0,core2005pf_ver1,PC,O,AR,A,IN,,A33,A
49030,522262698,2005,200510,200644.0,29491273071036.0,A20,N,Y,0.0,1.0,2004,2.0,1.0,1.0,3,0.0,3000,738,0,0,0,0,15000,0,3738,346423,-342685,346423,738,738,430,0,0,0,0,0,430,0,11945,N,N,N,N,Y,N,N,N,Y,N,N,N,N,N,N,N,N,N,N,0,0,738,738,346423,0,346423,0,0,0,0,0,0,430,15,0,0,0,0,0,0,0,0,15,242531,0,738,0,0,0,738,346423,0,0,0,346423,1,0,0,0,1,0,0,0,0,0,0,0,0,0,0,0,0,0,0,0,0,0,0,0,0,0,0,0,0,0,15,0,10014.0,INSTITUTE FOR CULTURAL ENTERPRISE INC,MECCAD,302 A W 12TH ST 120,NEW YORK,NY,10014-0000,0.0,3.0,1.0,200304.0,1.0,15.0,0.0,0.0,0.0,1.0,13.0,200410.0,10.0,10,,,,A23,,B,A,A,AR,AR,AR,IN,,PC,O,AR,A,0.101811,36061.0,5602.0,5600.0,core2005pf_ver1,PC,O,AR,A,IN,,A23,A
49695,527059395,2006,200606,200650.0,29491329163246.0,T22,N,Y,0.0,1.0,2005,3.0,6.0,6.0,3,0.0,0,4081,45044,259793,0,72289,0,206500,381207,239631,141576,208129,354199,0,3195420,0,1821524,0,1821524,0,3739041,0,186716,N,Y,N,N,N,N,N,N,N,N,N,N,Y,N,N,N,N,N,N,0,0,381207,0,33131,27008,1629,27008,0,0,0,1104836,0,3195420,3542,0,0,6000,0,0,0,0,2458,3542,3791185,183174,0,0,0,0,0,0,0,0,0,0,0,0,0,0,0,0,0,0,0,0,0,0,0,0,0,0,0,0,0,0,0,0,0,0,0,0,0,0,0,0,-2458,0,10128.0,INDIAN POINT FOUNDATION,CLEMENT C MOORE II,1095 PARK AVE,NEW YORK,NY,10128-1154,0.0,3.0,1.0,200008.0,1.0,4.0,0.0,0.0,0.0,2.0,13.0,0.0,1.0,6,MOORE CLEMENT C II TTEE,,,A23,,B,A,A,AR,AR,AR,IN,,PF,O,AR,A,0.320103,36061.0,5602.0,5600.0,core2005pf_ver1,PC,O,AR,A,IN,,T22,T
51271,550841750,2005,200512,200617.0,29491098058026.0,A40,N,Y,0.0,1.0,2005,3.0,3.0,2.0,3,0.0,20100,308,0,0,0,0,0,5000,20408,5360,15048,5315,265,0,27935,0,0,0,0,0,27935,0,806,N,N,N,N,N,N,N,N,N,N,N,N,N,N,N,N,N,N,N,0,0,308,0,360,43,315,43,0,27935,0,0,0,27935,5,0,0,0,0,0,0,0,0,5,16361,801,0,0,0,0,0,0,0,0,0,0,0,0,0,0,0,0,0,0,0,0,0,0,0,0,0,0,0,0,0,0,0,0,0,0,0,0,0,0,0,0,5,0,10010.0,BRIGITTE AND WILLIAM CROVELLO FOUNDATION INC,BRIGITTE CROVELLO,29 E 22ND ST,NEW YORK,NY,10010-5303,0.0,3.0,1.0,200402.0,1.0,4.0,0.0,0.0,0.0,1.0,13.0,0.0,1.0,12,,M,,A40,,B,A,A,AR,AR,AR,IN,,PF,O,AR,A,0.9676819999999999,36061.0,5602.0,5600.0,core2005pf_ver1,PC,O,AR,A,IN,,A40,A
53036,576215647,2005,200512,200650.0,29491329249056.0,A20,N,Y,0.0,1.0,2005,2.0,6.0,6.0,3,0.0,1178700,9399,16082,44052,0,0,80000,33100,1248233,275943,972290,260376,22166,13534,3943797,114493,350002,354872,819367,0,3955129,0,37495,N,Y,N,N,Y,N,N,N,N,N,N,N,N,N,N,N,N,N,N,0,0,37733,29101,242843,15567,227276,15567,15567,0,0,31578,0,3943797,222,0,0,0,0,1500,0,0,1278,222,761314,0,13534,0,0,0,13534,260376,0,0,0,260376,0,3006120,0,0,3006120,0,3006120,0,0,3006120,24997,0,0,0,24997,0,0,0,0,0,0,0,0,0,0,0,0,0,0,0,-1278,0,10020.0,EMILIO SANCHEZ FOUNDATION,,10 ROCKEFELLER PLAZA STE 919,NEW YORK,NY,10020-1903,0.0,3.0,2.0,200504.0,1.0,3.0,0.0,0.0,0.0,2.0,13.0,0.0,1.0,12,STAPPER ERIC TTEE,M,,A20,,B,A,A,AR,AR,AR,IN,,PF,O,AR,A,0.128104,36061.0,5602.0,5600.0,core2005pf_ver1,PC,O,AR,A,IN,,A20,A
62399,742798673,2005,200506,200626.0,29491161364136.0,A20Z,N,Y,0.0,1.0,2004,2.0,9.0,6.0,3,60.0,131125,1415,0,3825000,0,128097,0,0,4085637,913285,3172352,840230,415,0,211848305,0,0,0,0,48700,211848305,0,118641,N,N,N,N,Y,N,N,N,Y,N,N,N,N,N,N,N,N,N,N,0,0,1415,129512,913285,1000,840230,1000,134455,0,0,0,0,211799605,8,0,0,0,0,0,0,0,0,8,2408959,0,0,19402,0,0,19402,912485,573004,391995,129710,2007194,211848305,202134049,61775387,61696350,537454091,208336420,201574355,61402527,61449634,532762936,0,0,0,0,0,0,0,0,0,0,0,0,0,0,0,0,0,0,0,0,8,0,10017.0,JUDD FOUNDATION,LUTZ AND CARR CPAS LLP,300 E 42ND ST 8TH FLR,NEW YORK,NY,10017-5947,0.0,3.0,2.0,199702.0,1.0,3.0,60.0,91.0,0.0,1.0,13.0,0.0,1.0,6,,M,,A20,,B,A,A,AR,AR,AR,IN,,PF,O,AR,A,0.256738,36061.0,5602.0,5600.0,core2005pf_ver1,PC,O,AR,A,IN,,A20,A
70674,911898350,2004,200412,200613.0,29491070018116.0,T99Z,N,Y,0.0,1.0,2004,2.0,8.0,6.0,3,124.0,0,3682,420873,-149684,0,0,272098,0,274871,1188517,-913646,1151680,424555,0,21153412,7741193,0,0,7741193,2284858,32293205,0,437098,N,N,N,N,Y,N,N,N,N,N,N,N,N,N,N,N,N,N,N,0,0,424555,0,1188517,0,1151680,0,0,482098,0,0,0,18868554,8491,0,0,8640,0,0,0,166,0,8491,8875078,0,0,0,0,0,0,1151680,1105222,918758,671053,3846713,0,0,0,0,0,0,0,0,0,0,291399,269615,291243,268903,1121160,0,0,0,0,0,0,0,0,0,0,0,0,0,0,0,17,0,10014.0,ROY LICHTENSTEIN FOUNDATION,DOROTHY LICHTENSTEIN,745 WASHINGTON STREET,NEW YORK,NY,10014-2042,0.0,3.0,1.0,199809.0,1.0,3.0,124.0,0.0,0.0,1.0,13.0,0.0,1.0,12,,M,,T23,,C,A,A,AR,AR,AR,IN,,PF,O,ZC,A,0.9391959999999999,36061.0,5602.0,5600.0,core2005pf_ver1,PC,O,AR,A,IN,,T23,T
73363,943312578,2005,200512,200651.0,29491336103026.0,B3,N,Y,0.0,1.0,2005,3.0,1.0,0.0,3,0.0,0,0,0,0,0,0,0,0,0,1195,-1195,869,0,0,8536,0,0,0,0,560,8536,0,450,N,N,N,N,N,N,N,N,N,N,N,N,N,N,N,N,N,N,N,0,0,0,0,1195,0,869,0,0,7481,0,0,0,7976,0,0,0,0,0,0,0,0,0,0,9134,450,0,0,0,0,0,0,0,0,0,0,0,0,0,0,0,0,0,0,0,0,0,0,0,0,0,0,0,0,0,0,0,0,0,0,0,0,0,0,0,0,0,0,10023.0,RAINBOLT HAMPTON ARTS,SHAYNEE RAINBOLT,201 W 72ND ST APT 11E,NEW YORK,NY,10023-2767,0.0,3.0,1.0,199907.0,1.0,4.0,0.0,0.0,0.0,1.0,13.0,0.0,1.0,12,,,,A6B,,A,A,A,AR,AR,AR,IN,,PF,O,AR,A,0.33098,36061.0,5602.0,5600.0,core2005pf_ver1,PC,O,AR,A,IN,,A6B,A
73702,943422213,2004,200412,200605.0,29491007003066.0,A126,N,Y,0.0,1.0,2004,3.0,4.0,3.0,3,0.0,80172,0,0,0,0,9000,0,5000,89172,63721,25451,5000,0,0,110790,0,0,0,0,0,110790,0,4830,N,N,N,N,N,N,N,N,N,N,N,N,N,N,N,N,N,N,N,0,0,0,0,58721,0,0,0,0,110790,0,0,0,110790,0,0,0,0,0,0,0,0,0,0,98065,4830,0,0,0,0,0,0,0,0,0,0,0,0,0,0,0,0,0,0,0,0,0,0,0,0,0,0,0,0,0,0,0,0,0,0,0,0,0,0,0,0,0,0,10017.0,JUSTIN TIMBERLAKE FOUNDATION INC,LORING WARD,280 PARK AVENUE 5TH FLOOR,NEW YORK,NY,10017-1216,0.0,3.0,1.0,200207.0,1.0,4.0,0.0,0.0,0.0,1.0,13.0,0.0,1.0,12,,,,A12,,B,A,A,AR,AR,AR,IN,,PF,S,ZB,A,0.21421500000000002,36061.0,5602.0,5600.0,core2005pf_ver1,PC,S,ZB,A,IN,,A12,A
74968,954429922,2006,200606,200638.0,29491238011126.0,,N,Y,0.0,1.0,2005,3.0,4.0,4.0,3,995.0,395687,226,0,0,0,0,0,0,395913,189445,206468,0,226,0,299459,0,0,0,0,0,299459,2,0,N,N,N,N,N,N,N,N,N,N,N,N,N,N,N,N,N,N,N,0,0,226,0,189445,0,0,0,0,285665,0,0,0,299459,2,0,0,0,0,0,0,0,0,2,0,-2,0,0,0,0,0,0,0,0,0,0,0,0,0,0,0,0,0,0,0,0,0,0,0,0,0,0,0,0,0,0,0,0,0,0,0,0,0,0,0,0,2,0,10018.0,NATIONAL ASSOCIATION OF MINORITIES IN COMMUNICATIONS FOUNDATION,,336 W 37TH ST STE 302,NEW YORK,NY,10018-4687,0.0,3.0,1.0,199706.0,1.0,4.0,995.0,123.0,0.0,1.0,13.0,0.0,1.0,6,,,,A30,,A,A,A,AR,AR,AR,IN,,PF,O,AR,A,0.0751161,36061.0,5602.0,5600.0,core2005pf_ver1,PC,O,AR,A,IN,,A30,A
75689,954756527,2006,200606,200650.0,29491336066126.0,B99,N,Y,0.0,1.0,2005,3.0,1.0,1.0,3,0.0,3388,0,0,0,0,0,0,0,3388,350,3038,0,0,0,3038,0,0,0,0,0,1,0,0,N,N,N,N,N,N,N,N,N,N,N,N,N,N,N,N,N,N,N,0,0,0,0,350,0,0,0,0,3038,0,0,0,3038,0,0,0,0,0,0,0,0,0,0,0,0,0,0,0,0,0,0,0,0,0,0,0,0,0,0,0,0,0,0,0,0,0,0,0,0,0,0,0,0,0,0,0,0,0,0,0,0,0,0,0,0,0,0,10022.0,EAST WEST ACADEMIC BUSINESS & CULTURAL COUNCIL,LAURA HUNG,303 E 60TH ST APT 21G,NEW YORK,NY,10022-1523,0.0,3.0,1.0,200003.0,1.0,4.0,0.0,0.0,0.0,1.0,13.0,0.0,1.0,6,EWABC,,,A26,,A,A,A,AR,AR,AR,IN,,PF,O,AR,A,0.831468,36061.0,5602.0,5600.0,core2005pf_ver1,PC,O,AR,A,IN,,A26,A
76571,986000319,2005,200508,200610.0,29491042015056.0,T20,N,Y,0.0,1.0,2004,3.0,8.0,7.0,3,349.0,0,50,441764,1236461,0,119302,0,638950,1797577,1000366,797211,629640,1679050,0,19922890,3918960,13355340,1018789,18293089,291399,19922890,610935,961642,N,N,N,N,N,N,N,N,N,N,N,N,N,N,N,N,Y,Y,N,0,0,1782631,0,361416,103581,218690,103581,0,207305,0,1246706,0,19631491,33581,0,0,23093,0,0,0,0,0,33581,19525727,942301,0,0,0,0,0,0,0,0,0,0,0,0,0,0,0,0,0,0,0,0,0,0,0,0,0,0,0,0,0,0,0,0,0,0,0,0,0,0,0,0,10488,0,10008.0,AMERICAN CENTER FOUNDATION,FREDERICK B HENRY,PO BOX 765 CHURCH ST STATION,NEW YORK,NY,10008-0765,0.0,3.0,1.0,196402.0,1.0,4.0,349.0,59.0,119.0,1.0,13.0,0.0,1.0,8,,,,A25,,B,A,A,AR,AR,AR,IN,,PF,O,AR,A,0.42901000000000006,36061.0,5602.0,5600.0,core2005pf_ver1,PC,O,AR,A,IN,,A25,A
80074,743105711,2005,200512,200703.0,29491217065216.0,A60,N,N,0.0,1.0,2005,2.0,3.0,4.0,3,0.0,199164,0,0,0,0,418,0,0,199582,187012,12570,187012,0,0,33472,0,0,0,0,14499,1,0,0,N,N,N,N,Y,N,N,N,N,N,N,N,N,N,N,N,N,N,N,0,0,0,0,187012,0,187012,0,0,13222,0,0,0,18973,0,0,0,0,0,0,0,0,0,0,0,0,1,0,0,0,1,187012,0,0,0,187012,1,0,0,0,1,0,0,0,0,0,0,0,0,0,0,0,0,0,0,0,0,0,0,0,0,0,0,0,0,0,0,0,10018.0,TONALMOTION INC,MICHAEL SCHUMACHER,1026 6 AVE 2S,NEW YORK,NY,10018-5492,0.0,3.0,2.0,200409.0,1.0,3.0,0.0,0.0,0.0,1.0,1.0,0.0,1.0,12,,,,A60,,B,A,A,AR,AR,AR,IN,,PF,O,AR,A,0.687593,36061.0,5602.0,5600.0,rtf2006pf,PC,O,AR,A,IN,,A60,A
80531,621744668,2006,200606,200723.0,29491125087117.0,,N,N,0.0,1.0,2005,3.0,1.0,1.0,3,0.0,0,0,0,0,0,0,0,0,1,0,1,0,0,0,2400,0,0,0,0,0,2400,0,0,N,N,N,N,N,N,N,N,N,N,N,N,N,N,N,N,N,N,N,0,0,0,0,0,0,0,0,0,300,2400,0,0,2400,0,0,0,0,0,0,0,0,0,0,0,0,0,0,0,0,0,0,0,0,0,0,0,0,0,0,0,0,0,0,0,0,0,0,0,0,0,0,0,0,0,0,0,0,0,0,0,0,0,0,0,0,0,0,10029.0,MOUND BOTTOM PRESS,JASON D HOLTON,179 E 105TH ST APT 5E,NEW YORK,NY,10029-4976,0.0,3.0,1.0,199903.0,1.0,4.0,0.0,0.0,0.0,1.0,1.0,0.0,1.0,6,,,,A33,,A,A,A,AR,AR,AR,IN,,PF,O,AR,A,0.363942,36061.0,5602.0,5600.0,rtf2006pf,PC,O,AR,A,IN,,A33,A
80981,550807934,2005,200512,200705.0,29491013095197.0,T20,N,N,0.0,1.0,2005,3.0,4.0,4.0,3,0.0,165000,4643,0,0,0,0,0,13500,169643,13654,155989,13500,4643,4643,258794,0,0,0,0,0,258794,0,10562,N,N,N,N,N,N,N,N,N,N,N,N,N,N,N,N,N,N,N,0,0,4643,4643,154,0,0,0,0,8425,0,0,0,258794,93,0,0,0,0,0,0,0,0,93,214450,10469,0,0,0,0,0,0,0,0,0,0,0,0,0,0,0,0,0,0,0,0,0,0,0,0,0,0,0,0,0,0,0,0,0,0,0,0,0,0,0,0,93,0,11360.0,JOAN N BLUESTONE FOUNDATION INC,JOAN N BLUESTONE,PO BOX 4523,BAYSIDE,NY,11360-4523,0.0,3.0,1.0,200303.0,1.0,4.0,0.0,0.0,0.0,1.0,1.0,0.0,1.0,12,,,,A68,,A,A,A,AR,AR,AR,IN,,PF,O,AR,A,0.271353,36081.0,5602.0,5600.0,rtf2006pf,PC,O,AR,A,IN,,A68,A
81160,522230609,2006,200606,200728.0,29491055016227.0,A310,N,Y,0.0,1.0,2005,3.0,6.0,3.0,3,0.0,93495,0,0,0,0,0,103000,0,93495,339373,-245878,28514,0,0,3529134,0,0,0,0,4403564,3529134,0,0,N,N,N,N,Y,N,N,N,N,N,N,N,N,N,N,N,N,N,N,0,0,0,0,339373,0,28514,0,0,10,0,0,550000,-874430,0,0,0,0,0,0,0,0,0,0,100,0,0,0,0,0,0,0,0,0,0,0,0,0,0,0,0,0,0,0,0,0,0,0,0,0,0,0,0,0,0,0,0,0,0,0,0,0,0,0,0,0,0,0,10019.0,ILLUME PRODUCTIONS INC,,58 W 58TH ST APT 33A,NEW YORK,NY,10019-2511,0.0,3.0,1.0,200008.0,1.0,4.0,0.0,0.0,0.0,1.0,1.0,0.0,1.0,6,,,,A31,,A,A,A,AR,AR,AR,IN,,PF,O,AR,A,0.396598,36061.0,5602.0,5600.0,rtf2006pf,PC,O,AR,A,IN,,A31,A
81576,412118617,2006,200606,200735.0,29491230019127.0,A70,N,Y,0.0,1.0,2005,2.0,1.0,1.0,3,0.0,0,3,0,0,0,0,0,0,3,0,3,0,3,3,444,0,0,0,0,0,444,0,0,N,N,N,N,Y,N,N,N,N,N,N,N,N,N,N,N,N,N,N,0,0,3,3,0,0,0,0,0,444,0,0,0,444,0,0,0,0,0,0,0,0,0,0,441,0,3,0,0,0,3,0,0,0,0,0,444,0,0,0,444,0,0,0,0,0,0,0,0,0,0,0,0,0,0,0,0,0,0,0,0,0,0,0,0,0,0,0,11373.0,ELMHURST MEMORIAL REMEMBRANCE INC,THOMAS MCKENZIE,8036 CORNISH AVE,ELMHURST,NY,11373-3729,0.0,3.0,2.0,200405.0,1.0,3.0,0.0,0.0,0.0,1.0,1.0,0.0,1.0,6,,,,A70,,B,A,A,AR,AR,AR,IN,,PF,O,AR,A,0.0193397,36081.0,5602.0,5600.0,rtf2006pf,PC,O,AR,A,IN,,A70,A
82293,316654721,2005,200512,200723.0,29491139047237.0,A23,N,N,0.0,1.0,2005,3.0,3.0,2.0,3,0.0,13229,762,0,0,0,0,0,0,13991,19936,-5945,19936,762,762,29086,0,0,0,0,0,29086,0,1534,N,Y,N,N,Y,N,N,N,N,N,N,N,N,N,N,N,N,N,N,0,0,762,762,19936,0,19936,0,0,664,0,0,0,29086,8,0,0,0,0,0,0,0,0,8,31149,0,0,0,0,0,0,0,0,0,0,0,0,0,0,0,0,0,0,0,0,0,0,0,0,0,0,0,0,0,0,0,0,0,0,0,0,0,0,0,0,0,8,0,10018.0,LONG MARCH FOUNDATION,ZORFAS & KAFESJIAN CPAS PC,29 W 38TH ST STE 601,NEW YORK,NY,10018-5504,0.0,3.0,1.0,200105.0,1.0,4.0,0.0,0.0,0.0,2.0,1.0,0.0,1.0,12,,,,A23,,B,A,A,AR,AR,AR,IN,,PF,O,AR,A,0.06322230000000001,36061.0,5602.0,5600.0,rtf2006pf,PC,O,AR,A,IN,,A23,A
82408,311584853,2005,200512,200719.0,29491252133226.0,A82Z,N,N,0.0,1.0,2005,2.0,4.0,1.0,3,62.0,0,167,0,0,0,0,0,0,167,32188,-32021,0,0,0,478145,0,0,0,0,644598,478145,0,0,N,Y,N,N,Y,N,N,N,N,N,N,N,N,N,N,N,N,N,N,0,0,0,0,32188,0,0,32188,32188,0,0,0,400000,-166453,0,0,0,0,0,0,0,0,0,0,0,0,1,0,0,0,1,0,0,0,0,0,1,0,0,0,0,0,0,0,0,0,0,0,0,0,0,0,0,0,0,0,0,0,0,0,0,0,0,0,0,0,0,0,10021.0,PRESERVATION AMERICA,MARILYN MEYERS,907 FIFTH AVE STE 2A,NEW YORK,NY,10021-4156,0.0,3.0,2.0,199802.0,1.0,3.0,62.0,0.0,0.0,2.0,1.0,0.0,1.0,12,,,,A82,,A,A,A,AR,AR,AR,IN,,PF,O,AR,A,0.41467200000000004,36061.0,5602.0,5600.0,rtf2006pf,PC,O,AR,A,IN,,A82,A
82922,223698386,2006,200603,200708.0,29491034018207.0,T23,N,Y,0.0,1.0,2005,2.0,6.0,3.0,3,0.0,50460,0,0,0,0,0,24000,625,50460,58254,-7794,625,0,0,1678318,0,0,0,0,0,1678318,0,126,N,N,N,N,Y,N,N,N,N,N,N,N,N,N,N,N,N,N,N,0,0,0,0,57629,0,0,0,6221,1851,0,0,0,1678318,0,0,0,0,0,0,0,0,0,0,2550,0,1,0,1364,0,1364,625,2640,330,565,4160,0,0,0,0,0,0,0,0,0,0,0,0,0,0,0,50460,49050,108650,33062,241222,50460,49050,108650,33062,241222,0,0,0,0,0,0,0,10065.0,ANITA SHAPOLSKY ART FOUNDATION INC,JEFF BERNSTEIN,152 E 65TH ST,NEW YORK,NY,10065-6608,0.0,3.0,2.0,200004.0,1.0,3.0,0.0,0.0,0.0,1.0,1.0,0.0,1.0,3,,,,A12,,B,A,A,AR,AR,AR,IN,,PF,S,ZB,A,0.5775600000000001,36061.0,,,rtf2006pf,PC,S,ZB,A,IN,,T23,T
83160,204144184,2005,200512,200719.0,29491301022006.0,A51,N,Y,0.0,1.0,2005,2.0,6.0,6.0,3,0.0,2500000,0,0,0,0,0,0,0,2500000,0,2500000,0,0,0,2500000,0,0,0,0,0,2500000,0,0,N,N,N,N,Y,N,N,N,N,N,N,N,N,N,N,N,N,N,N,0,0,0,0,0,0,0,0,0,0,0,0,0,2500000,0,0,0,0,0,0,0,0,0,0,0,0,1,0,0,0,1,0,0,0,0,0,2500000,0,0,0,2500000,0,0,0,0,0,0,0,0,0,0,0,0,0,0,0,0,0,0,0,0,0,0,0,0,0,0,0,10017.0,KALLIR FAMILY FOUNDATION,PRAGER AND FENTON LLP,675 THIRD AVE,NEW YORK,NY,10017-5707,0.0,3.0,2.0,200605.0,1.0,3.0,0.0,0.0,0.0,1.0,1.0,0.0,1.0,12,,,,A51,,B,A,A,AR,AR,AR,IN,,PF,O,AR,A,0.9473860000000001,36061.0,5602.0,5600.0,rtf2006pf,PC,O,AR,A,IN,,A51,A
83181,204004329,2006,200611,200745.0,29491293071247.0,T22,N,Y,0.0,1.0,2005,3.0,5.0,5.0,3,0.0,903600,0,0,0,0,0,0,0,903600,0,903600,0,0,0,903600,0,0,0,0,0,903600,0,0,N,N,N,N,N,N,N,N,N,N,N,N,N,N,N,N,N,N,N,0,0,0,0,0,0,0,0,0,0,0,0,0,903600,0,0,0,0,0,0,0,0,0,0,0,0,0,0,0,0,0,0,0,0,0,0,0,0,0,0,0,0,0,0,0,0,0,0,0,0,0,0,0,0,0,0,0,0,0,0,0,0,0,0,0,0,0,0,10022.0,A&M PENN PHOTOGRAPHY FOUNDATION,ELMROCK CAPITAL INC,150 E 52ND ST 8TH FLR,NEW YORK,NY,10022-6017,0.0,3.0,2.0,200604.0,1.0,4.0,0.0,0.0,0.0,1.0,1.0,0.0,1.0,11,,,,A40,,A,A,A,AR,AR,AR,IN,,PF,O,AR,A,0.10864000000000001,36061.0,5602.0,5600.0,rtf2006pf,PC,O,AR,A,IN,,A40,A
83324,203867212,2005,200512,200741.0,29491202051177.0,T23,N,N,0.0,1.0,2005,3.0,6.0,6.0,3,0.0,1410875,0,0,0,0,0,0,0,1410875,0,1410875,0,0,0,1410875,0,0,0,0,0,1410875,0,0,N,N,N,N,N,N,N,N,N,N,N,N,N,N,N,N,N,N,N,0,0,0,0,0,0,0,0,0,0,0,0,0,1410875,0,0,0,0,0,0,0,0,0,0,0,0,0,0,0,0,0,0,0,0,0,0,0,0,0,0,0,0,0,0,0,0,0,0,0,0,0,0,0,0,0,0,0,0,0,0,0,0,0,0,0,0,0,0,10023.0,AMERICAN DECORATIVE ART 1900 FOUNDATION,BRUCE BARNES,1 W 72ND ST APT 63,NEW YORK,NY,10023-3423,0.0,3.0,1.0,200709.0,1.0,4.0,0.0,0.0,0.0,1.0,1.0,0.0,1.0,12,,,,A40,,A,A,A,AR,AR,AR,IN,,PF,O,AR,A,0.980592,36061.0,5602.0,5600.0,rtf2006pf,PC,O,AR,A,IN,,A40,A
83419,203562379,2006,200609,200742.0,29491272026017.0,M20,N,Y,0.0,1.0,2005,3.0,1.0,3.0,3,0.0,45121,0,0,0,0,0,0,26500,45121,44299,822,44171,0,0,822,0,0,0,0,0,822,0,84,N,N,N,N,N,N,N,N,N,N,N,N,N,N,N,N,N,N,N,0,0,0,0,17799,0,17671,0,0,822,0,0,0,822,0,0,0,0,0,0,0,0,0,0,1698,84,0,0,0,0,0,0,0,0,0,0,0,0,0,0,0,0,0,0,0,0,0,0,0,0,0,0,0,0,0,0,0,0,0,0,0,0,0,0,0,0,0,0,10019.0,WARNER MUSIC GROUP CHARITABLE FOUNDATION,SECRETARY,75 ROCKEFELLER PLAZA STE 12TH,NEW YORK,NY,10019-6908,0.0,3.0,1.0,200510.0,1.0,4.0,0.0,0.0,0.0,1.0,1.0,0.0,1.0,9,,,,A68,,A,A,A,AR,AR,AR,IN,,PF,O,AR,A,0.216054,36061.0,5602.0,5600.0,rtf2006pf,PC,O,AR,A,IN,,A68,A
84141,136168757,2005,200512,200713.0,29491336066216.0,,N,Y,0.0,1.0,2005,2.0,3.0,1.0,3,161.0,350,0,0,0,0,0,0,0,350,550,-200,550,0,0,99315,0,0,0,0,0,99315,0,88,N,N,N,N,Y,N,N,N,N,N,N,N,N,N,N,N,N,N,N,0,0,0,0,550,0,550,0,0,1679,0,0,0,99315,0,0,0,0,0,0,0,0,0,0,1779,0,88,0,0,0,88,550,8149,9519,1819,20037,0,99515,98764,99833,298112,0,99515,98764,99833,298112,0,0,0,0,0,0,0,0,0,0,0,0,0,0,0,0,0,0,0,0,0,0,10038.0,NEAR EASTERN ART RESEARCH CENTER INC,MCGRATH DOYLE & PHAIR,150 B DWAY,NEW YORK,NY,10038-0000,0.0,3.0,2.0,196501.0,1.0,3.0,161.0,180.0,119.0,1.0,1.0,0.0,1.0,12,,,,A20,,B,A,A,AR,AR,AR,IN,,PF,O,AR,A,0.53066,36061.0,5602.0,5600.0,rtf2006pf,PC,O,AR,A,IN,,A20,A
84170,136121080,2005,200512,200705.0,29491343110056.0,A80,N,N,0.0,1.0,2005,3.0,4.0,3.0,3,119.0,0,1643,0,0,0,42883,0,0,44526,20000,24526,20000,44526,0,130140,0,0,0,0,0,130140,0,4808,N,N,N,N,N,N,N,N,N,N,N,N,N,N,N,N,N,N,N,0,0,44526,0,20000,0,20000,0,0,130140,0,0,0,130140,891,0,0,0,0,891,0,1,0,891,97622,3917,0,0,0,0,0,0,0,0,0,0,0,0,0,0,0,0,0,0,0,0,0,0,0,0,0,0,0,0,0,0,0,0,0,0,0,0,0,0,0,0,1,0,10016.0,NEWPORT FOLK FOUNDATION INC,BELDOCK LEVINE & HOFFMAN,99 PARK AVE,NEW YORK,NY,10016-1601,0.0,3.0,1.0,196406.0,1.0,4.0,119.0,59.0,927.0,1.0,1.0,0.0,1.0,12,,,,A24,,B,A,A,AR,AR,AR,IN,,PF,O,AR,A,0.314229,36061.0,5602.0,5600.0,rtf2006pf,PC,O,AR,A,IN,,A24,A
84245,134149853,2005,200512,200705.0,29491013038197.0,T23,N,N,0.0,1.0,2005,3.0,8.0,6.0,3,0.0,1297725,1077,0,0,7150,556171,73846,10000,1862123,2247525,-385402,1336937,1077,1077,13430474,0,0,0,0,174703,13430474,0,8656,N,Y,N,N,N,N,N,N,N,N,N,N,N,N,N,N,N,N,N,0,0,1077,564398,2237525,0,1326937,0,563321,60069,0,0,0,13255771,11,0,0,0,0,0,0,0,0,11,175751,0,0,0,0,0,0,0,0,0,0,0,0,0,0,0,0,0,0,0,0,0,0,0,0,0,0,0,0,0,0,0,0,0,0,0,0,0,0,0,0,0,11,0,10022.0,ELYSABETH KLEINHANS THEATRICAL FOUNDATION INC,ELYSABETH KLEINHANS,59 E 59TH ST,NEW YORK,NY,10022-1104,0.0,3.0,1.0,200111.0,1.0,4.0,0.0,0.0,0.0,1.0,1.0,0.0,1.0,12,,,,A65,,A,A,A,AR,AR,AR,IN,,PF,O,AR,A,0.367977,36061.0,5602.0,5600.0,rtf2006pf,PC,O,AR,A,IN,,A65,A
84287,134023480,2005,200512,200706.0,29491020001007.0,A20,N,Y,0.0,1.0,2005,3.0,1.0,1.0,3,0.0,0,0,0,0,0,0,0,0,1,0,1,0,0,0,9762,0,0,0,0,0,9762,0,0,N,N,N,N,N,N,N,N,N,N,N,N,N,N,N,N,N,N,N,0,0,0,0,0,0,0,0,0,9762,0,0,0,9762,0,0,0,0,0,0,0,0,0,0,9762,0,0,0,0,0,0,0,0,0,0,0,0,0,0,0,0,0,0,0,0,0,0,0,0,0,0,0,0,0,0,0,0,0,0,0,0,0,0,0,0,0,0,0,10017.0,MAME-LOSHN-LTD,ISSER ZEILINGOLD,249 E 48TH ST APT 16B,NEW YORK,NY,10017-1535,0.0,3.0,2.0,199902.0,1.0,4.0,0.0,0.0,0.0,1.0,1.0,0.0,1.0,12,,,,A20,,B,A,A,AR,AR,AR,IN,,PF,O,AR,A,0.554634,36061.0,5602.0,5600.0,rtf2006pf,PC,O,AR,A,IN,,A20,A
84293,134012144,2004,200412,200734.0,29491216102177.0,A23,N,N,0.0,1.0,2004,3.0,3.0,2.0,3,0.0,10141,0,0,0,0,0,0,0,10141,34015,-23874,0,0,0,73439,0,0,0,0,0,73439,0,0,N,N,N,N,N,N,N,N,N,N,N,N,N,N,N,N,N,N,N,0,0,0,0,34015,0,0,0,0,32800,0,0,0,73439,0,0,0,0,0,0,0,0,0,0,0,0,0,0,0,0,0,0,0,0,0,0,0,0,0,0,0,0,0,0,0,0,0,0,0,0,0,0,0,0,0,0,0,0,0,0,0,0,0,0,0,0,0,0,11223.0,JEWISH ALLIANCE FOR PERFORMING ARTS INC,,PO BOX 230098,BROOKLYN,NY,11223-0098,0.0,3.0,1.0,200005.0,1.0,4.0,0.0,0.0,0.0,1.0,1.0,0.0,1.0,12,,,,A01,,A,A,A,AR,AR,AR,IN,,PF,O,AR,A,0.703257,36047.0,5602.0,5600.0,rtf2006pf,PC,O,AR,A,IN,,A0160,A
84323,133929462,2005,200512,200710.0,29491041029117.0,A40Z,N,N,0.0,1.0,2005,2.0,4.0,4.0,3,91.0,0,0,6544,57661,0,0,0,139110,64205,139461,-75256,139110,64205,0,490855,0,295249,0,295249,0,558230,0,29792,N,N,N,N,Y,N,N,N,N,N,N,N,N,N,N,N,N,N,N,0,0,64205,0,351,0,0,0,0,0,0,606,0,490855,1284,0,0,0,0,0,0,6,0,1284,604907,0,1,0,0,0,1,0,0,0,0,0,1,0,0,0,1,0,0,0,0,0,0,0,0,0,0,0,0,0,0,0,0,0,0,0,0,0,0,0,0,0,1290,0,10010.0,ALVIN E FRIEDMAN-KIEN FOUNDATION INC,ROBERT H HOROWITZ,ONE LEXINGTON AVE STE 2A,NEW YORK,NY,10010-5515,0.0,3.0,1.0,199612.0,1.0,3.0,91.0,0.0,0.0,1.0,1.0,0.0,1.0,12,,,,A40,,B,A,A,AR,AR,AR,IN,,PF,O,AR,A,0.579555,36061.0,5602.0,5600.0,rtf2006pf,PC,O,AR,A,IN,,A40,A
84334,133915372,2005,200512,200714.0,29491336125006.0,W70Z,N,N,0.0,1.0,2005,2.0,3.0,4.0,3,914.0,73495,1287,3944,-22473,0,0,26500,0,56253,165604,-109351,76663,4431,4431,93052,0,45275,19760,65035,0,88718,0,5544,N,Y,N,N,Y,N,N,N,N,N,N,N,N,N,N,N,N,N,N,0,0,5231,5231,165604,800,76663,800,800,348,0,0,0,93052,44,0,0,0,0,0,0,15,0,44,112569,0,5544,8407,11327,12836,38114,76663,133911,152028,159228,521830,0,0,0,0,0,0,0,0,0,0,0,0,0,0,0,73495,54152,100298,109410,337355,73495,54152,100298,109410,337355,5231,44199,14535,18467,82432,59,0,10013.0,DACTYL FOUNDATION FOR THE ARTS & HUMANITIES INC,VICTORIA N ALEXANDER,64 GRAND ST,NEW YORK,NY,10013-2267,0.0,3.0,1.0,199803.0,1.0,3.0,914.0,92.0,119.0,1.0,1.0,0.0,0.0,12,,,,A12,,B,A,A,AR,AR,AR,IN,,PF,S,ZB,A,0.833616,36061.0,5602.0,5600.0,rtf2006pf,PC,S,ZB,A,IN,,W70,W
84353,133823577,2005,200512,200708.0,29491034014067.0,A6AZ,N,Y,0.0,25.0,2005,3.0,3.0,4.0,3,994.0,187021,0,0,0,0,0,0,35291,187021,83197,103824,83197,0,0,58577,0,0,0,0,0,58577,0,3946,N,N,N,N,N,N,N,N,N,N,N,N,N,N,N,N,N,N,N,0,0,0,0,47906,0,47906,0,0,58577,0,0,0,58577,0,0,0,0,0,0,0,0,0,0,80112,3946,0,0,0,0,0,0,0,0,0,0,0,0,0,0,0,0,0,0,0,0,0,0,0,0,0,0,0,0,0,0,0,0,0,0,0,0,0,0,0,0,0,0,0.0,AMERICAN FRIENDS OF ENGLISH NATIONAL OPERA INC,PETER KOHL HAGAN & HARTSON JUXON,LONDON EC4M 8BV,ENGLAND,NY,00000-0000,0.0,3.0,1.0,200503.0,1.0,4.0,994.0,602.0,0.0,1.0,25.0,200712.0,1.0,12,,,,A11,,A,A,A,AR,AR,AR,IN,,PF,S,ZA,A,0.6578930000000001,36061.0,,,rtf2006pf,PC,S,ZA,A,OUT,F,A1160,A
84372,133685446,2005,200512,200722.0,29491013093187.0,,N,N,0.0,1.0,2005,3.0,2.0,0.0,3,994.0,0,0,0,0,0,0,0,0,0,150,-150,0,0,0,20094,0,0,0,0,0,20094,0,991,N,N,N,N,N,N,N,N,N,N,N,N,N,N,N,N,N,N,N,0,0,0,0,150,0,0,0,0,20094,0,0,0,20094,0,0,0,0,0,0,0,0,0,0,20117,991,0,0,0,0,0,0,0,0,0,0,0,0,0,0,0,0,0,0,0,0,0,0,0,0,0,0,0,0,0,0,0,0,0,0,0,0,0,0,0,0,0,0,10005.0,MUSIC FOR THE WORLD FOUNDATION INC,BCRS ASSOCIATES LLC,100 WALL ST 11TH FLR,NEW YORK,NY,10005-3701,0.0,3.0,1.0,199303.0,1.0,4.0,994.0,602.0,0.0,1.0,1.0,199612.0,1.0,12,,,,A68,,A,A,A,AR,AR,AR,IN,,PF,O,AR,A,0.435119,36061.0,5602.0,5600.0,rtf2006pf,PC,O,AR,A,IN,,T99,T
84379,133641609,2005,200512,200705.0,29491013004177.0,,N,Y,0.0,1.0,2005,3.0,3.0,1.0,3,321.0,0,238,0,0,0,0,0,0,238,200,38,0,238,38,67830,0,0,0,0,0,368855,0,613,N,N,N,N,N,N,N,N,N,N,N,N,N,N,N,N,N,N,N,0,0,238,238,200,0,0,0,200,12455,0,0,0,67830,2,0,0,0,0,0,0,0,0,2,12438,0,0,0,0,0,0,0,0,0,0,0,0,0,0,0,0,0,0,0,0,0,0,0,0,0,0,0,0,0,0,0,0,0,0,0,0,0,0,0,0,0,2,0,10003.0,ALEXANDER JEROME WILLOWS GREENBURGER MEMORIAL FIELDS INC,TEI,55 FIFTH AVE,NEW YORK,NY,10003-4301,0.0,3.0,1.0,199302.0,1.0,4.0,321.0,349.0,0.0,1.0,1.0,0.0,1.0,12,,,,A80,,C,A,A,AR,AR,AR,IN,,PF,O,AR,A,0.447082,36061.0,5602.0,5600.0,rtf2006pf,PC,O,AR,A,IN,,A80,A
84387,133599581,2005,200512,200709.0,29491336112026.0,,N,Y,0.0,25.0,2005,3.0,4.0,4.0,3,200.0,411575,564,0,0,0,0,0,118806,412139,429608,-17469,375385,564,0,134250,0,0,0,0,53255,134250,0,9121,N,Y,N,N,N,N,N,N,N,N,N,N,N,N,N,N,N,N,N,0,0,564,0,310802,0,256579,0,0,0,0,0,0,80995,6,0,0,0,0,0,0,0,0,6,185188,9115,0,0,0,0,0,0,0,0,0,0,0,0,0,0,0,0,0,0,0,0,0,0,0,0,0,0,0,0,0,0,0,0,0,0,0,0,0,0,0,0,6,0,10018.0,FRIENDS OF FAI THE ITALIAN ENVIRONMENT FOUNDATION INC,FMA,70 W 36TH ST FL 15,NEW YORK,NY,10018-1229,0.0,3.0,1.0,199105.0,1.0,4.0,200.0,0.0,0.0,1.0,25.0,200712.0,1.0,12,,,,A11,,A,A,A,AR,AR,AR,IN,,PF,S,ZA,A,0.9194030000000001,36061.0,5602.0,5600.0,rtf2006pf,PC,S,ZA,A,IN,,A1123,A
84405,133472572,2006,200606,200734.0,29491216016027.0,A20Z,N,N,0.0,1.0,2005,3.0,0.0,0.0,3,155.0,0,0,0,0,0,0,0,0,0,30235,-30235,30235,0,0,0,0,0,0,0,303279,1,0,0,N,N,N,N,N,N,Y,Y,N,N,N,N,N,N,N,N,N,N,N,0,0,0,0,30235,0,30235,0,0,0,0,0,0,-303279,0,0,0,0,0,0,0,0,0,0,0,0,0,0,0,0,0,0,0,0,0,0,0,0,0,0,0,0,0,0,0,0,0,0,0,0,0,0,0,0,0,0,0,0,0,0,0,0,0,0,0,0,0,0,10023.0,GUINEA DEVELOPMENT FOUNDATION INC,SYLLA,140 W END AVE APT 17G,NEW YORK,NY,10023-6142,0.0,3.0,1.0,199101.0,1.0,4.0,155.0,0.0,0.0,1.0,1.0,0.0,1.0,6,,,,A23,,A,A,A,AR,AR,AR,IN,,PF,O,AR,A,0.921032,36061.0,5602.0,5600.0,rtf2006pf,PC,O,AR,A,IN,,A23,A
84410,133442712,2005,200512,200744.0,29491293012197.0,,N,N,0.0,1.0,2005,3.0,1.0,1.0,3,122.0,0,0,0,0,0,1383,0,0,1383,0,1383,0,0,1383,4168,0,0,0,0,0,4168,0,181,N,N,N,N,N,N,N,N,N,N,N,N,N,N,N,N,N,N,N,0,0,0,1383,0,0,0,0,0,4168,0,0,0,4168,0,0,0,0,0,0,0,0,0,0,3680,181,0,0,0,0,0,0,0,0,0,0,0,0,0,0,0,0,0,0,0,0,0,0,0,0,0,0,0,0,0,0,0,0,0,0,0,0,0,0,0,0,0,0,10017.0,OUTSIDE IN JULY INC,BRAUN BUS MGMT INC,6 E 45TH ST 1401,NEW YORK,NY,10017-2401,0.0,3.0,1.0,198810.0,1.0,4.0,122.0,0.0,0.0,1.0,1.0,0.0,1.0,12,GARRISON,,,A31,,B,A,A,AR,AR,AR,IN,,PF,O,AR,A,0.13814500000000002,36061.0,5602.0,5600.0,rtf2006pf,PC,O,AR,A,IN,,A31,A
84418,133406046,2005,200512,200705.0,29491013004187.0,A40,N,Y,0.0,1.0,2005,3.0,1.0,1.0,3,0.0,0,127,0,0,0,0,0,0,127,101,26,0,127,27,7556,0,0,0,0,0,7556,369,372,N,N,N,N,N,N,N,N,N,N,N,N,N,N,N,N,N,N,N,0,0,127,127,101,0,0,0,100,7556,0,0,0,7556,3,0,0,0,0,0,0,0,0,3,7543,369,0,0,0,0,0,0,0,0,0,0,0,0,0,0,0,0,0,0,0,0,0,0,0,0,0,0,0,0,0,0,0,0,0,0,0,0,0,0,0,0,3,0,10003.0,FRANCIS J GREENBURGER FOUNDATION INC,TEI,55 FIFTH AVE,NEW YORK,NY,10003-4301,0.0,3.0,1.0,200106.0,1.0,4.0,0.0,0.0,0.0,1.0,1.0,0.0,1.0,12,,,,A40,,B,A,A,AR,AR,AR,IN,,PF,O,AR,A,0.645854,36061.0,5602.0,5600.0,rtf2006pf,PC,O,AR,A,IN,,A40,A
84458,133124565,2005,200512,200703.0,29491350012046.0,,N,Y,0.0,1.0,2005,3.0,4.0,4.0,3,119.0,214200,0,0,0,0,0,0,30000,214200,30000,184200,30000,0,0,186827,0,0,0,0,275,186827,0,425,N,N,N,N,N,N,N,N,N,N,N,Y,N,N,N,N,N,N,N,0,0,0,0,0,0,0,0,0,3627,0,183200,0,186552,0,0,0,0,0,0,0,0,0,0,8626,0,0,0,0,0,0,0,0,0,0,0,0,0,0,0,0,0,0,0,0,0,0,0,0,0,0,0,0,0,0,0,0,0,0,0,0,0,0,0,0,0,0,0,10022.0,AMERICAN FRIENDS OF THE CANADIAN CENTER FOR ARCHITECTURE INC,DAVIES WARD PHILLIPS&VINEBERG LLP,625 MADISON AVE 12TH FL,NEW YORK,NY,10022-1801,0.0,3.0,2.0,198206.0,1.0,4.0,119.0,0.0,0.0,1.0,1.0,0.0,1.0,12,,,,A11,,A,A,A,AR,AR,AR,IN,,PF,S,ZA,A,0.9306030000000001,36061.0,5602.0,5600.0,rtf2006pf,PC,S,ZA,A,IN,,A1140,A
84466,133074028,2006,200608,200733.0,29491202079047.0,,N,Y,0.0,1.0,2005,3.0,1.0,1.0,3,90.0,0,0,0,0,0,0,0,0,1,0,1,0,0,0,1,0,0,0,0,0,1,0,0,N,N,N,N,N,N,N,N,N,N,N,N,N,N,N,N,N,N,N,0,0,0,0,0,0,0,0,0,0,0,0,0,0,0,0,0,0,0,0,0,0,0,0,0,0,0,0,0,0,0,0,0,0,0,0,0,0,0,0,0,0,0,0,0,0,0,0,0,0,0,0,0,0,0,0,0,0,0,0,0,0,0,0,0,0,0,0,10025.0,MOSCOW DIRECTORS ART THEATRE STUDIO,,808 W END AVE APT 705,NEW YORK,NY,10025-5310,0.0,3.0,1.0,198107.0,1.0,4.0,90.0,149.0,59.0,1.0,1.0,0.0,1.0,8,,,,A6E,,A,A,A,AR,AR,AR,IN,,PF,O,AR,A,0.141148,36061.0,5602.0,5600.0,rtf2006pf,PC,O,AR,A,IN,,A6E,A
84474,133002233,2006,200606,200717.0,29491090017027.0,,N,Y,0.0,1.0,2005,3.0,4.0,1.0,3,60.0,5185,250,0,0,0,0,0,43175,5435,44009,-38574,43665,250,250,103690,0,0,4266,4266,10000,84306,0,538,N,Y,N,N,N,N,N,N,N,N,N,N,N,N,N,N,N,N,N,0,0,250,250,834,0,490,0,0,8040,0,0,0,93690,5,0,0,0,0,0,0,0,0,5,10928,533,0,0,0,0,0,0,0,0,0,0,0,0,0,0,0,0,0,0,0,0,0,0,0,0,0,0,0,0,0,0,0,0,0,0,0,0,0,0,0,0,0,0,10118.0,STEDAWILL ART FOUNDATION INC,L WOLLIN,350 FIFTH AVE,NEW YORK,NY,10118-0110,0.0,3.0,1.0,197911.0,1.0,4.0,60.0,0.0,0.0,1.0,1.0,0.0,1.0,6,,,,A12,,B,A,A,AR,AR,AR,IN,,PF,S,ZB,A,0.315546,36061.0,5602.0,5600.0,rtf2006pf,PC,S,ZB,A,IN,,A12,A
84557,113490626,2005,200512,200710.0,29491048043087.0,Q21,N,N,0.0,1.0,2005,3.0,1.0,1.0,3,0.0,0,26,0,0,0,0,0,0,26,0,26,0,0,0,5271,0,0,0,0,0,5271,0,0,N,N,N,N,N,N,N,N,N,N,N,N,N,N,N,N,N,N,N,0,0,0,0,0,0,0,0,0,0,0,0,0,5271,0,0,0,0,0,0,0,0,0,0,0,0,0,0,0,0,0,0,0,0,0,0,0,0,0,0,0,0,0,0,0,0,0,0,0,0,0,0,0,0,0,0,0,0,0,0,0,0,0,0,0,0,0,0,10025.0,A@RAZVIN TRUST FOR RUSSIAN AMERICAN UNDERSTANDING,MARY JANE BOLIN,417 RIVERSIDE DR APT 8A2,NEW YORK,NY,10025-7945,0.0,3.0,1.0,199909.0,1.0,4.0,0.0,0.0,0.0,2.0,1.0,0.0,1.0,12,,,,A23,,A,A,A,AR,AR,AR,IN,,PF,O,AR,A,0.00027711900000000004,36061.0,5602.0,5600.0,rtf2006pf,PC,O,AR,A,IN,,A23,A
84558,113487168,2006,200603,200730.0,29491188013047.0,A700,N,N,0.0,1.0,2005,3.0,3.0,4.0,3,0.0,182394,2698,0,0,0,0,16350,25051,185092,227379,-42287,226336,2698,2698,71249,0,0,0,0,0,71249,0,0,N,Y,N,N,N,N,N,N,N,N,N,N,N,N,N,N,Y,N,N,0,0,2698,2698,202328,0,201285,0,0,0,0,0,0,71249,27,0,0,0,0,150,0,0,0,27,0,0,0,0,0,0,0,0,0,0,0,0,0,0,0,0,0,0,0,0,0,0,0,0,0,0,0,0,0,0,0,0,0,0,0,0,0,0,0,0,0,0,-123,123,11242.0,LEGACY PROJECT INC,,26 COURT ST STE 2611,BROOKLYN,NY,11242-1126,0.0,3.0,1.0,199907.0,1.0,4.0,0.0,0.0,0.0,1.0,1.0,200312.0,1.0,3,,,,A70,,A,A,A,AR,AR,AR,IN,,PF,O,AR,A,0.363817,36047.0,5602.0,5600.0,rtf2006pf,PC,O,AR,A,IN,,A70,A
84590,113309848,2004,200412,200732.0,29491104016237.0,A700,N,N,0.0,1.0,2004,3.0,3.0,3.0,3,994.0,54570,0,0,0,0,0,0,0,54570,57083,-2513,0,0,0,30855,0,0,0,0,233864,30855,62,62,N,N,N,N,N,N,Y,N,N,N,N,N,N,N,N,N,N,N,N,0,0,0,0,57083,0,0,0,0,8070,0,0,207774,-203009,0,0,0,0,0,0,0,0,0,0,1250,62,0,0,0,0,0,0,0,0,0,0,0,0,0,0,0,0,0,0,0,0,0,0,0,0,0,0,0,0,0,0,0,0,0,0,0,0,0,0,0,0,0,0,10036.0,PAUL ROBESON FOUNDATION INC,ELIZABETH J SALEN,1560 BROADWAY SUITE 1600,NEW YORK,NY,10036-1518,0.0,3.0,1.0,199610.0,1.0,4.0,994.0,64.0,0.0,1.0,1.0,0.0,1.0,12,,,,A70,,A,A,A,AR,AR,AR,IN,,PF,O,AR,A,0.792569,36061.0,5602.0,5600.0,rtf2006pf,PC,O,AR,A,IN,,A70,A
84591,113276202,2005,200512,200706.0,29491027041027.0,A25,N,Y,0.0,25.0,2005,3.0,1.0,1.0,3,994.0,7800,0,0,0,0,1101,0,0,8901,9468,-567,8980,0,613,288,0,0,0,0,0,288,0,28,N,N,N,N,N,N,N,N,N,N,N,N,N,N,N,N,N,N,N,0,0,0,1101,9468,0,8980,0,488,288,0,0,0,288,0,0,0,0,0,0,0,0,0,0,572,28,0,0,0,0,0,0,0,0,0,0,0,0,0,0,0,0,0,0,0,0,0,0,0,0,0,0,0,0,0,0,0,0,0,0,0,0,0,0,0,0,0,0,10021.0,ART SPIRIT INC,,23 E 74TH ST APT 6B,NEW YORK,NY,10021-2619,0.0,3.0,2.0,199602.0,1.0,4.0,994.0,91.0,0.0,1.0,25.0,200612.0,1.0,12,,,,A25,,B,A,A,AR,AR,AR,IN,,PF,O,AR,A,0.919226,36061.0,5602.0,5600.0,rtf2006pf,PC,O,AR,A,IN,,A25,A
84600,113121207,2006,200602,200708.0,29491034019017.0,A60Z,N,Y,0.0,1.0,2005,3.0,4.0,1.0,3,122.0,0,0,0,0,0,0,0,0,1,0,1,0,0,0,101510,0,0,0,0,75962,101510,0,0,N,N,N,N,N,N,N,N,N,N,N,Y,N,N,N,N,N,N,N,0,0,0,0,0,0,0,0,0,0,0,0,0,25548,0,0,0,0,0,0,0,0,0,0,0,0,0,0,0,0,0,0,0,0,0,0,0,0,0,0,0,0,0,0,0,0,0,0,0,0,0,0,0,0,0,0,0,0,0,0,0,0,0,0,0,0,0,0,10022.0,B KING PRODUCTIONS INC,STARR & CO,850 THIRD AVE,NEW YORK,NY,10022-6222,0.0,3.0,1.0,199402.0,1.0,4.0,122.0,0.0,0.0,1.0,1.0,0.0,1.0,2,,,,A60,,B,A,A,AR,AR,AR,IN,,PF,O,AR,A,0.753896,36061.0,5602.0,5600.0,rtf2006pf,PC,O,AR,A,IN,,A60,A
84683,61507432,2006,200606,200726.0,29491160242107.0,A20Z,N,Y,0.0,1.0,2005,3.0,1.0,1.0,3,994.0,0,0,0,0,0,0,0,0,1,0,1,0,0,0,1,0,0,0,0,0,1,0,0,N,N,N,N,N,N,N,N,N,N,N,N,N,N,N,N,N,N,N,0,0,0,0,0,0,0,0,0,0,0,0,0,0,0,0,0,0,0,0,0,0,0,0,0,0,0,0,0,0,0,0,0,0,0,0,0,0,0,0,0,0,0,0,0,0,0,0,0,0,0,0,0,0,0,0,0,0,0,0,0,0,0,0,0,0,0,0,10003.0,WYOMING ARTS INC,HOWARD GUTTENPLAN,5 E 3RD ST,NEW YORK,NY,10003-0800,0.0,3.0,2.0,199808.0,1.0,4.0,994.0,90.0,91.0,1.0,1.0,0.0,1.0,6,,,,A20,,B,A,A,AR,AR,AR,IN,,PF,O,AR,A,0.526774,36061.0,5602.0,5600.0,rtf2006pf,PC,O,AR,A,IN,,A20,A
84994,20501122,2006,200606,200708.0,29491034039227.0,A68,N,Y,0.0,1.0,2005,3.0,2.0,3.0,3,0.0,5650,0,0,0,0,49690,3000,0,55340,52259,3081,0,10,0,14759,0,0,0,0,0,14795,651,651,N,N,N,N,N,N,N,N,N,N,N,N,N,N,N,N,N,N,N,0,0,10,0,52259,0,0,0,0,14759,0,0,0,14759,0,0,0,0,0,0,0,0,0,0,13219,651,0,0,0,0,0,0,0,0,0,0,0,0,0,0,0,0,0,0,0,0,0,0,0,0,0,0,0,0,0,0,0,0,0,0,0,0,0,0,0,0,0,0,10023.0,WATERVILLE VALLEY MUSIC CENTER,DAVID SEGAL,74 W 68TH ST APT 1C,NEW YORK,NY,10023-6049,0.0,3.0,1.0,199904.0,1.0,4.0,0.0,0.0,0.0,5.0,1.0,0.0,1.0,6,,,,A68,,A,A,A,AR,AR,AR,IN,,PF,O,AR,A,0.262317,36061.0,5602.0,5600.0,rtf2006pf,PC,O,AR,A,IN,,A68,A
86079,10547898,2003,200312,200451.0,29491311026054.0,A80,N,Y,0.0,1.0,2003,3.0,4.0,2.0,3,0.0,20000,0,0,0,0,0,0,0,20000,2244,17756,2244,0,0,135325,0,0,0,0,125000,135325,0,0,N,N,N,N,N,N,N,Y,N,N,N,N,N,N,N,N,N,N,N,0,0,0,0,2244,2244,2244,2244,0,10325,0,0,0,10325,0,0,0,0,0,0,0,0,0,0,0,0,0,0,0,0,0,0,0,0,0,0,0,0,0,0,0,0,0,0,0,0,0,0,0,0,0,0,0,0,0,0,0,0,0,0,0,0,0,0,0,0,0,0,10003.0,WTC PLATFORM FOUNDATION INC,MILGROM GALUSKIN BALMUTH & CO CPA,5 UNION SQ W,NEW YORK,NY,10003-3306,0.0,3.0,1.0,200205.0,1.0,4.0,0.0,0.0,0.0,1.0,13.0,0.0,1.0,12,,,,A80,,C,A,A,AR,AR,AR,IN,,PF,O,AR,A,0.7966979999999999,36061.0,5602.0,5600.0,core2003pf,PF,S,AR,A,IN,,A80,A
86255,133573803,2003,200312,200424.0,29491143247154.0,,N,Y,0.0,1.0,2003,3.0,1.0,1.0,3,119.0,0,0,0,0,0,0,0,0,1,194,-193,194,0,0,1,0,0,0,0,0,1,0,0,N,N,N,N,N,N,N,N,N,N,N,N,N,N,N,N,N,N,N,0,0,0,0,194,0,194,0,0,0,0,0,0,0,0,0,0,0,0,0,0,0,0,0,0,0,0,0,0,0,0,0,0,0,0,0,0,0,0,0,0,0,0,0,0,0,0,0,0,0,0,0,0,0,0,0,0,0,0,0,0,0,0,0,0,0,0,0,10022.0,FILM FOUNDATION INC,STARR & COMPANY,445 PARK AVE 7TH FLR,NEW YORK,NY,10022-2606,0.0,3.0,1.0,199008.0,1.0,4.0,119.0,0.0,0.0,1.0,13.0,0.0,1.0,12,,,,A31,,B,A,A,AR,AR,AR,IN,,PF,O,AR,A,0.660601,36061.0,5602.0,5600.0,core2003pf,PF,S,AR,A,IN,,A31,A
86620,300136129,2004,200406,200432.0,29491206006214.0,A65,N,Y,0.0,20.0,2003,2.0,1.0,3.0,3,0.0,39401,19,0,-3127,0,8053,2355,89,44626,37589,7037,17360,299,2248,1,0,0,0,0,0,1,0,1,N,Y,N,Y,Y,N,Y,N,Y,N,N,N,N,N,N,N,N,N,N,280,0,299,8053,37500,0,17271,0,5805,0,0,0,0,0,3,0,0,0,0,0,0,0,0,3,22,0,1,0,0,0,1,17360,39257,0,0,56617,1,0,0,0,1,0,0,0,0,0,0,0,0,0,0,0,0,0,0,0,0,0,0,0,0,0,0,0,0,0,3,0,10009.0,BOTTLE FACTORY THEATER COMPANY,AMANDA GRUSS,195 E 3RD ST,NEW YORK,NY,10009-7424,0.0,3.0,2.0,200301.0,1.0,3.0,0.0,0.0,0.0,1.0,13.0,0.0,1.0,6,,,,A65,,C,A,A,AR,AR,AR,IN,,PF,O,AR,A,0.495267,36061.0,5602.0,5600.0,core2003pf,PF,O,AR,A,IN,,A65,A
86653,311595881,2003,200312,200445.0,29491290070234.0,A31Z,N,Y,0.0,1.0,2003,3.0,2.0,4.0,3,994.0,287846,0,0,0,0,38675,35922,3500,326521,316739,9782,3500,0,38675,19782,0,0,0,0,0,19782,0,80,N,N,N,N,N,N,N,N,N,N,N,N,N,N,N,N,N,N,N,0,0,0,38675,313239,0,0,0,0,1020,0,0,0,19782,0,0,0,0,0,0,0,0,0,0,1620,80,0,0,0,0,0,0,0,0,0,0,0,0,0,0,0,0,0,0,0,0,0,0,0,0,0,0,0,0,0,0,0,0,0,0,0,0,0,0,0,0,0,0,10170.0,URBANWORLD FOUNDATION INC,FEINSTEIN MGT,420 LEXINGTON AVE STE 215,NEW YORK,NY,10170-0014,0.0,3.0,1.0,199807.0,1.0,4.0,994.0,62.0,0.0,1.0,13.0,0.0,1.0,12,,,,A31,,C,A,A,AR,AR,AR,IN,,PF,O,AR,A,0.405415,36061.0,5602.0,5600.0,core2003pf,PF,S,AR,A,IN,,A31,A
87295,611446755,2003,200312,200436.0,29491234058174.0,A31,N,Y,0.0,1.0,2003,2.0,3.0,4.0,3,0.0,158223,0,0,0,0,0,0,0,158223,136712,21511,28181,0,0,41792,0,0,0,0,20281,41792,0,868,N,N,N,N,Y,N,N,N,N,N,N,N,N,N,N,N,N,N,N,0,0,0,0,136712,0,28181,0,107500,37774,0,0,0,21511,0,0,0,0,0,0,0,0,0,0,20896,0,1,0,0,0,1,28181,0,0,0,28181,1,0,0,0,1,0,0,0,0,0,579,0,0,0,579,0,0,0,0,0,0,0,0,0,0,0,0,0,0,0,0,0,10119.0,FONDAZIONE PRADA NEW YORK INC,GEORGE R FUNARO & CO PC,1 PENN PLZ,NEW YORK,NY,10119-0002,0.0,3.0,1.0,200307.0,1.0,3.0,0.0,0.0,0.0,1.0,13.0,0.0,1.0,12,,,,A31,,C,A,A,AR,AR,AR,IN,,PF,O,AR,A,0.727448,36061.0,5602.0,5600.0,core2003pf,PF,O,AR,A,IN,,A31,A
